name,email,sector,city,phone,website,address,formations,description,url
"ESIEA, ingénieur·e·s d’un numérique utile - Laval",admissions@esiea.fr,École d'ingénieurs,Laval,0182392500,https://bit.ly/3Rw2Dsy?utm_source=diplomeos,,,,https://diplomeo.com/etablissement-esiea_ingenieur_e_s_d_un_numerique_utile_laval-1848
Efrei - Ecole d'ingénieur - Informatique et technologies du numérique - Paris,admissions@efrei.fr,École d'ingénieurs,Paris,33188289001,Non trouvé,,,,https://diplomeo.com/etablissement-efrei_ecole_d_ingenieur_informatique_et_technologies_du_numerique_paris-2384
École d’Ingénieurs de PURPAN,communication@purpan.fr,École d'ingénieurs,Toulouse,33561153030,Non trouvé,,,,https://diplomeo.com/etablissement-ecole_d_ingenieurs_de_purpan-2390
IESEG School of Management Lille,ieseg@ieseg.fr,École de gestion et de commerce,Lille,33320545892,Non trouvé,,,,https://diplomeo.com/etablissement-ieseg_school_of_management_lille-2879
IESEG School of Management Paris,ieseg@ieseg.fr,École de gestion et de commerce,Paris,33320545892,https://www.ieseg.fr/?utm_source=PartDiplomeo20240314Ecole&utm_medium=FicheEcole&utm_campaign=RFrance?utm_source=diplomeos,,,,https://diplomeo.com/etablissement-ieseg_school_of_management_paris-2885
Clermont School of Business,info@esc-clermont.fr,École de gestion et de commerce,Clermont-Ferrand,33473982424,https://www.clermont-sb.fr/?utm_source=diplomeos,,,,https://diplomeo.com/etablissement-clermont_school_of_business-2922
AFIP Formations,contact@afip-formations.com,École spécialisée,Villeurbanne,33478378181,Non trouvé,,,,https://diplomeo.com/etablissement-afip_formations-6774
L'École Multimédia,service.communication@ecole-multimedia.com,École de l'internet,Paris,33142785101,Non trouvé,,,,https://diplomeo.com/etablissement-l_ecole_multimedia-7273
MBS EDUCATION,admission@mbseducation.fr,Centre de formation d'apprentis,Paris,33140500202,Non trouvé,,,,https://diplomeo.com/etablissement-mbs_education-7281
Aurlom BTS +,aurlombtsplus@gmail.com,École de gestion et de commerce,Paris,33140411238,https://www.aurlom.com/bts.html?utm_source=diplomeos,,,,https://diplomeo.com/etablissement-aurlom_bts-7345
H3 Campus Paris,contact@h3campus.fr,École de gestion et de commerce,Paris,33142800049,https://h3campus.fr/?utm_source=diplomeos,,,,https://diplomeo.com/etablissement-h3_campus_paris-7410
Antemed Epsilon,paris@supexam.fr,Classes préparatoires aux concours,Paris 6e,33148071717,https://www.antemed-epsiloon.fr?utm_source=diplomeos,,,,https://diplomeo.com/etablissement-antemed_epsilon-7445
EPF - Paris Cachan,communication@epf.fr,École d'ingénieurs,Cachan,33141130151,https://www.epf.fr/?utm_source=diplomeo&utm_medium=page_ecole&utm_campaign=2425_Ref?utm_source=diplomeos,,,,https://diplomeo.com/etablissement-epf_paris_cachan-7812
GARTI - École Supérieure de Graphisme,garti@ecolegarti.com,"Design, Graphisme, 3D, Vidéo, Mode",Paris,33175611000,Non trouvé,,,,https://diplomeo.com/etablissement-garti_ecole_superieure_de_graphisme-8109
Digital School of Paris,contact@digitalschool.paris,École de l'internet,Paris,33173433000,https://www.digitalschool.paris/?utm_source=diplomeos,,,,https://diplomeo.com/etablissement-digital_school_of_paris-9877
"Ynov 3D, Animation & Jeux Vidéo - Paris Ouest",contact-paris@ynov.com,"Design, Graphisme, 3D, Vidéo, Mode",Nanterre,0148070702,https://www.ynov.com/campus/paris/?utm_source=diplomeos,,,,https://diplomeo.com/etablissement-ynov_3d_animation_jeux_video_paris_ouest-10148
"ESIEA, ingénieur·e·s d’un numérique utile - Paris / Ivry-sur-Seine",admissions@esiea.fr,École d'ingénieurs,Ivry-sur-Seine,0182392500,https://bit.ly/3yZzJd5?utm_source=diplomeos,,,,https://diplomeo.com/etablissement-esiea_ingenieur_e_s_d_un_numerique_utile_paris_ivry_sur_seine-10725
Digital College - Paris La Défense,contact@digital-college.fr,École de l'internet,Nanterre,33155230804,https://digital-college.fr?utm_source=diplomeos,,,,https://diplomeo.com/etablissement-digital_college_paris_la_defense-11366
301,contact@301-digital.com,École de l'internet,Rennes,33299148088,https://www.301-digital.com/?utm_source=diplomeos,,,,https://diplomeo.com/etablissement-301-11775
IRIIG,contact@iriig.com,École de gestion et de commerce,Lyon 7e,0484350526,https://www.iriig.com/?utm_source=diplomeos,,,,https://diplomeo.com/etablissement-iriig-11829
DSTI School of Engineering - Paris,contact@dsti.institutes,École d'ingénierie informatique,Paris,33489412944,https://dsti.school?utm_source=diplomeos,,,,https://diplomeo.com/etablissement-dsti_school_of_engineering_paris-11920
DSTI School of Engineering - Nice - Sophia-Antipolis,contact@dsti.institutes,École d'ingénierie informatique,Nice,33489412944,https://dsti.school?utm_source=diplomeos,,,,https://diplomeo.com/etablissement-dsti_school_of_engineering_nice_sophia_antipolis-11922
European School of Cybersecurity,contact@esc-cybersecurity.com,École d'ingénierie informatique,Lyon,0469960065,https://www.esc-cybersecurity.com/?utm_source=diplomeos,,,,https://diplomeo.com/etablissement-european_school_of_cybersecurity-12253
Ynov Architecture  d’intérieur  -  Paris Ouest,contact-paris@ynov.com,École d'architecture,Nanterre,0148070702,https://www.ynov.com/metier/architecte-interieur-designer-espace/?utm_source=diplomeos,,,,https://diplomeo.com/etablissement-ynov_architecture_d_interieur_paris_ouest-12334
Ynov Tech & Business -  Paris Ouest,contact-paris@ynov.com,École de l'internet,Nanterre,0148070702,https://www.ynov.com/formation/ynov-web-management/?utm_source=diplomeos,,,,https://diplomeo.com/etablissement-ynov_tech_business_paris_ouest-12348
FMS - L’école de commerce du Food Business - Paris,admission@fms-school.com,École de gestion et de commerce,Paris,0184831470,https://food-management-school.com/?utm_source=Diplomeo&utm_medium=mini+site+FMS+sur+diplomeo&utm_campaign=Site+FMS+diplomeo&utm_content=bouton+site+fms?utm_source=diplomeos,,,,https://diplomeo.com/etablissement-fms_l_ecole_de_commerce_du_food_business_paris-12359
DIFCAM Ile-de-France,idf@difcam.com,Centre de formation d'apprentis,Montrouge,33149534323,https://implantation.difcam.com/14-cfa-difcam-ile-de-france?utm_source=diplomeos,,,,https://diplomeo.com/etablissement-difcam_ile_de_france-12429
IFFP - Institut Français de Formation Professionnelle,contact@iffp.pros,Centre de formation professionnelle,Nanterre,0180884455,https://iffp.pro/?utm_source=diplomeos,,,,https://diplomeo.com/etablissement-iffp_institut_francais_de_formation_professionnelle-12897
Purple Campus - Alès,ales@purple-campus.com,Centre de formation d'apprentis,Alès,33466912121,https://purple-campus.com?utm_source=diplomeos,,,,https://diplomeo.com/etablissement-purple_campus_ales-13138
Purple Campus - Nîmes,marguerittes@purple-campus.com,Centre de formation d'apprentis,Marguerittes,33466879759,https://purple-campus.com?utm_source=diplomeos,,,,https://diplomeo.com/etablissement-purple_campus_nimes-13139
Purple Campus - Carcassonne,carcassonne@purple-campus.com,Centre de formation d'apprentis,Carcassonne,0468713876,https://purple-campus.com?utm_source=diplomeos,,,,https://diplomeo.com/etablissement-purple_campus_carcassonne-13140
Purple Campus - Narbonne,narbonne@purple-campus.com,Centre de formation d'apprentis,Narbonne,33468441802,https://purple-campus.com?utm_source=diplomeos,,,,https://diplomeo.com/etablissement-purple_campus_narbonne-13141
SMBS - L'école de commerce de la santé - Paris,smbs@smbs-school.com,École de gestion et de commerce,Paris 13e,33184831471,https://sante-management-school.com/?utm_source=diplomeos,,,,https://diplomeo.com/etablissement-smbs_l_ecole_de_commerce_de_la_sante_paris-13181
Ecole de Management de Normandie - Paris,admissions@em-normandie.fr,École de gestion et de commerce,Paris,33175000076,https://www.em-normandie.com/?utm_source=site_referencement&utm_medium=site_lien&utm_campaign=diplomeo?utm_source=diplomeos,,,,https://diplomeo.com/etablissement-ecole_de_management_de_normandie_paris-25
Ecole de Management de Normandie - Caen,admissions@em-normandie.fr,École de gestion et de commerce,Caen,330231467878,https://www.em-normandie.com/?utm_source=site_referencement&utm_medium=site_lien&utm_campaign=diplomeo?utm_source=diplomeos,,,,https://diplomeo.com/etablissement-ecole_de_management_de_normandie_caen-27
CREAPOLE ESDI,admi@creapole.fr,"Design, Graphisme, 3D, Vidéo, Mode",Paris 1er,33144882020,https://www.creapole.fr?utm_source=diplomeos,,,,https://diplomeo.com/etablissement-creapole_esdi-235
IFAG - Institut de formation aux affaires et à la gestion - Auxerre,recrutement.es@pole-formation.net,École de gestion et de commerce,Auxerre,33608777568,https://www.ifag.com/campus/auxerre?utm_source=diplomeos,,,,https://diplomeo.com/etablissement-ifag_institut_de_formation_aux_affaires_et_a_la_gestion_auxerre-423
CFA CERFAL,contact@cerfal.fr,Centre de formation d'apprentis,Montrouge,33140522870,Non trouvé,,,,https://diplomeo.com/etablissement-cfa_cerfal-522
SUP DE VINCI - Paris,contact@supdevinci.fr,École d'ingénierie informatique,Puteaux,33141167280,https://www.supdevinci.fr/?utm_source=diplomeos,,,,https://diplomeo.com/etablissement-sup_de_vinci_paris-546
ISIPCA,info@isipca.fr,Centre de formation d'apprentis,Versailles,33139237000,Non trouvé,,,,https://diplomeo.com/etablissement-isipca-639
EPMT - École de Paris des Métiers de la Table,inscription@epmt.fr,Centre de formation d'apprentis,Paris,33144091200,Non trouvé,,,,https://diplomeo.com/etablissement-epmt_ecole_de_paris_des_metiers_de_la_table-720
Faculté Des Métiers - Rennes,mathilde.friquet@fac-metiers.fr,Centre de formation d'apprentis,Rennes,33299054545,https://www.fac-metiers.fr/?utm_source=diplomeos,,,,https://diplomeo.com/etablissement-faculte_des_metiers_rennes-865
ESPAS,espas@univ-catholille.fr,École de gestion et de commerce,Lille,0320549090,https://ecole-espas.fr/?utm_source=partenaires&utm_medium=résultatsderecherchenaturels&utm_campaign=diplomeo?utm_source=diplomeos,,,,https://diplomeo.com/etablissement-espas-1009
ESICAD - Ecole supérieure privée de commerce et gestion - Montpellier,montpellier@esicad.com,École de gestion et de commerce,Montpellier,33467105756,https://www.esicad.com/?utm_source=diplomeos,,,,https://diplomeo.com/etablissement-esicad_ecole_superieure_privee_de_commerce_et_gestion_montpellier-1013
IEFT - Institut européen de formation au tourisme - Lyon,infolyon@ieftourisme.com,Autre établissement d'enseignement,Lyon,33472851740,Non trouvé,,,,https://diplomeo.com/etablissement-ieft_institut_europeen_de_formation_au_tourisme_lyon-1025
ILERI - L’Institut Libre des Relations Internationales et des Sciences Politiques  - Lyon,admissions.lyon@ileri.fr,École spécialisée,Lyon,0472853831,https://www.ileri.fr/campus/lyon-leclair?utm_source=Diplomeo&utm_medium=ANNUAIRE&utm_campaign=Annuaire_2024_2025&utm_content=ANNUAIRE_Diplomeo?utm_source=diplomeos,,,,https://diplomeo.com/etablissement-ileri_l_institut_libre_des_relations_internationales_et_des_sciences_politiques_lyon-1092
ITII Bourgogne - Campus d'Auxerre,contact@itiibourgogne.com,École d'ingénieurs,Auxerre,33386492618,Non trouvé,,,,https://diplomeo.com/etablissement-itii_bourgogne_campus_d_auxerre-1126
ESGRH école supérieure de gestion des ressources humaines,admissions@esgrh.fr,École de ressources humaines,Paris 11e,33186479361,Non trouvé,,,,https://diplomeo.com/etablissement-esgrh_ecole_superieure_de_gestion_des_ressources_humaines-1149
IHEDREA - L'école de l'Agri et de l'Agro Management - Paris,contact@paris.ihedrea.orrgs,École spécialisée,Courbevoie,33141066222,https://www.ihedrea.org/?utm_source=diplomeo&utm_medium=annuaire&utm_campaign=IHEDREA_2022_2023&utm_content=ANNUAIRE_diplomeo?utm_source=diplomeos,,,,https://diplomeo.com/etablissement-ihedrea_l_ecole_de_l_agri_et_de_l_agro_management_paris-1181
ECS Paris - Ecole de communication,info@ecs-paris.com,École de communication,Paris,33146472990,Non trouvé,,,,https://diplomeo.com/etablissement-ecs_paris_ecole_de_communication-1557
ESUPCOM - ECOLE SUPERIEURE DE COMMUNICATION - LILLE,lille@esupcom.com,École de communication,Lille,33320400012,https://www.esupcom.com/nos-ecoles/lille/?utm_source=diplomeos,,,,https://diplomeo.com/etablissement-esupcom_ecole_superieure_de_communication_lille-1600
ESUPCOM - ECOLE SUPERIEURE DE COMMUNICATION - AIX-EN-PROVENCE,aix@esupcom.com,École de communication,Vitrolles,33442646200,https://www.esupcom.com/nos-ecoles/aix-en-provence/?utm_source=diplomeos,,,,https://diplomeo.com/etablissement-esupcom_ecole_superieure_de_communication_aix_en_provence-1601
TALIS Paris,paris@talis-bs.com,École de gestion et de commerce,Paris 11e,0140388786,https://www.talis.community/?utm_source=diplomeos,,,,https://diplomeo.com/etablissement-talis_paris-1604
Luxury Hotelschool Paris,admissions@lh.schools,École hôtelière,Paris,33147313939,https://www.luxuryhotelschool.fr?utm_source=diplomeos,,,,https://diplomeo.com/etablissement-luxury_hotelschool_paris-1666
ESARC Toulouse,toulouse@esarc-evolution-toulouse.fr,École de gestion et de commerce,Toulouse,33561399798,Non trouvé,,,,https://diplomeo.com/etablissement-esarc_toulouse-1672
"Ecole supérieure des métiers de l’image, du son et de la création 2D-3D",webmaster@emc.fr,"École de photo, audiovisuel, cinéma",Malakoff,33146553919,https://www.emc.fr/?utm_source=diplomeos,,,,https://diplomeo.com/etablissement-ecole_superieure_des_metiers_de_l_image_du_son_et_de_la_creation_2d_3d-1736
AFOREM Rennes,formation@aforem.fr,École de gestion et de commerce,Rennes,33299354600,https://www.aforem.fr/ecole/campus-rennes/?utm_source=diplomeos,,,,https://diplomeo.com/etablissement-aforem_rennes-1822
Ecole supérieure européenne de management en alternance - Lyon,lyon@ecema.fr,Grande école de commerce,Lyon,33472738229,https://info.ecema.fr/rentree-lyon-diplomeo-site/?utm_source=diplomeos,,,,https://diplomeo.com/etablissement-ecole_superieure_europeenne_de_management_en_alternance_lyon-1826
ESITC - Ecole supérieure d'Ingénieurs des Travaux de la Construction de Paris,contact@esitc-paris.fr,École d'ingénieurs,Arcueil,33181801515,Non trouvé,,,,https://diplomeo.com/etablissement-esitc_ecole_superieure_d_ingenieurs_des_travaux_de_la_construction_de_paris-1851
ESP - Ecole supérieure de publicité - Paris,plandi@espub.org,École de communication,Paris,33764363995,https://espub.org?utm_source=diplomeos,,,,https://diplomeo.com/etablissement-esp_ecole_superieure_de_publicite_paris-1918
Ecole Supérieure Informatique et de Commerce - Paris,contact@esic.fr,Grande école de commerce,Malakoff,33153901520,Non trouvé,,,,https://diplomeo.com/etablissement-ecole_superieure_informatique_et_de_commerce_paris-1929
Ecole Supérieure de Logistique Industrielle Redon,contact@gip-cei.com,Autre établissement d'enseignement,Redon,33299716020,https://gip-cei.com/esli-redon/?utm_source=diplomeos,,,,https://diplomeo.com/etablissement-ecole_superieure_de_logistique_industrielle_redon-1930
ESGF - Ecole  Supérieure de Gestion et Finance Paris,admissions@esgf.fr,École de gestion et de commerce,Courbevoie,33186472994,Non trouvé,,,,https://diplomeo.com/etablissement-esgf_ecole_superieure_de_gestion_et_finance_paris-1936
ESGCI,admissions@esgci.com,École de gestion et de commerce,Paris,33186472993,https://www.esgci.com?utm_source=diplomeos,,,,https://diplomeo.com/etablissement-esgci-1937
Ecole supérieure de commerce et de management spécialisée Tourisme,contact@escaet.fr,École hôtelière,Aix-en-Provence,33442966497,Non trouvé,,,,https://diplomeo.com/etablissement-ecole_superieure_de_commerce_et_de_management_specialisee_tourisme-1949
ESA - École Supérieure d'Assurances,admission@esassurances.com,École d'assurance,Paris,0185733100,https://formation-assurances.esaassurance.com/?utm_source=diplomeos,,,,https://diplomeo.com/etablissement-esa_ecole_superieure_d_assurances-1974
TALIS Bayonne,bayonne@talis-bs.com,École de gestion et de commerce,Bayonne,33564100913,https://www.talis.community/?utm_source=diplomeo&utm_campaign=2025&utm_medium=ficheecole?utm_source=diplomeos,,,,https://diplomeo.com/etablissement-talis_bayonne-2032
EPSI Lyon,lyon@epsi.fr,École d'ingénierie informatique,Lyon,33472853850,Non trouvé,,,,https://diplomeo.com/etablissement-epsi_lyon-2037
EPSI Arras,arras@epsi.fr,École d'ingénierie informatique,Arras,33321713334,Non trouvé,,,,https://diplomeo.com/etablissement-epsi_arras-2041
Ecole Pigier - Paris,parisperformance@pigier.com,École de gestion et de commerce,Paris,33155070755,https://www.pigier.com/ecole-commerce-paris?utm_source=diplomeos,,,,https://diplomeo.com/etablissement-ecole_pigier_paris-2088
Ecole Pigier - Nancy,nancy@pigier.com,École de gestion et de commerce,Nancy,33383359797,https://www.pigier.com/ecole-commerce-nancy?utm_source=diplomeos,,,,https://diplomeo.com/etablissement-ecole_pigier_nancy-2098
ENIM - Ecole nationale d'ingénieurs de Metz,enim-communication-contact@univ-lorraine.fr,École d'ingénieurs,Metz,33372748700,https://enim.univ-lorraine.fr/?utm_source=diplomeos,,,,https://diplomeo.com/etablissement-enim_ecole_nationale_d_ingenieurs_de_metz-2214
ENC Nantes,admission-enc@enc-nantes.fr,École de gestion et de commerce,Nantes,33240489871,https://www.enc-nantes.fr/?utm_source=diplomeos,,,,https://diplomeo.com/etablissement-enc_nantes-2273
École Internationale Tunon - Montpellier,montpellier@ecoletunon.com,École hôtelière,Montpellier,33467581108,https://www.ecole-tunon.com/?utm_source=diplomeos,,,,https://diplomeo.com/etablissement-ecole_internationale_tunon_montpellier-2302
Elégance Académies,info@elegance.fr,École des métiers de l'esthétique cosmétique,Nice,33493881292,https://www.elegance.fr/?utm_source=diplomeos,,,,https://diplomeo.com/etablissement-elegance_academies-2405
IFAG - Institut de formation aux affaires et à la gestion - Toulouse,patty.meunier@ifag.fr,École de gestion et de commerce,Balma,33607033267,Non trouvé,,,,https://diplomeo.com/etablissement-ifag_institut_de_formation_aux_affaires_et_a_la_gestion_toulouse-2707
IFAG - Institut de formation aux affaires et à la gestion - Paris,paris@ifag.com,École de gestion et de commerce,Courbevoie,33146592076,Non trouvé,,,,https://diplomeo.com/etablissement-ifag_institut_de_formation_aux_affaires_et_a_la_gestion_paris-2708
IFAG - Institut de formation aux affaires et à la gestion - Angers,marion.lefeuvre@ifag.fr,École de gestion et de commerce,Trélazé,33241391359,Non trouvé,,,,https://diplomeo.com/etablissement-ifag_institut_de_formation_aux_affaires_et_a_la_gestion_angers-2711
H3 Campus Cergy Pontoise,contact@h3campus.fr,École de gestion et de commerce,Saint-Ouen-l'Aumône,33134485555,https://www.h3campus.fr/?utm_source=diplomeos,,,,https://diplomeo.com/etablissement-h3_campus_cergy_pontoise-2712
ICAN - Institut de création et d'animation numériques - PARIS,admissions@ican-design.fr,École spécialisée,Paris,33186220869,https://www.ican-design.fr/?utm_source=diplomeos,,,,https://diplomeo.com/etablissement-ican_institut_de_creation_et_d_animation_numeriques_paris-2727
iaelyon School of Management,margaux.francois@univ-lyon3.fr,École de gestion et de commerce,Lyon 8e,33478787066,Non trouvé,,,,https://diplomeo.com/etablissement-iaelyon_school_of_management-2756
ICR - Institut catholique de Rennes,communication@icrennes.org,Université,Bruz,33299058475,Non trouvé,,,,https://diplomeo.com/etablissement-icr_institut_catholique_de_rennes-2771
Narratiiv,admissions@narratiiv.schools,École de communication,Paris,33153825713,https://www.narratiiv.school/?utm_source=diplomeos,,,,https://diplomeo.com/etablissement-narratiiv-2810
IFAG - Institut de formation aux affaires et à la gestion - Lyon,lyon@ifag.com,École de gestion et de commerce,Lyon,33472857285,Non trouvé,,,,https://diplomeo.com/etablissement-ifag_institut_de_formation_aux_affaires_et_a_la_gestion_lyon-2877
ICL - L'école des Business Developers - Campus de Lyon,info@icl.fr,École de gestion et de commerce,Lyon 9e,33472857374,Non trouvé,,,,https://diplomeo.com/etablissement-icl_l_ecole_des_business_developers_campus_de_lyon-2884
MBS,concours.pge@montpellier-bs.com,École de gestion et de commerce,Montpellier,33467102500,Non trouvé,,,,https://diplomeo.com/etablissement-mbs-2902
Ecole Pratique,contact@ecolepratique.com,Autre établissement d'enseignement,Marseille 9e,33491142680,https://www.ecolepratique.com/?utm_source=diplomeos,,,,https://diplomeo.com/etablissement-ecole_pratique-2930
ESA Paris (Ecole Supérieure des Agricultures),info-orientation@groupe-esa.com,École d'ingénieurs,Guyancourt,33241235555,Non trouvé,,,,https://diplomeo.com/etablissement-esa_paris_ecole_superieure_des_agricultures-2937
FORMASUP Campus,admissions@formasup-campus.fr,École de gestion et de commerce,Bordeaux,33556340173,https://www.formasup-campus.com/?utm_source=diplomeos,,,,https://diplomeo.com/etablissement-formasup_campus-2952
ISCOM - Institut supérieur de communication et de publicité - Montpellier,montpellier@iscom.fr,École de communication,Montpellier,33467105774,Non trouvé,,,,https://diplomeo.com/etablissement-iscom_institut_superieur_de_communication_et_de_publicite_montpellier-4005
IPAG Business School - Campus de Paris,c.pivaut@ipag.fr,Grande école de commerce,Paris 15e,33140796440,https://www.ipag.edu/?utm_source=diplomeos,,,,https://diplomeo.com/etablissement-ipag_business_school_campus_de_paris-4033
ESTICE - International Management,estice@univ-catholille.fr,École de gestion et de commerce,Lille,0320549090,https://estice.fr/utm_source=partenaires&utm_medium=résultatsderecherchenaturels&utm_campaign=diplomeo?utm_source=diplomeos,,,,https://diplomeo.com/etablissement-estice_international_management-4045
Vatel Campus les « Chartrons » Bordeaux,c.sauvey@vatel.fr,École hôtelière,Bordeaux,33556010175,https://www.vatel.fr/fr/ecole-hoteliere-bordeaux/presentation-vatel-bordeaux?utm_source=diplomeo&utm_medium=lien&utm_campaign=page_campus_chartrons?utm_source=diplomeos,,,,https://diplomeo.com/etablissement-vatel_campus_les_chartrons_bordeaux-4056
ISTEF - Institut supérieur technique d'enseignement et de formation,istef@istef.fr,École de gestion et de commerce,Toulouse,33534415390,Non trouvé,,,,https://diplomeo.com/etablissement-istef_institut_superieur_technique_d_enseignement_et_de_formation-4156
ISO - Institut Supérieur d'Optique Lyon,isolyon@iso.fr,École de santé,Lyon,33437286969,https://www.iso.fr?utm_source=diplomeos,,,,https://diplomeo.com/etablissement-iso_institut_superieur_d_optique_lyon-4185
ISVM - Institut de Santé du Vivant et du Médico-social - Bordeaux,admission@isvm.fr,École de santé,Bordeaux,33533064646,Non trouvé,,,,https://diplomeo.com/etablissement-isvm_institut_de_sante_du_vivant_et_du_medico_social_bordeaux-4204
ISO - Institut Supérieur d'Optique Paris,isoparis@iso.fr,École d'optique,Paris,33153952929,https://www.iso.fr?utm_source=diplomeos,,,,https://diplomeo.com/etablissement-iso_institut_superieur_d_optique_paris-4206
IRIS - Ecole Supérieur d'informatique et de Numérique - Paris,iris@groupeipf.com,École de l'internet,Paris,33155743099,Non trouvé,,,,https://diplomeo.com/etablissement-iris_ecole_superieur_d_informatique_et_de_numerique_paris-4236
ISFJ - INSTITUT SUPERIEUR DE FORMATION AU JOURNALISME ET A LA COMMUNICATION DIGITALE - PARIS,contact@isfj-international.com,École spécialisée,Paris 15e,33178966832,https://www.isfj.fr/?utm_source=diplomeo&utm_medium=fiche-ecole&utm_campaign=campagne-2023-2024-campus-paris&utm_content=texte-home?utm_source=diplomeos,,,,https://diplomeo.com/etablissement-isfj_institut_superieur_de_formation_au_journalisme_et_a_la_communication_digitale_paris-4312
ISCOM - Institut supérieur de communication et de publicité - Lyon,jean.gouix@iscom.fr,École de communication,Lyon 7e,33472913604,Non trouvé,,,,https://diplomeo.com/etablissement-iscom_institut_superieur_de_communication_et_de_publicite_lyon-4320
ISCOM - Institut supérieur de communication et de publicité - Lille,oceane.gautier@iscom.fr,École de communication,Lille,33328361610,Non trouvé,,,,https://diplomeo.com/etablissement-iscom_institut_superieur_de_communication_et_de_publicite_lille-4321
ISCOM - Institut supérieur de communication et de publicité - Paris,infos@iscom.fr,École de communication,Paris,33155070777,Non trouvé,,,,https://diplomeo.com/etablissement-iscom_institut_superieur_de_communication_et_de_publicite_paris-4335
L'Ecole Energie Tech,cfa@ecole-energietech.fr,Centre de formation d'apprentis,Alfortville,33618536108,Non trouvé,,,,https://diplomeo.com/etablissement-l_ecole_energie_tech-4574
"Institut Lyfe, Management en Arts Culinaires & Hôtellerie",candidature@institutlyfe.com,École hôtelière,Écully,330487633838,https://www.institutlyfe.com/?utm_source=diplomeo&utm_medium=referencement?utm_source=diplomeos,,,,https://diplomeo.com/etablissement-institut_lyfe_management_en_arts_culinaires_hotellerie-4583
SUP'DE COM - Lyon,lyon@ecoles-supdecom.com,École de communication,Lyon,33786795077,https://www.ecoles-supdecom.com/?utm_source=diplomeos,,,,https://diplomeo.com/etablissement-sup_de_com_lyon-4591
Institut G4 - Marseille,contact@g-4.fr,École de l'internet,Marseille,33811690000,https://www.institut-g4.fr/?utm_source=diplomeos,,,,https://diplomeo.com/etablissement-institut_g4_marseille-4750
Audencia SciencesCom - MediaCampus,sciencescom@audencia.com,École de communication,Nantes,33240449000,https://www.audencia.com/?utm_source=diplomeos,,,,https://diplomeo.com/etablissement-audencia_sciencescom_mediacampus-4890
PPA BUSINESS SCHOOL - PARIS,admissions@ppa.fr,École de gestion et de commerce,Paris 14e,33140790290,https://www.ppa.fr/ecole-commerce-alternance.html?utm_source=diplomeo&utm_medium=brand_content&utm_campaign=dossier_de_presse&utm_content=site_etablissement?utm_source=diplomeos,,,,https://diplomeo.com/etablissement-ppa_business_school_paris-5003
ESLSCA Business School,communication@eslsca.fr,École de gestion et de commerce,Paris,33173286244,Non trouvé,,,,https://diplomeo.com/etablissement-eslsca_business_school-5051
Ecole Pigier - Nice,nice@pigier.com,École de gestion et de commerce,Nice,33493298333,https://www.pigier.com/ecole-commerce-nice?utm_source=diplomeos,,,,https://diplomeo.com/etablissement-ecole_pigier_nice-5059
Ecole Pigier - Nîmes,nimes@pigier.com,École de gestion et de commerce,Nîmes,0466388700,https://www.pigier.com/ecole-commerce-nimes?utm_source=diplomeos,,,,https://diplomeo.com/etablissement-ecole_pigier_nimes-5477
ESICAD - Ecole supérieure privée de commerce et gestion - Toulouse,toulouse@esicad.com,École de gestion et de commerce,Labège,33561390363,Non trouvé,,,,https://diplomeo.com/etablissement-esicad_ecole_superieure_privee_de_commerce_et_gestion_toulouse-6533
Ecole Pigier - Montpellier,montpellier@pigier.com,École de gestion et de commerce,Montpellier,33467105858,https://www.pigier.com/ecole-commerce-montpellier?utm_source=diplomeos,,,,https://diplomeo.com/etablissement-ecole_pigier_montpellier-6550
Sup Career Paris -  Omnes Education,admissions@supcareer.fr,École de gestion et de commerce,Paris,33144522584,https://www.supcareer.com/?ept-publisher=diplomeo&ept-name=supk-psg-mixte-fall-2025&ept-location=na-national-psg-NA&utm_medium=partenariat&utm_campaign=supk-psg-mixte-fall-2025&utm_source=diplomeo&utm_content=na-national-psg-NA?utm_source=diplomeos,,,,https://diplomeo.com/etablissement-sup_career_paris_omnes_education-7055
Talis  Bordeaux,bordeaux@talis-bs.com,École de gestion et de commerce,Bordeaux,33557224242,https://www.talis.community/?utm_source=diplomeos,,,,https://diplomeo.com/etablissement-talis_bordeaux-7097
"Bellecour école de design, d’animation et de jeu vidéo à Lyon",admission@bellecour.fr,École d'art,Lyon,33988288127,Non trouvé,,,,https://diplomeo.com/etablissement-bellecour_ecole_de_design_d_animation_et_de_jeu_video_a_lyon-7143
ISPN - Institut Supérieur Professionnel de Caen,contact@ispn.fr,Autre établissement d'enseignement,Caen,33231930912,Non trouvé,,,,https://diplomeo.com/etablissement-ispn_institut_superieur_professionnel_de_caen-7167
Sports Management School,contact@sportsmanagementschool.fr,École de formation sportive,Paris 19e,33178428961,Non trouvé,,,,https://diplomeo.com/etablissement-sports_management_school-7252
EEMI - Ecole Européenne des Metiers de l'Internet - Paris,admission@eemi.com,École de l'internet,Paris,33767547625,https://www.eemi.com/?utm_source=diplomeos,,,,https://diplomeo.com/etablissement-eemi_ecole_europeenne_des_metiers_de_l_internet_paris-7253
"L’ECITV, La Grande École du Digital, du Web et de l’Audiovisuel en alternance",admissions@ecitv.fr,École de l'internet,Paris 16e,33144230045,Non trouvé,,,,https://diplomeo.com/etablissement-l_ecitv_la_grande_ecole_du_digital_du_web_et_de_l_audiovisuel_en_alternance-7254
EIML - ECOLE INTERNATIONALE DE MARKETING DU LUXE - PARIS,admissions@eimlp.fr,École spécialisée,Paris 15e,33153952890,https://www.eiml-paris.fr/?utm_source=diplomeo&utm_medium=fiche-ecole&utm_campaign=campagne-2023-2024-campus-paris&utm_content=texte-home?utm_source=diplomeos,,,,https://diplomeo.com/etablissement-eiml_ecole_internationale_de_marketing_du_luxe_paris-7256
Com'Art Design,stephanie@comart-design.com,École d'art,Paris,33183968686,https://www.comart-design.com?utm_source=diplomeos,,,,https://diplomeo.com/etablissement-com_art_design-7257
Euridis Business School - Campus de Paris - Saint Lazare,admission@euridis-ecole.eus,École de gestion et de commerce,Paris 9e,330155999830,https://www.euridis-ecole.com/campus/campus-de-paris/?utm_source=diplomeo&utm_medium=fiche-ecole&utm_campaign=2022?utm_source=diplomeos,,,,https://diplomeo.com/etablissement-euridis_business_school_campus_de_paris_saint_lazare-7266
Cesacom Paris,elhem.aissaoui@cesacom.fr,École de communication,Paris,33183647522,Non trouvé,,,,https://diplomeo.com/etablissement-cesacom_paris-7274
IPAG Business School - Campus de Nice,admissions-paris@ipag.fr,École de gestion et de commerce,Nice,33493133900,https://www.ipag.edu/?utm_source=diplomeos,,,,https://diplomeo.com/etablissement-ipag_business_school_campus_de_nice-7294
Ecole Pigier - Aix-en-Provence,aixenprovence@pigier.com,École de gestion et de commerce,Aix-en-Provence,0495051880,https://www.pigier.com/ecole-commerce-aix-en-provence?utm_source=diplomeos,,,,https://diplomeo.com/etablissement-ecole_pigier_aix_en_provence-7395
Ecole Pigier - Marseille,marseille@pigier.com,École de gestion et de commerce,Marseille,0495051880,https://www.pigier.com/ecole-commerce-marseille?utm_source=diplomeos,,,,https://diplomeo.com/etablissement-ecole_pigier_marseille-7397
MBway - Angers,angers@mbway.com,École de gestion et de commerce,Angers,33241739691,https://www.mbway.com/mba-angers?utm_source=diplomeos,,,,https://diplomeo.com/etablissement-mbway_angers-7463
MBway - Lille,lille@mbway.com,École de gestion et de commerce,Marcq-en-Barœul,3366729630,Non trouvé,,,,https://diplomeo.com/etablissement-mbway_lille-7466
MBway - Lyon,lyon@mbway.com,École de gestion et de commerce,Lyon,33472913638,https://www.mbway.com/?utm_source=diplomeos,,,,https://diplomeo.com/etablissement-mbway_lyon-7467
MBway - Montpellier,montpellier@mbway.com,École de gestion et de commerce,Mauguio,33467105766,https://www.mbway.com/?utm_source=diplomeos,,,,https://diplomeo.com/etablissement-mbway_montpellier-7468
KEDGE Business School Bordeaux,info@kedgebs.com,École de gestion et de commerce,Bordeaux,33556845555,https://kedge.edu/?utm_source=Diplomeo&utm_medium=Partner&utm_campaign=Page_campus?utm_source=diplomeos,,,,https://diplomeo.com/etablissement-kedge_business_school_bordeaux-7514
Cesacom Lille,infolille@cesacom.fr,École de communication,Lille,33320788118,Non trouvé,,,,https://diplomeo.com/etablissement-cesacom_lille-7593
H3 HITEMA,admission@h3hitema.fr,École d'ingénierie informatique,Paris 15e,33141330470,https://www.h3hitema.fr/?utm_source=diplomeos,,,,https://diplomeo.com/etablissement-h3_hitema-7609
INEAD Spécialiste des Formations à Distance,info@inead.fr,Campus connecté,Aix-en-Provence,33175434434,https://www.inead.fr/?utm_source=diplomeos,,,,https://diplomeo.com/etablissement-inead_specialiste_des_formations_a_distance-7619
Itecom Art Design - Paris,communication@itecom-artdesign.com,École d'art,Paris,33158625151,Non trouvé,,,,https://diplomeo.com/etablissement-itecom_art_design_paris-7626
Digital Campus - Bordeaux,bordeaux@digital-campus.fr,École de l'internet,Bordeaux,33518251828,https://www.digital-campus.fr/ecole/bordeaux?utm_source=diplomeo?utm_source=diplomeos,,,,https://diplomeo.com/etablissement-digital_campus_bordeaux-7653
Institut G4 - Lyon,contact@institut-g4.fr,École de l'internet,Lyon,33811690000,https://www.institut-g4.fr?utm_source=diplomeos,,,,https://diplomeo.com/etablissement-institut_g4_lyon-7660
Sup de Luxe,admissions@supdeluxe.fr,École spécialisée,Paris,33764775051,Non trouvé,,,,https://diplomeo.com/etablissement-sup_de_luxe-7663
IEJ - Institut européen de journalisme,info@iej-paris.com,École de journalisme,Paris,33153922300,Non trouvé,,,,https://diplomeo.com/etablissement-iej_institut_europeen_de_journalisme-7676
ISIFA Plus Values - Sud,parissud@isifaplusvalues.com,École spécialisée,Issy-les-Moulineaux,33140951300,Non trouvé,,,,https://diplomeo.com/etablissement-isifa_plus_values_sud-7700
ISIFA Plus Values - Ouest,parisouest@isifaplusvalues.com,École spécialisée,Paris,33179363509,https://www.isifaplusvalues.com/?utm_source=diplomeos,,,,https://diplomeo.com/etablissement-isifa_plus_values_ouest-7701
EPSI Lille,celia.wauters@campus-cd.com,École d'ingénierie informatique,Lille,33320343536,https://www.epsi.fr/?utm_source=diplomeo&utm_medium=Annuaire&utm_campaign=diplomeo_2024&utm_content=ANNUAIRE_diplomeo?utm_source=diplomeos,,,,https://diplomeo.com/etablissement-epsi_lille-7784
EPSI Grenoble,info@grenoble.epsi.fr,École d'ingénierie informatique,Saint-Martin-d'Hères,33686833145,Non trouvé,,,,https://diplomeo.com/etablissement-epsi_grenoble-7785
IFAG - Institut de formation aux affaires et à la gestion - Nantes,nantes@ifag.com,École de gestion et de commerce,Nantes,33170798935,Non trouvé,,,,https://diplomeo.com/etablissement-ifag_institut_de_formation_aux_affaires_et_a_la_gestion_nantes-7795
IFAG - Institut de formation aux affaires et à la gestion - Bordeaux,bordeaux@ifag.com,École de gestion et de commerce,Bordeaux,33557929303,Non trouvé,,,,https://diplomeo.com/etablissement-ifag_institut_de_formation_aux_affaires_et_a_la_gestion_bordeaux-7796
IFAG - Institut de formation aux affaires et à la gestion - Lille,flore.lefevere@ifag.fr,École de gestion et de commerce,Lille,33366722244,Non trouvé,,,,https://diplomeo.com/etablissement-ifag_institut_de_formation_aux_affaires_et_a_la_gestion_lille-7797
IFAG - Institut de formation aux affaires et à la gestion - Amiens,amiens@ifag.com,École de gestion et de commerce,Amiens,33322717101,Non trouvé,,,,https://diplomeo.com/etablissement-ifag_institut_de_formation_aux_affaires_et_a_la_gestion_amiens-7798
SUP'DE COM - Bordeaux,bordeaux@ecoles-supdecom.com,École de communication,Bordeaux,33535542836,Non trouvé,,,,https://diplomeo.com/etablissement-sup_de_com_bordeaux-7800
SUP'DE COM - Grenoble,grenoble@ecoles-supdecom.com,École de communication,Saint-Martin-d'Hères,33458005441,Non trouvé,,,,https://diplomeo.com/etablissement-sup_de_com_grenoble-7801
EPF - Troyes,communication@epf.fr,École d'ingénieurs,Troyes,33325707719,Non trouvé,,,,https://diplomeo.com/etablissement-epf_troyes-7811
EPF - Montpellier,communication@epf.fr,École d'ingénieurs,Montpellier,33499654181,Non trouvé,,,,https://diplomeo.com/etablissement-epf_montpellier-7813
Ecole Internationale de Management de Paris,info@eimparis.com,École de gestion et de commerce,Paris,33142037700,https://eimparis.com/?utm_source=diplomeos,,,,https://diplomeo.com/etablissement-ecole_internationale_de_management_de_paris-7814
IPSSI - Paris,admissions@ecole-ipssi.com,École de l'internet,Paris,33155432665,https://ecole-ipssi.com/?utm_source=diplomeo&utm_medium=directory&utm_campaign=BRAND_pres_ipssi?utm_source=diplomeos,,,,https://diplomeo.com/etablissement-ipssi_paris-7842
ISME Nantes,contact@isme.fr,École de gestion et de commerce,Nantes,33240505637,Non trouvé,,,,https://diplomeo.com/etablissement-isme_nantes-7871
MJM Graphic Design - Nantes,nantes@mjm-design.com,"Design, Graphisme, 3D, Vidéo, Mode",Nantes,33251840633,Non trouvé,,,,https://diplomeo.com/etablissement-mjm_graphic_design_nantes-7883
Itecom Art Design - Nice,contactnice@itecom-artdesign.com,École d'art,Nice,33493530660,https://www.itecom-artdesign.com?utm_source=diplomeos,,,,https://diplomeo.com/etablissement-itecom_art_design_nice-7886
Ipac Bachelor Factory Angers,angers@ipacfactory.com,École de gestion et de commerce,Angers,33241739744,https://www.ipacbachelorfactory.com/?utm_source=diplomeos,,,,https://diplomeo.com/etablissement-ipac_bachelor_factory_angers-7902
Ipac Bachelor Factory de Lille,lille@ipacfactory.com,École de gestion et de commerce,Marcq-en-Barœul,0366060698,https://www.ipacbachelorfactory.com/?utm_source=diplomeos,,,,https://diplomeo.com/etablissement-ipac_bachelor_factory_de_lille-7906
IPAC Bachelor Factory Paris-Ouest,parisouest@ipacfactory.com,École de gestion et de commerce,Levallois-Perret,33179360069,https://www.ipacbachelorfactory.com/?utm_source=diplomeos,,,,https://diplomeo.com/etablissement-ipac_bachelor_factory_paris_ouest-7908
Ipac Bachelor Factory Paris Sud,parissud@ipacfactory.com,École de gestion et de commerce,Boulogne-Billancourt,33141099920,https://www.ipacbachelorfactory.com/?utm_source=diplomeos,,,,https://diplomeo.com/etablissement-ipac_bachelor_factory_paris_sud-7909
TALIS Bergerac,developpement.bgc@talis-bs.com,École de gestion et de commerce,Bergerac,33553221200,https://www.talis.community//?utm_source=diplomeo&utm_campaign=2024&utm_medium=ficheecole?utm_source=diplomeos,,,,https://diplomeo.com/etablissement-talis_bergerac-7922
H3 Campus Poissy,contact@h3campus.fr,École de gestion et de commerce,Paris,33130063306,https://www.h3campus.fr/?utm_source=diplomeos,,,,https://diplomeo.com/etablissement-h3_campus_poissy-7927
WIS Lyon,lyon@wis-ecoles.com,École de l'internet,Lyon 9e,33609060628,Non trouvé,,,,https://diplomeo.com/etablissement-wis_lyon-8063
WIS Bordeaux,bordeaux@wis-ecoles.com,École de l'internet,Bordeaux,33556431313,Non trouvé,,,,https://diplomeo.com/etablissement-wis_bordeaux-8064
WIS Lille,lille@wis-ecoles.com,École de l'internet,Lille,33320343536,https://www.wis-ecoles.com/?utm_source=diplomeo&utm_medium=Annuaire&utm_campaign=diplomeo_2024&utm_content=ANNUAIRE_diplomeo?utm_source=diplomeos,,,,https://diplomeo.com/etablissement-wis_lille-8065
WIS Nantes,nantes@wis-ecoles.com,École de l'internet,Nantes,33240766087,Non trouvé,,,,https://diplomeo.com/etablissement-wis_nantes-8066
3W Academy Paris,paris@3wacademy.fr,École d'ingénierie informatique,Paris 14e,0176401159,https://3wacademy.fr/?utm_source=diplomeos,,,,https://diplomeo.com/etablissement-3w_academy_paris-8083
MBA ESG,conseiller.formation@mba-esg.com,École de gestion et de commerce,Paris 11e,33155256182,https://www.mba-esg.com/?utm_source=diplomeos,,,,https://diplomeo.com/etablissement-mba_esg-9221
École Supérieure des Pays de Loire -  Angers,contact@espl.fr,École de gestion et de commerce,Angers,33241732030,https://www.espl.fr/?utm_source=diplomeos,,,,https://diplomeo.com/etablissement-ecole_superieure_des_pays_de_loire_angers-9361
Ecole Supérieure des Professions Immobilières - ESPI Marseille,marseille@groupe-espi.fr,École des métiers de l'immobilier,Marseille 2e,33496133400,https://groupe-espi.fr/campus/espi-marseille/?utm_source=diplomeos,,,,https://diplomeo.com/etablissement-ecole_superieure_des_professions_immobilieres_espi_marseille-9369
Ecole Supérieure des Professions Immobilières - ESPI Nantes,nantes@groupe-espi.fr,École des métiers de l'immobilier,Nantes,33240498746,https://groupe-espi.fr/campus/espi-nantes/?utm_source=diplomeos,,,,https://diplomeo.com/etablissement-ecole_superieure_des_professions_immobilieres_espi_nantes-9370
HEAD,accueil@ecolehead.fr,École de droit et des métiers juridiques,Paris,33175434310,https://www.ecolehead.fr/?utm_source=diplomeos,,,,https://diplomeo.com/etablissement-head-9393
MyDigitalSchool - Paris,paris@mydigitalschool.com,École de l'internet,Paris 11e,33155070765,Non trouvé,,,,https://diplomeo.com/etablissement-mydigitalschool_paris-9488
MBA Pôle Paris Alternance,admissions@mba-ppa.fr,École de gestion et de commerce,Montrouge,33144681147,Non trouvé,,,,https://diplomeo.com/etablissement-mba_pole_paris_alternance-9495
Le Cordon Bleu Paris,paris@cordonbleu.edu,École de cuisine et gastronomie,Paris,33185651500,https://www.cordonbleu.edu/paris/accueil/fr?utm_source=diplomeos,,,,https://diplomeo.com/etablissement-le_cordon_bleu_paris-9508
EFET STUDIO CRÉA - PARIS,contact@studiocreaparis.com,École d'art,Paris 11e,33142717016,https://www.efet-studiocrea.com/?utm_source=diplomeo&utm_medium=fiche-ecole&utm_campaign=campagne-2023-2024-campus-paris&utm_content=texte-home?utm_source=diplomeos,,,,https://diplomeo.com/etablissement-efet_studio_crea_paris-9565
La fabrique - Ecole des métiers de la mode et de la décoration,jpbaleng@isipca-lafabrique.fr,École d'art,Paris,33155650188,Non trouvé,,,,https://diplomeo.com/etablissement-la_fabrique_ecole_des_metiers_de_la_mode_et_de_la_decoration-9600
Ecole de Savignac,admissions@ecole-de-savignac.com,École hôtelière,Savignac-les-Églises,33553050811,Non trouvé,,,,https://diplomeo.com/etablissement-ecole_de_savignac-9603
KEDGE Business School Marseille,astrid.lerat@kedgebs.com,École de gestion et de commerce,Marseille,33491827800,https://kedge.edu/?utm_source=Diplomeo&utm_medium=Partner&utm_campaign=Page_campus?utm_source=diplomeos,,,,https://diplomeo.com/etablissement-kedge_business_school_marseille-9614
KEDGE Business School Paris,astrid.lerat@kedgebs.com,École de gestion et de commerce,Paris,33187899450,https://kedge.edu/?utm_source=Diplomeo&utm_medium=Partner&utm_campaign=Page_campus?utm_source=diplomeos,,,,https://diplomeo.com/etablissement-kedge_business_school_paris-9639
FERRANDI Paris : Campus de Rennes,ferrandi-rennes@ille-et-vilaine.cci.fr,École de cuisine et gastronomie,Rennes,0299336350,https://www.ferrandi-paris.com/fr/nos-campus/rennes?utm_source=diplomeos,,,,https://diplomeo.com/etablissement-ferrandi_paris_campus_de_rennes-9669
ASCENCIA Saint Quentin en Yvelines,contact@ascencia-bs.com,École de gestion et de commerce,Montigny-le-Bretonneux,33184870730,Non trouvé,,,,https://diplomeo.com/etablissement-ascencia_saint_quentin_en_yvelines-9686
ASCENCIA - Évry,contact@ascencia-bs.com,École de gestion et de commerce,Évry-Courcouronnes,33160795555,https://info.ascencia-business-school.com/evry-1782-diplomeo-site/?utm_source=diplomeos,,,,https://diplomeo.com/etablissement-ascencia_evry-9754
ASCENCIA - Marne-la-Vallée,contact@ascencia-bs.com,École de gestion et de commerce,Lognes,33164114800,https://info.ascencia-business-school.com/marne-la-vallee-1782-diplomeo-site/?utm_source=diplomeos,,,,https://diplomeo.com/etablissement-ascencia_marne_la_vallee-9755
ASCENCIA - Paris La Défense,contact@ascencia-bs.com,École de gestion et de commerce,Puteaux,33155230808,https://info.ascencia-business-school.com/paris-la-defense-1782-diplomeo-site/?utm_source=diplomeos,,,,https://diplomeo.com/etablissement-ascencia_paris_la_defense-9756
Ecole de Management de Normandie - Le Havre,admissions@em-normandie.fr,École de gestion et de commerce,Le Havre,33232925999,https://www.em-normandie.com/?utm_source=site_referencement&utm_medium=site_lien&utm_campaign=diplomeo?utm_source=diplomeos,,,,https://diplomeo.com/etablissement-ecole_de_management_de_normandie_le_havre-9827
ESIS Paris - Ecole Supérieure de l'Image et du Son,contact@esis-paris.fr,"École de photo, audiovisuel, cinéma",Paris,33142381095,https://www.esis-paris.fr/?utm_source=diplomeo&utm_medium=fiche-ecole&utm_campaign=campagne-2023-2024-campus-paris&utm_term=texte-home?utm_source=diplomeos,,,,https://diplomeo.com/etablissement-esis_paris_ecole_superieure_de_l_image_et_du_son-9843
TALIS Périgueux,developpement.pgx@talis-bs.com,École de gestion et de commerce,Périgueux,33553051561,Non trouvé,,,,https://diplomeo.com/etablissement-talis_perigueux-9851
AMOS - Ecole du Commerce du Sport - Paris,info@amos-paris.fr,École de gestion et de commerce,Paris,0144648383,https://www.amos-business-school.eu/fr/campus/paris/?utm_source=diplomeos,,,,https://diplomeo.com/etablissement-amos_ecole_du_commerce_du_sport_paris-9857
IMIE - École de la Filière Numérique - Paris,contact@imie-paris.fr,École d'ingénierie informatique,Levallois-Perret,0184782217,https://www.imie-paris.fr?utm_source=diplomeos,,,,https://diplomeo.com/etablissement-imie_ecole_de_la_filiere_numerique_paris-9872
ESUPCOM - ECOLE SUPERIEURE DE COMMUNICATION - PARIS,paris@esupcom.com,École de communication,Paris 14e,33141171212,https://www.esupcom.com/nos-ecoles/paris/?utm_source=diplomeos,,,,https://diplomeo.com/etablissement-esupcom_ecole_superieure_de_communication_paris-9875
ESUPCOM - ECOLE SUPERIEURE DE COMMUNICATION - REIMS,reims@esupcom.com,École de communication,Reims,33616136593,https://www.esupcom.com/nos-ecoles/reims/?utm_source=diplomeos,,,,https://diplomeo.com/etablissement-esupcom_ecole_superieure_de_communication_reims-9879
Ecole Internationale de Mode - Paris,sc@eidm.fr,"Design, Graphisme, 3D, Vidéo, Mode",Paris,33145776802,https://www.ecoledemode.fr/?utm_source=diplomeos,,,,https://diplomeo.com/etablissement-ecole_internationale_de_mode_paris-9888
EFET - Ecole privée de Photographie,abaulac@reseau-ges.fr,"École de photo, audiovisuel, cinéma",Paris,33143468696,https://www.efet.fr/ecole-de-photographie.html?utm_source=diplomeo&utm_medium=fiche-ecole&utm_campaign=campagne-2023-2024-campus-paris&utm_content=texte-home?utm_source=diplomeos,,,,https://diplomeo.com/etablissement-efet_ecole_privee_de_photographie-9925
IPSSI - Marne-la-Vallée,admissions@ecole-ipssi.com,École de l'internet,Serris,33181807710,https://ecole-ipssi.com/contact-ecole-informatique-web-design-graphique/marne-la-vallee/?utm_source=diplomeo&utm_medium=directory&utm_campaign=BRAND_pres_ipssi?utm_source=diplomeos,,,,https://diplomeo.com/etablissement-ipssi_marne_la_vallee-9927
Euridis Business School - Campus de Lyon - Quai Perrache,admission-lyon@euridis-ecole.eus,École de gestion et de commerce,Lyon,330481916111,https://www.euridis-ecole.com/campus/campus-de-lyon/?utm_source=diplomeo&utm_medium=fiche-ecole&utm_campaign=2022?utm_source=diplomeos,,,,https://diplomeo.com/etablissement-euridis_business_school_campus_de_lyon_quai_perrache-9973
Euridis Business School - Campus de Toulouse,admission-toulouse@euridis-ecole.eus,École de gestion et de commerce,Toulouse,33532000025,https://www.euridis-ecole.com/campus/campus-de-toulouse/?utm_source=diplomeo&utm_medium=fiche-ecole&utm_campaign=2022?utm_source=diplomeos,,,,https://diplomeo.com/etablissement-euridis_business_school_campus_de_toulouse-9974
AFTEC - Laval,laval@aftec.fr,Autre établissement d'enseignement,Changé,33243597010,https://www.aftec.fr/?utm_source=diplomeos,,,,https://diplomeo.com/etablissement-aftec_laval-9994
Ipac Bachelor Factory Laval,laval@ipacfactory.com,École de gestion et de commerce,Changé,33243597014,https://www.ipacbachelorfactory.com/ecole-commerce-laval?utm_source=diplomeos,,,,https://diplomeo.com/etablissement-ipac_bachelor_factory_laval-10064
MBway - Bordeaux,bordeaux@mbway.com,École de gestion et de commerce,Bordeaux,33556333536,https://www.mbway.com/?utm_source=diplomeos,,,,https://diplomeo.com/etablissement-mbway_bordeaux-10065
MBway - Paris Ouest,serviceadmissionslet@eduservices.org,École de gestion et de commerce,Levallois-Perret,33155070757,https://www.mbway.com/?utm_source=diplomeos,,,,https://diplomeo.com/etablissement-mbway_paris_ouest-10071
MBway - Strasbourg,strasbourg@mbway.com,École de gestion et de commerce,Strasbourg,3388375917,https://www.mbway.com/?utm_source=diplomeos,,,,https://diplomeo.com/etablissement-mbway_strasbourg-10073
Mbway - Toulouse,toulouse@mbway.com,École de gestion et de commerce,Labège,33532110037,https://www.mbway.com/?utm_source=diplomeos,,,,https://diplomeo.com/etablissement-mbway_toulouse-10074
ESI Business School - Paris,admission-esi@groupe-gema.com,École de gestion et de commerce,Paris,33139711212,https://www.esi-business-school.com?utm_source=diplomeos,,,,https://diplomeo.com/etablissement-esi_business_school_paris-10113
IFTE - IDF,candidature@ifte-idf.com,École de gestion et de commerce,Créteil,33143777745,https://ifte-idf.com?utm_source=diplomeos,,,,https://diplomeo.com/etablissement-ifte_idf-10137
Ecole Supérieure des Professions Immobilières - ESPI Bordeaux,bordeaux@groupe-espi.fr,École des métiers de l'immobilier,Bordeaux,0564310490,https://groupe-espi.fr/?utm_source=diplomeos,,,,https://diplomeo.com/etablissement-ecole_superieure_des_professions_immobilieres_espi_bordeaux-10140
Ecole Supérieure des Professions Immobilières - ESPI Lyon,lyon@groupe-espi.fr,École des métiers de l'immobilier,Lyon 9e,0481132800,https://groupe-espi.fr/?utm_source=diplomeos,,,,https://diplomeo.com/etablissement-ecole_superieure_des_professions_immobilieres_espi_lyon-10141
MyDigitalSchool - Angers,angers@mydigitalschool.com,École de l'internet,Angers,33252210038,https://www.mydigitalschool.com/?utm_source=diplomeos,,,,https://diplomeo.com/etablissement-mydigitalschool_angers-10177
Institut F2I,contact@ief2i.fr,École de gestion et de commerce,Vincennes,33149575959,https://www.institut-f2i.fr/?utm_source=diplomeos,,,,https://diplomeo.com/etablissement-institut_f2i-10178
Ecole supérieure européenne de management en alternance - Saint Étienne,saintetienne@ecema.fr,École de gestion et de commerce,Saint-Étienne,33477902755,https://info.ecema.fr/rentree-saint-etienne-diplomeo-site/?utm_source=diplomeos,,,,https://diplomeo.com/etablissement-ecole_superieure_europeenne_de_management_en_alternance_saint_etienne-10731
Altéa Business & Digital School,s.heng@altea-bds.com,École de gestion et de commerce,Bordeaux,33557577171,https://www.altea-formation.com/?utm_source=diplomeos,,,,https://diplomeo.com/etablissement-altea_business_digital_school-10732
ISME La Rochelle,communication-lr@isme.fr,École de gestion et de commerce,Périgny,0546446935,https://www.isme.fr?utm_source=diplomeos,,,,https://diplomeo.com/etablissement-isme_la_rochelle-11066
Studio MERCIER,contact@cime-art.com,Autre établissement d'enseignement,Béziers,33609714403,Non trouvé,,,,https://diplomeo.com/etablissement-studio_mercier-11117
WIS Montpellier,montpellier@wis-ecoles.com,École de l'internet,Montpellier,33467042001,https://www.wis-ecoles.com/?utm_source=diplomeo&utm_medium=Annuaire&utm_campaign=diplomeo_2024&utm_content=ANNUAIRE_diplomeo?utm_source=diplomeos,,,,https://diplomeo.com/etablissement-wis_montpellier-11120
ESCIN BUSINESS SCHOOL,contact@escin.fr,École de gestion et de commerce,Strasbourg,33972559516,Non trouvé,,,,https://diplomeo.com/etablissement-escin_business_school-11233
MODART INTERNATIONAL - PARIS,admissions@modart-paris.com,"Design, Graphisme, 3D, Vidéo, Mode",Paris,33158393672,https://modart-paris.com/?utm_source=diplomeo&utm_medium=fiche-ecole&utm_campaign=campagne-2023-2024-campus-paris&utm_content=texte-home?utm_source=diplomeos,,,,https://diplomeo.com/etablissement-modart_international_paris-11274
TALIS Poitiers,recrutement-afc@talis-bs.com,École de gestion et de commerce,Poitiers,33549380838,https://www.talis.community/?utm_source=diplomeos,,,,https://diplomeo.com/etablissement-talis_poitiers-11308
Win Sport School - Angers,angers@winsportschool.com,École de gestion et de commerce,Angers,33252210037,https://www.win-sport-school.com/demande-de-documentation?utm_source=Hellowork&utm_medium=fiche-ecole&utm_campaign=2022&utm_content=referencement?utm_source=diplomeos,,,,https://diplomeo.com/etablissement-win_sport_school_angers-11372
Win Sport School - Lille,lille@winsportschool.com,École de gestion et de commerce,Lille,0366060697,https://www.win-sport-school.com/demande-de-documentation?utm_source=Hellowork&utm_medium=fiche-ecole&utm_campaign=2022&utm_content=referencement?utm_source=diplomeos,,,,https://diplomeo.com/etablissement-win_sport_school_lille-11379
Win Sport School - Nancy,nancy@winsportschool.com,École de gestion et de commerce,Nancy,33383358575,https://www.win-sport-school.com/demande-de-documentation?utm_source=Hellowork&utm_medium=fiche-ecole&utm_campaign=2022&utm_content=referencement?utm_source=diplomeos,,,,https://diplomeo.com/etablissement-win_sport_school_nancy-11382
Win Sport School - Nice,nice@winsportschool.com,École de gestion et de commerce,Nice,33422170224,https://www.win-sport-school.com/ecole-sport-nice?utm_source=diplomeos,,,,https://diplomeo.com/etablissement-win_sport_school_nice-11383
Win Sport School - Paris Levallois,paris-levallois@winsportschool.com,École de gestion et de commerce,Levallois-Perret,0179364449,https://www.win-sport-school.com/demande-de-documentation?utm_source=Hellowork&utm_medium=fiche-ecole&utm_campaign=2022&utm_content=referencement?utm_source=diplomeos,,,,https://diplomeo.com/etablissement-win_sport_school_paris_levallois-11385
Win Sport School - Saint-Quentin-en-Yvelines,stquentin@winsportschool.com,École de gestion et de commerce,Versailles,0134527073,https://www.win-sport-school.com/demande-de-documentation?utm_source=Hellowork&utm_medium=fiche-ecole&utm_campaign=2022&utm_content=referencement?utm_source=diplomeos,,,,https://diplomeo.com/etablissement-win_sport_school_saint_quentin_en_yvelines-11388
Win Sport School - Strasbourg,strasbourg@winsportschool.com,École de gestion et de commerce,Strasbourg,33388375570,https://www.win-sport-school.com/demande-de-documentation?utm_source=Hellowork&utm_medium=fiche-ecole&utm_campaign=2022&utm_content=referencement?utm_source=diplomeos,,,,https://diplomeo.com/etablissement-win_sport_school_strasbourg-11390
Win Sport School Toulouse,toulouse@winsportschool.com,École de formation sportive,Labège,33561390862,https://www.win-sport-school.com/demande-de-documentation?utm_source=Hellowork&utm_medium=fiche-ecole&utm_campaign=2022&utm_content=referencement?utm_source=diplomeos,,,,https://diplomeo.com/etablissement-win_sport_school_toulouse-11391
MyDigitalSchool - Saint-Quentin-en-Yvelines,stquentin@mydigitalschool.com,École de l'internet,Montigny-le-Bretonneux,0184270654,https://www.mydigitalschool.com/saint-quentin-en-yvelines/contact?utm_source=diplomeos,,,,https://diplomeo.com/etablissement-mydigitalschool_saint_quentin_en_yvelines-11405
ESG Sport - Paris,admissions@esg-sport.com,École de formation sportive,Paris 16e,0186479363,https://www.esg-sport.com/?utm_source=diplomeos,,,,https://diplomeo.com/etablissement-esg_sport_paris-11429
Éstiam - Lyon,lyon@estiam.com,École d'ingénierie informatique,Lyon 7e,33428292575,https://info.estiam-lyon.education/rentree-diplomeo-site/?utm_source=diplomeos,,,,https://diplomeo.com/etablissement-estiam_lyon-11447
L’école internationale du management responsable - 3A - Campus Lyon,contact.lyon@ecole3a.edu,École de gestion et de commerce,Lyon,0472857373,https://www.ecole3a.edu/campus/lyon?utm_source=Diplomeo&utm_medium=annuaire&utm_id=Diplomeo&utm_content=ANNUAIRE_Diplomeo?utm_source=diplomeos,,,,https://diplomeo.com/etablissement-l_ecole_internationale_du_management_responsable_3a_campus_lyon-11471
L’école internationale du management responsable - 3A - Campus Paris,contact.paris@ecole3a.edu,École de gestion et de commerce,Puteaux,0185083660,https://www.ecole3a.edu/campus/paris?utm_source=Diplomeo&utm_medium=annuaire&utm_id=Diplomeo&utm_content=ANNUAIRE_Diplomeo?utm_source=diplomeos,,,,https://diplomeo.com/etablissement-l_ecole_internationale_du_management_responsable_3a_campus_paris-11472
IPSSI - Saint-Quentin-en-Yvelines,admissions@ipssi-sqy.com,École de l'internet,Versailles,0155432910,https://ecole-ipssi.com/ecole-informatique/campus-saint-quentin-en-yvelines/?utm_source=diplomeo&utm_medium=directory&utm_campaign=BRAND_pres_sqy?utm_source=diplomeos,,,,https://diplomeo.com/etablissement-ipssi_saint_quentin_en_yvelines-11482
WIS Paris,paris@wis-ecoles.com,École de l'internet,Paris,33155900630,https://www.wis-ecoles.com/?utm_source=diplomeo&utm_medium=Annuaire&utm_campaign=diplomeo_2024&utm_content=ANNUAIRE_diplomeo?utm_source=diplomeos,,,,https://diplomeo.com/etablissement-wis_paris-11483
WIS Toulouse,eric.albert@toulouse-epsi.fr,École de l'internet,Quint-Fonsegrives,0467042001,Non trouvé,,,,https://diplomeo.com/etablissement-wis_toulouse-11484
WIS Grenoble,grenoble@wis-ecoles.com,École de l'internet,Saint-Martin-d'Hères,0458003890,Non trouvé,,,,https://diplomeo.com/etablissement-wis_grenoble-11485
MJM Graphic Design - Lille,lille@mjm-design.com,"Design, Graphisme, 3D, Vidéo, Mode",Lille,0320334434,https://mjm-design.com/?utm_source=Diplomeo_Fiche&utm_medium=Fiche_ecole_Lille?utm_source=diplomeos,,,,https://diplomeo.com/etablissement-mjm_graphic_design_lille-11524
ESCM - Strasbourg,ecole@escm.eus,École de gestion et de commerce,Strasbourg,0388324903,https://escm-ecole.fr/?utm_source=diplomeos,,,,https://diplomeo.com/etablissement-escm_strasbourg-11566
Win Sport School - Laval,laval@winsportschool.com,École de formation sportive,Changé,33243591144,https://www.win-sport-school.com/demande-de-documentation?utm_source=Hellowork&utm_medium=fiche-ecole&utm_campaign=2022&utm_content=referencement?utm_source=diplomeos,,,,https://diplomeo.com/etablissement-win_sport_school_laval-11571
MyDigitalSchool - Lyon,lyon@mydigitalschool.com,École de l'internet,Lyon,33472913631,https://www.mydigitalschool.com/?utm_source=diplomeos,,,,https://diplomeo.com/etablissement-mydigitalschool_lyon-11582
Euridis Business School - Campus de Lille,admission-lille@euridis-ecole.eus,École de gestion et de commerce,Lille,33372270350,https://www.euridis-ecole.com/campus/campus-de-lille/?utm_source=diplomeo&utm_medium=fiche-ecole&utm_campaign=2022?utm_source=diplomeos,,,,https://diplomeo.com/etablissement-euridis_business_school_campus_de_lille-11606
Euridis Business School - Campus de Nantes,admission-nantes@euridis-ecole.eus,École de gestion et de commerce,Nantes,33664700029,https://www.euridis-ecole.com/campus/campus-de-nantes/?utm_source=diplomeo&utm_medium=fiche-ecole&utm_campaign=2022?utm_source=diplomeos,,,,https://diplomeo.com/etablissement-euridis_business_school_campus_de_nantes-11607
Euridis Business School - Campus d'Aix-en-Provence,admission-aix@euridis-ecole.eus,École de gestion et de commerce,Vitrolles,33484880186,https://www.euridis-ecole.com/campus/campus-aix-en-provence/?utm_source=diplomeo&utm_medium=fiche-ecole&utm_campaign=2022?utm_source=diplomeos,,,,https://diplomeo.com/etablissement-euridis_business_school_campus_d_aix_en_provence-11608
EXCHANGE COLLEGE- Paris,contact@exchange-college.com,École de gestion et de commerce,Nanterre,33155230828,https://info.exchange-college.com/rentree-exchange-college-x-diplomeo-site/?utm_source=diplomeos,,,,https://diplomeo.com/etablissement-exchange_college_paris-11644
Eucléa Business School - Strasbourg,contact@euclea-bs.com,École de gestion et de commerce,Schiltigheim,33388981681,https://info.euclea-business-school.com/rentree-strasbourg-1782/?utm_source=diplomeos,,,,https://diplomeo.com/etablissement-euclea_business_school_strasbourg-11645
ISCOM - Institut supérieur de communication et de publicité - Bordeaux,bordeaux@iscom.fr,École de communication,Bordeaux,33607690447,Non trouvé,,,,https://diplomeo.com/etablissement-iscom_institut_superieur_de_communication_et_de_publicite_bordeaux-11651
MyDigitalSchool - Lille,lille@mydigitalschool.com,École de l'internet,Lille,0366060696,https://www.mydigitalschool.com/?utm_source=diplomeos,,,,https://diplomeo.com/etablissement-mydigitalschool_lille-11653
MyDigitalSchool - Montpellier,montpellier@mydigitalschool.com,Autre établissement d'enseignement,Montpellier,0467105853,https://www.mydigitalschool.com/?utm_source=diplomeos,,,,https://diplomeo.com/etablissement-mydigitalschool_montpellier-11656
ESGI - ECOLE SUPERIEURE DE GENIE INFORMATIQUE - AIX-EN-PROVENCE,admissions.esgi-aix@eductive.fr,École d'ingénierie informatique,Aix-en-Provence,33442951865,https://www.esgi.fr/campus-aix-en-provence.html?utm_source=diplomeos,,,,https://diplomeo.com/etablissement-esgi_ecole_superieure_de_genie_informatique_aix_en_provence-11686
ESGI - ECOLE SUPERIEURE DE GENIE INFORMATIQUE - GRENOBLE,admissions.esgi-grenoble@eductive.fr,École d'ingénierie informatique,Grenoble,33476469059,https://www.esgi.fr/campus-grenoble.html?utm_source=diplomeos,,,,https://diplomeo.com/etablissement-esgi_ecole_superieure_de_genie_informatique_grenoble-11687
ESGI - ECOLE SUPERIEURE DE GENIE INFORMATIQUE - REIMS,admissions.esgi-reims@eductive.fr,École d'ingénierie informatique,Reims,33351251070,https://www.esgi.fr/campus-reims.html?utm_source=diplomeos,,,,https://diplomeo.com/etablissement-esgi_ecole_superieure_de_genie_informatique_reims-11688
ESGI - ECOLE SUPERIEURE DE GENIE INFORMATIQUE - LYON,admissions.esgi-lyon@eductive.fr,École de l'internet,Lyon,33426290106,https://www.esgi.fr/campus-lyon.html?utm_source=diplomeos,,,,https://diplomeo.com/etablissement-esgi_ecole_superieure_de_genie_informatique_lyon-11689
PPA BUSINESS SCHOOL - AIX-EN-PROVENCE,admissions.ppa-aix@eductive.fr,École de gestion et de commerce,Aix-en-Provence,0442646200,https://www.ppa.fr/campus-aix-en-provence.html?utm_source=diplomeos,,,,https://diplomeo.com/etablissement-ppa_business_school_aix_en_provence-11691
PPA BUSINESS SCHOOL - LILLE,admissions.ppa-euralille@eductive.fr,École de gestion et de commerce,Lille,0320067453,https://www.ppa.fr/campus-lille.html?utm_source=diplomeos,,,,https://diplomeo.com/etablissement-ppa_business_school_lille-11692
PPA BUSINESS SCHOOL - GRENOBLE,admissions.ppa-grenoble@eductive.fr,École de gestion et de commerce,Grenoble,0476469059,https://www.ppa.fr/campus-grenoble.html?utm_source=diplomeos,,,,https://diplomeo.com/etablissement-ppa_business_school_grenoble-11693
PPA BUSINESS SCHOOL - REIMS,admissions-reims@ppa.fr,École de gestion et de commerce,Reims,0170834193,https://www.ppa.fr/campus-reims.html?utm_source=diplomeos,,,,https://diplomeo.com/etablissement-ppa_business_school_reims-11694
PPA BUSINESS SCHOOL - LYON,admissions-lyon@ppa.fr,École de gestion et de commerce,Lyon,0426290106,https://www.ppa.fr/campus-lyon.html?utm_source=diplomeos,,,,https://diplomeo.com/etablissement-ppa_business_school_lyon-11695
EFET STUDIOCREA - AIX-EN-PROVENCE,admissions-aix@studiocreaparis.com,"Design, Graphisme, 3D, Vidéo, Mode",Aix-en-Provence,33442646200,Non trouvé,,,,https://diplomeo.com/etablissement-efet_studiocrea_aix_en_provence-11697
EFET STUDIOCREA - GRENOBLE,admissions-grenoble@studiocreaparis.com,"Design, Graphisme, 3D, Vidéo, Mode",Grenoble,0476469059,Non trouvé,,,,https://diplomeo.com/etablissement-efet_studiocrea_grenoble-11698
EFET STUDIO CRÉA - LILLE,c.navez@eductive.fr,"Design, Graphisme, 3D, Vidéo, Mode",Lille,33320400012,Non trouvé,,,,https://diplomeo.com/etablissement-efet_studio_crea_lille-11699
MAESTRIS BTS - AIX-EN-PROVENCE,aix-en-pce@maestris.com,École spécialisée,Vitrolles,0442646200,https://www.maestris-bts.com/campus/aix-en-provence/?utm_source=diplomeos,,,,https://diplomeo.com/etablissement-maestris_bts_aix_en_provence-11704
MAESTRIS BTS - TOULON,toulon@maestris.com,École spécialisée,Toulon,33494923284,https://toulon.eductive.fr/?utm_source=diplomeos,,,,https://diplomeo.com/etablissement-maestris_bts_toulon-11705
MAESTRIS BTS - LYON,lyon@maestris.com,École spécialisée,Lyon,0426290106,https://www.maestris-bts.com/campus/lyon/?utm_source=diplomeos,,,,https://diplomeo.com/etablissement-maestris_bts_lyon-11706
EFFICOM DIGITAL SCHOOL - PARIS,paris@efficom.fr,École de l'internet,Paris,0141171212,https://www.efficom.fr/digital_school/?utm_source=diplomeos,,,,https://diplomeo.com/etablissement-efficom_digital_school_paris-11710
EFFICOM INFORMATIQUE - LILLE,lille@efficom.fr,École de l'internet,Lille,3320060289,https://www.efficom.fr/tech_school/?utm_source=diplomeos,,,,https://diplomeo.com/etablissement-efficom_informatique_lille-11712
EFFICOM INFORMATIQUE - PARIS,paris@efficom.fr,École de l'internet,Paris,33141171212,https://www.efficom.fr/tech_school/?utm_source=diplomeos,,,,https://diplomeo.com/etablissement-efficom_informatique_paris-11713
EFFICOM DESIGN SCHOOL - LILLE,lille@efficom.fr,"Design, Graphisme, 3D, Vidéo, Mode",Lille,33320060289,https://www.efficom.fr/design_school/?utm_source=diplomeos,,,,https://diplomeo.com/etablissement-efficom_design_school_lille-11715
EFFICOM BUSINESS SCHOOL - LILLE,lille@efficom.fr,École de gestion et de commerce,Lille,33320060289,https://www.efficom.fr/efficom-lille/?utm_source=diplomeos,,,,https://diplomeo.com/etablissement-efficom_business_school_lille-11719
EFFICOM BUSINESS SCHOOL - PARIS,paris@efficom.fr,École de gestion et de commerce,Paris,33141171212,https://www.efficom.fr/efficom-paris/?utm_source=diplomeos,,,,https://diplomeo.com/etablissement-efficom_business_school_paris-11720
EFAB - GRENOBLE,grenoble@efab.fr,École des métiers de l'immobilier,Grenoble,33476469059,https://www.efab.fr/campus/campus-grenoble/?utm_source=diplomeos,,,,https://diplomeo.com/etablissement-efab_grenoble-11722
EFAB  IMMOBILIER - LILLE,lille@efab.fr,École des métiers de l'immobilier,Lille,3320060289,https://www.efab.fr/campus/campus-lille/?utm_source=diplomeos,,,,https://diplomeo.com/etablissement-efab_immobilier_lille-11723
EFAB IMMOBILIER - LYON,lyon@efab.fr,École des métiers de l'immobilier,Lyon,33426290106,https://www.efab.fr/campus/campus-lyon/?utm_source=diplomeos,,,,https://diplomeo.com/etablissement-efab_immobilier_lyon-11724
EFAB  IMMOBILIER - PARIS,paris@efab.fr,École des métiers de l'immobilier,Paris,33141171212,https://www.efab.fr/campus/campus-paris/?utm_source=diplomeos,,,,https://diplomeo.com/etablissement-efab_immobilier_paris-11725
EDBS - LILLE,lille@eductive.fr,École de gestion et de commerce,Lille,0320151677,https://www.edbs-france.fr?utm_source=diplomeos,,,,https://diplomeo.com/etablissement-edbs_lille-11727
EDBS - PARIS,admissions@eductive-group.com,École de gestion et de commerce,Paris,33186220895,https://www.edbs-france.fr/?utm_source=letudiant&utm_medium=diplom%C3%A9o&utm_campaign=annuaire_052024&utm_content=home-diplom%C3%A9o?utm_source=diplomeos,,,,https://diplomeo.com/etablissement-edbs_paris-11728
ESUPCOM - ECOLE SUPERIEURE DE COMMUNICATION - LYON,lyon@esupcom.com,École de communication,Lyon,33426290101,https://www.esupcom.com/nos-ecoles/lyon/?utm_source=diplomeos,,,,https://diplomeo.com/etablissement-esupcom_ecole_superieure_de_communication_lyon-11730
EIML - ECOLE INTERNATIONALE DE MARKETING DU LUXE - LYON,c.rebatet@sciences-u.fr,École de gestion et de commerce,Lyon,33627768415,https://www.eiml-paris.fr/campus-lyon.html?utm_source=diplomeos,,,,https://diplomeo.com/etablissement-eiml_ecole_internationale_de_marketing_du_luxe_lyon-11731
ENGDE - ECOLE SUPERIEURE DE GESTION & D'EXPERTISE COMPTABLE - LYON,info@engde.fr,École de gestion et de commerce,Lyon,33627768415,https://www.engde.fr/campus-lyon.html?utm_source=diplomeos,,,,https://diplomeo.com/etablissement-engde_ecole_superieure_de_gestion_d_expertise_comptable_lyon-11733
ISFJ - INSTITUT SUPERIEUR DE FORMATION AU JOURNALISME ET A LA COMMUNICATION DIGITALE - LILLE,admissions.isfj-lillenium@eductive.fr,École de journalisme,Lille,0320400012,https://isfj-paris.com/?utm_source=diplomeos,,,,https://diplomeo.com/etablissement-isfj_institut_superieur_de_formation_au_journalisme_et_a_la_communication_digitale_lille-11735
MODART INTERNATIONAL - LYON,c.rebatet@sciences-u.fr,"Design, Graphisme, 3D, Vidéo, Mode",Lyon,0426290110,https://modart-paris.com/?utm_source=diplomeos,,,,https://diplomeo.com/etablissement-modart_international_lyon-11737
EDBS - LYON,lyon@eductive.fr,École de gestion et de commerce,Lyon,33426290132,https://www.bachelors-eductive.com/nos-campus/lyon/?utm_source=diplomeos,,,,https://diplomeo.com/etablissement-edbs_lyon-11741
EFAB IMMOBILIER - AIX-EN-PROVENCE,aix@efab.fr,École des métiers de l'immobilier,Aix-en-Provence,0442646200,https://www.efab.fr/campus/campus-aix/?utm_source=diplomeos,,,,https://diplomeo.com/etablissement-efab_immobilier_aix_en_provence-11743
EFAB  IMMOBILIER - REIMS,reims@efab.fr,École des métiers de l'immobilier,Reims,33616136593,https://www.efab.fr/campus/campus-reims/?utm_source=diplomeos,,,,https://diplomeo.com/etablissement-efab_immobilier_reims-11744
ENGDE - ECOLE SUPERIEURE DE GESTION & D'EXPERTISE COMPTABLE - LILLE,admissions-lille@engde.fr,École de gestion et de commerce,Lille,33320060289,https://www.engde.fr/campus-lille.html?utm_source=diplomeos,,,,https://diplomeo.com/etablissement-engde_ecole_superieure_de_gestion_d_expertise_comptable_lille-11745
ESGI - ECOLE SUPERIEURE DE GENIE INFORMATIQUE - LILLE,admissions.esgi-euralille@eductive.fr,École d'ingénierie informatique,Lille,33320067453,https://www.esgi.fr/campus-lille.html?utm_source=diplomeos,,,,https://diplomeo.com/etablissement-esgi_ecole_superieure_de_genie_informatique_lille-11746
MAESTRIS BTS - LILLE,lille@maestris.com,École spécialisée,Lille,0320060289,https://www.maestris-bts.com/campus/lille/?utm_source=diplomeos,,,,https://diplomeo.com/etablissement-maestris_bts_lille-11747
MAESTRIS BTS - REIMS,reims@maestris.com,École spécialisée,Reims,0326866464,https://www.maestris-bts.com/campus/reims/?utm_source=diplomeos,,,,https://diplomeo.com/etablissement-maestris_bts_reims-11748
ESG Luxe - École de Marketing et de Management du Luxe à Paris,admissions@esg-luxe.com,Autre établissement d'enseignement,Paris 1er,0183622470,https://www.esg-luxe.com/?utm_source=diplomeos,,,,https://diplomeo.com/etablissement-esg_luxe_ecole_de_marketing_et_de_management_du_luxe_a_paris-11782
EPSI Toulouse,info@toulouse-epsi.fr,École d'ingénierie informatique,Balma,33320343536,https://www.epsi.fr/campus/campus-de-toulouse/?utm_source=diplomeos,,,,https://diplomeo.com/etablissement-epsi_toulouse-11783
EPSI Rennes,info@rennes-epsi.fr,École d'ingénierie informatique,Rennes,33285523310,https://www.epsi.fr/?utm_source=diplomeo&utm_medium=Annuaire&utm_campaign=diplomeo_2024&utm_content=ANNUAIRE_diplomeo?utm_source=diplomeos,,,,https://diplomeo.com/etablissement-epsi_rennes-11784
L’école internationale du management responsable - 3A- Campus Toulouse,contact.toulouse@ecole3a.edu,École de gestion et de commerce,Balma,0582952297,https://www.ecole3a.edu/campus/toulouse?utm_source=diplomeos,,,,https://diplomeo.com/etablissement-l_ecole_internationale_du_management_responsable_3a_campus_toulouse-11793
Coding Factory by ESIEE-IT - Paris,admissions@esiee-it.fr,École de l'internet,Paris 15e,33640557787,https://codingfactory.fr/?utm_source=diplomeos,,,,https://diplomeo.com/etablissement-coding_factory_by_esiee_it_paris-11794
Webitech,info@webitechparis.com,École d'ingénierie informatique,Paris,0142037700,https://webitechparis.com/?utm_source=diplomeos,,,,https://diplomeo.com/etablissement-webitech-11797
MAESTRIS BTS - GRENOBLE,grenoble@maestris.com,École spécialisée,Grenoble,0476469059,https://www.maestris-bts.com/campus/grenoble/?utm_source=diplomeos,,,,https://diplomeo.com/etablissement-maestris_bts_grenoble-11799
ILERI - L’Institut Libre des Relations Internationales et des Sciences Politiques  - Paris,admissions.paris@ileri.fr,École spécialisée,Paris,33140530044,https://www.ileri.fr/campus/paris-17eme?utm_source=Diplomeo&utm_medium=ANNUAIRE&utm_campaign=Annuaire_2024_2025&utm_content=ANNUAIRE_Diplomeo?utm_source=diplomeos,,,,https://diplomeo.com/etablissement-ileri_l_institut_libre_des_relations_internationales_et_des_sciences_politiques_paris-11809
Efrei- Ecole d'ingénieur - Informatique et technologies du numérique - Bordeaux,admissions@efrei.fr,École d'ingénieurs,Bordeaux,33188289001,Non trouvé,,,,https://diplomeo.com/etablissement-efrei_ecole_d_ingenieur_informatique_et_technologies_du_numerique_bordeaux-11825
1984 School of design,info@1984.schools,"Design, Graphisme, 3D, Vidéo, Mode",Paris,0142590582,https://www.1984.school/?utm_source=diplomeos,,,,https://diplomeo.com/etablissement-1984_school_of_design-11831
IFCV,contact@ifcv.fr,École de gestion et de commerce,Levallois-Perret,33184782205,https://www.ifcv.fr/?utm_source=diplomeos,,,,https://diplomeo.com/etablissement-ifcv-11859
PPA SPORT - PARIS,admissions@ppa.fr,École de gestion et de commerce,Paris 14e,33140799390,https://www.ppa-sport.fr/?utm_source=diplomeos,,,,https://diplomeo.com/etablissement-ppa_sport_paris-11865
Euridis Business School - Campus de Bordeaux,admission-bordeaux@euridis-ecole.eus,École de gestion et de commerce,Bordeaux,33532000082,https://www.euridis-ecole.com/campus/campus-de-bordeaux/?utm_source=diplomeo&utm_medium=fiche-ecole&utm_campaign=2022?utm_source=diplomeos,,,,https://diplomeo.com/etablissement-euridis_business_school_campus_de_bordeaux-11871
ESI Business School - Lyon,admission-esi@groupe-gema.com,École de gestion et de commerce,Lyon,33139711212,https://www.esi-business-school.com?utm_source=diplomeos,,,,https://diplomeo.com/etablissement-esi_business_school_lyon-11872
ESG Tourisme,admissions@esg-tourisme.com,École hôtelière,Paris,33186479365,https://www.esg-tourisme.com/?utm_source=diplomeos,,,,https://diplomeo.com/etablissement-esg_tourisme-11878
LiveCampus,placement@livecampus.fr,École de l'internet,Paris 1er,0184601622,https://livecampus.fr/?utm_source=diplomeos,,,,https://diplomeo.com/etablissement-livecampus-11887
EFAB IMMOBILIER - TOULON,toulon@eductive.fr,École des métiers de l'immobilier,Toulon,33494923284,https://www.efab.fr/?utm_source=diplomeos,,,,https://diplomeo.com/etablissement-efab_immobilier_toulon-11893
ESDM - École Nantaise du Développement Durable & de Management,contact@esdm-formation.fr,École de gestion et de commerce,Nantes,0272256980,https://www.esdm-formation.fr/?utm_source=diplomeos,,,,https://diplomeo.com/etablissement-esdm_ecole_nantaise_du_developpement_durable_de_management-11895
ESP - Ecole supérieure de publicité - Lyon,dconrad@esp-esd.com,École de communication,Lyon,33755546993,https://espub.org/?utm_source=diplomeos,,,,https://diplomeo.com/etablissement-esp_ecole_superieure_de_publicite_lyon-11905
ESP - Ecole supérieure de publicité - Bordeaux,echervy@esp-esd.com,École de communication,Bordeaux,33755546992,https://espub.org/?utm_source=diplomeos,,,,https://diplomeo.com/etablissement-esp_ecole_superieure_de_publicite_bordeaux-11906
ESP - Ecole supérieure de publicité - Toulouse,rsese@esp-esd.com,École de communication,Toulouse,33532099977,https://espub.org/?utm_source=diplomeos,,,,https://diplomeo.com/etablissement-esp_ecole_superieure_de_publicite_toulouse-11907
Suptertiaire - Campus de Paris,admission-paris@suptertiaire.com,École des métiers de l'immobilier,Paris 13e,0142471212,https://www.suptertiaire-immobilier.fr/?utm_source=diplomeo&utm_medium=affiliate?utm_source=diplomeos,,,,https://diplomeo.com/etablissement-suptertiaire_campus_de_paris-11915
EFET STUDIOCREA - REIMS,campus-reims@eductive.fr,"Design, Graphisme, 3D, Vidéo, Mode",Reims,33326866464,Non trouvé,,,,https://diplomeo.com/etablissement-efet_studiocrea_reims-11916
EFET STUDIOCREA - LYON,a.marcel@sciences-u.fr,"Design, Graphisme, 3D, Vidéo, Mode",Lyon 3e,33426290106,Non trouvé,,,,https://diplomeo.com/etablissement-efet_studiocrea_lyon-11917
EFET STUDIOCREA - TOULOUSE,admission@eductive.fr,"Design, Graphisme, 3D, Vidéo, Mode",Toulouse,33635155000,Non trouvé,,,,https://diplomeo.com/etablissement-efet_studiocrea_toulouse-11919
ISFJ - INSTITUT SUPERIEUR DE FORMATION AU JOURNALISME ET A LA COMMUNICATION DIGITALE - LYON,admissions.isfj-lyon@eductive.fr,École de journalisme,Lyon 3e,33320400012,https://isfj-paris.com/?utm_source=diplomeos,,,,https://diplomeo.com/etablissement-isfj_institut_superieur_de_formation_au_journalisme_et_a_la_communication_digitale_lyon-11924
PPA BUSINESS SCHOOL - TOULOUSE,admission@eductive.fr,École de gestion et de commerce,Toulouse,33532660036,https://www.ppa.fr/ecole-commerce-alternance.html?utm_source=diplomeos,,,,https://diplomeo.com/etablissement-ppa_business_school_toulouse-11926
PPA SPORT - REIMS,campus-reims@eductive.fr,École de gestion et de commerce,Reims,33326866464,https://www.ppa-sport.fr/?utm_source=diplomeos,,,,https://diplomeo.com/etablissement-ppa_sport_reims-11928
PPA SPORT - GRENOBLE,admission-grenoble@eductive.fr,École de gestion et de commerce,Grenoble,0476469059,https://www.ppa-sport.fr/?utm_source=diplomeos,,,,https://diplomeo.com/etablissement-ppa_sport_grenoble-11929
PPA SPORT - AIX,aix@eductive.fr,École de gestion et de commerce,Aix-en-Provence,33442646200,https://www.ppa-sport.fr/?utm_source=diplomeos,,,,https://diplomeo.com/etablissement-ppa_sport_aix-11930
PPA SPORT - LILLE,admissions.euralille@eductive.fr,École de gestion et de commerce,Lille,33320060289,https://www.ppa-sport.fr/?utm_source=diplomeos,,,,https://diplomeo.com/etablissement-ppa_sport_lille-11931
PPA SPORT - LYON,j.ventosa@sciences-u.fr,École de gestion et de commerce,Lyon,33426290112,https://www.ppa-sport.fr/?utm_source=diplomeos,,,,https://diplomeo.com/etablissement-ppa_sport_lyon-11932
PPA SPORT - TOULOUSE,admission@eductive.fr,École de gestion et de commerce,Toulouse,33532660036,https://www.ppa-sport.fr/?utm_source=diplomeos,,,,https://diplomeo.com/etablissement-ppa_sport_toulouse-11934
ESGI - ECOLE SUPERIEURE DE GENIE INFORMATIQUE - NANTES,admissions.esgi-nantes@eductive.fr,École d'ingénierie informatique,Nantes,33613964995,https://www.esgi.fr/?utm_source=diplomeos,,,,https://diplomeo.com/etablissement-esgi_ecole_superieure_de_genie_informatique_nantes-11935
MODART INTERNATIONAL - LILLE,admissions.euralille@eductive.fr,"Design, Graphisme, 3D, Vidéo, Mode",Lille,33320060289,https://modart-paris.com/?utm_source=diplomeos,,,,https://diplomeo.com/etablissement-modart_international_lille-11936
ICAN - Institut de création et d'animation numériques - LILLE,admissions.ican-lillenium@eductive.fr,École de jeux vidéo et d'animation,Lille,33320400012,https://www.ican-design.fr/?utm_source=diplomeos,,,,https://diplomeo.com/etablissement-ican_institut_de_creation_et_d_animation_numeriques_lille-11938
"ECITV - La Grande École du Digital, du Web et de l’Audiovisuel en alternance - LILLE",admissions-lillenium@eductive.fr,,Lille,33320400012,Non trouvé,,,,https://diplomeo.com/etablissement-ecitv_la_grande_ecole_du_digital_du_web_et_de_l_audiovisuel_en_alternance_lille-11940
EIML - ECOLE INTERNATIONALE DE MARKETING DU LUXE - LILLE,admissions.euralille@eductive.fr,École spécialisée,Lille,33320060289,https://www.eiml-paris.fr/?utm_source=diplomeos,,,,https://diplomeo.com/etablissement-eiml_ecole_internationale_de_marketing_du_luxe_lille-11942
EIML - ECOLE INTERNATIONALE DE MARKETING DU LUXE - AIX,admissions.eiml-aix@eductive.fr,École spécialisée,Aix-en-Provence,33442646200,https://www.eiml-paris.fr/?utm_source=diplomeos,,,,https://diplomeo.com/etablissement-eiml_ecole_internationale_de_marketing_du_luxe_aix-11943
WIS Rennes,contact.rennes@ecoles-wis.fr,École de l'internet,Rennes,33285523310,https://www.wis-ecoles.com/?utm_source=diplomeo&utm_medium=Annuaire&utm_campaign=diplomeo_2024&utm_content=ANNUAIRE_diplomeo?utm_source=diplomeos,,,,https://diplomeo.com/etablissement-wis_rennes-11963
Alterneo - Paris,admission@alterneoecole.fr,École de gestion et de commerce,Paris 20e,33186902056,https://alterneoecole.fr/?utm_source=diplomeos,,,,https://diplomeo.com/etablissement-alterneo_paris-11969
IET - L’Institut des métiers de l’Environnement et de la Transition écologique - Lyon,contact.lyon@iet.fr,École spécialisée,Lyon,0472851825,https://www.iet.fr/?utm_source=diplomeo&utm_medium=annuaire&utm_campaign=iet_2022_2023&utm_content=ANNUAIRE_diplomeo?utm_source=diplomeos,,,,https://diplomeo.com/etablissement-iet_l_institut_des_metiers_de_l_environnement_et_de_la_transition_ecologique_lyon-11976
IET - L’Institut des métiers de l’Environnement et de la Transition écologique - Nantes,contact.nantes@iet.fr,École des métiers de l'agrobusiness et de l'environnement,Nantes,33285521664,https://www.iet.fr/?utm_source=diplomeo&utm_medium=annuaire&utm_campaign=iet_2022_2023&utm_content=ANNUAIRE_diplomeo?utm_source=diplomeos,,,,https://diplomeo.com/etablissement-iet_l_institut_des_metiers_de_l_environnement_et_de_la_transition_ecologique_nantes-11977
MBway - Paris Sud,parissud@mbway.com,École de gestion et de commerce,Boulogne-Billancourt,33141099924,https://www.mbway.com/?utm_source=diplomeos,,,,https://diplomeo.com/etablissement-mbway_paris_sud-11979
ESIEE-IT - Ecole de l'expertise numérique,admissions@esiee-it.fr,École d'ingénieurs,Pontoise,33130753636,https://www.esiee-it.fr/fr?utm_source=Diplomeo&utm_medium=mini-site&utm_campaign=2022-Ecole-Formations-Diplomeo?utm_source=diplomeos,,,,https://diplomeo.com/etablissement-esiee_it_ecole_de_l_expertise_numerique-11995
Ecole IT - Campus de Valenciennes,megane.pagniez@ecole-it.com,École d'ingénierie informatique,Valenciennes,33374014047,https://ecole-it.com/?utm_source=diplomeos,,,,https://diplomeo.com/etablissement-ecole_it_campus_de_valenciennes-12000
Ecole IT - Campus d'Orléans,sonia.derriennic@ecole-it.com,École de l'internet,Orléans,33246915071,https://ecole-it.com/?utm_source=diplomeos,,,,https://diplomeo.com/etablissement-ecole_it_campus_d_orleans-12001
SUP DE VINCI - Rennes,lena.queguiner@supdevinci.fr,École d'ingénierie informatique,Rennes,33623996791,https://www.supdevinci.fr/?utm_source=diplomeos,,,,https://diplomeo.com/etablissement-sup_de_vinci_rennes-12006
ICAN - Institut de création et d'animation numériques - LYON,admissions.ican-lyon@eductive.fr,École spécialisée,Lyon,33426290106,https://www.ican-design.fr/?utm_source=diplomeos,,,,https://diplomeo.com/etablissement-ican_institut_de_creation_et_d_animation_numeriques_lyon-12012
MAESTRIS BTS - PARIS,paris@maestris.com,École spécialisée,Paris,0141171212,https://www.maestris-bts.com/campus/paris/?utm_source=diplomeos,,,,https://diplomeo.com/etablissement-maestris_bts_paris-12013
L'École Française,administration@lecolefrancaise.fr,Centre de formation professionnelle,Paris,0186520577,https://lecolefrancaise.fr/?utm_source=diplomeos,,,,https://diplomeo.com/etablissement-l_ecole_francaise-12015
HTBS - Brest,service.admissions@brest-opencampus.com,École hôtelière,Brest,0298492299,https://brest-opencampus.com/?utm_source=diplomeos,,,,https://diplomeo.com/etablissement-htbs_brest-12053
Institut Supérieur du Droit - Campus Paris,contact@ecoleisd.com,École de droit et des métiers juridiques,Paris,33140704615,https://institutsuperieurdudroit.fr?utm_source=diplomeos,,,,https://diplomeo.com/etablissement-institut_superieur_du_droit_campus_paris-12056
Centre de Formation d'Apprentis numiA,contact@cfa-numia.fr,Centre de formation d'apprentis,Paris 13e,0176915913,https://www.cfa-afia.com/?utm_source=diplomeos,,,,https://diplomeo.com/etablissement-centre_de_formation_d_apprentis_numia-12060
AFOREM Le Mans,elodie.foucault@aforem.com,École de gestion et de commerce,Le Mans,33243882942,https://www.aforem.fr/?utm_source=Diplomeo&utm_medium=pagecampus?utm_source=diplomeos,,,,https://diplomeo.com/etablissement-aforem_le_mans-12064
IFAG - Institut de formation aux affaires et à la gestion - Montpellier,montpellier@ifag.com,École de gestion et de commerce,Montpellier,33411934695,Non trouvé,,,,https://diplomeo.com/etablissement-ifag_institut_de_formation_aux_affaires_et_a_la_gestion_montpellier-12076
EPSI Auxerre,recrutement.es@pole-formation.net,École d'ingénierie informatique,Auxerre,33650792430,https://www.epsi.fr/campus/campus-de-auxerre/?utm_source=diplomeos,,,,https://diplomeo.com/etablissement-epsi_auxerre-12091
IEFT - Institut européen de formation au tourisme - Bordeaux,contact.bordeaux@ecoles-ieft.fr,Autre établissement d'enseignement,Bordeaux,33535544971,Non trouvé,,,,https://diplomeo.com/etablissement-ieft_institut_europeen_de_formation_au_tourisme_bordeaux-12106
IEFT - Institut européen de formation au tourisme - Nantes,infonantes@ieftourisme.com,Autre établissement d'enseignement,Nantes,33285523130,Non trouvé,,,,https://diplomeo.com/etablissement-ieft_institut_europeen_de_formation_au_tourisme_nantes-12107
IHEDREA - L'école de l'Agri et de l'Agro Management - Toulouse,contact@toulouse.ihedrea.org,École spécialisée,Balma,33616304263,https://www.ihedrea.org/?utm_source=diplomeo&utm_medium=annuaire&utm_campaign=IHEDREA_2022_2023&utm_content=ANNUAIRE_diplomeo?utm_source=diplomeos,,,,https://diplomeo.com/etablissement-ihedrea_l_ecole_de_l_agri_et_de_l_agro_management_toulouse-12108
Ecole supérieure européenne de management en alternance - Clermont-Ferrand,clermont@ecema.fr,École de gestion et de commerce,Aubière,33444053131,https://diplomeo.com/etablissement-ecole_superieure_europeenne_de_management_en_alternance_clermont_ferrand-12113?utm_source=diplomeos,,,,https://diplomeo.com/etablissement-ecole_superieure_europeenne_de_management_en_alternance_clermont_ferrand-12113
Ecole supérieure européenne de management en alternance - Bourges,bourges@ecema.fr,École de gestion et de commerce,Bourges,33218810178,https://info.ecema.fr/rentree-bourges-diplomeo-site/?utm_source=diplomeos,,,,https://diplomeo.com/etablissement-ecole_superieure_europeenne_de_management_en_alternance_bourges-12114
Eucléa Business School - Metz,metz@euclea-bs.com,École de gestion et de commerce,Metz,33374954680,https://info.euclea-business-school.com/rentree-metz-1782/?utm_source=diplomeos,,,,https://diplomeo.com/etablissement-euclea_business_school_metz-12115
IGEFI - Paris,silemani.konate@igefi.fr,École de gestion et de commerce,Courbevoie,33626650975,https://www.igefi.net/formations/panorama-des-etudes-2-2/#utm_source=DIPLOMEO&utm_medium=Annauaire&utm_campaign=IFAG2021&utm_content=ANNUAIRE_DIPLOMEO?utm_source=diplomeos,,,,https://diplomeo.com/etablissement-igefi_paris-12116
IGEFI - Lyon,contact-lyon@igefi.net,École de gestion et de commerce,Lyon 9e,33620064817,https://www.igefi.net/formations/panorama-des-etudes-2-2/#utm_source=DIPLOMEO&utm_medium=Annauaire&utm_campaign=IFAG2021&utm_content=ANNUAIRE_DIPLOMEO?utm_source=diplomeos,,,,https://diplomeo.com/etablissement-igefi_lyon-12117
IGEFI - Bordeaux,canelle.tape@igefi.fr,École de gestion et de commerce,Bordeaux,33677135489,https://www.igefi.net/formations/panorama-des-etudes-2-2/#utm_source=DIPLOMEO&utm_medium=Annauaire&utm_campaign=IFAG2021&utm_content=ANNUAIRE_DIPLOMEO?utm_source=diplomeos,,,,https://diplomeo.com/etablissement-igefi_bordeaux-12118
ICL - L'école des Business Developers - Campus de Nantes,info@icl.fr,École de gestion et de commerce,Nantes,33788292826,Non trouvé,,,,https://diplomeo.com/etablissement-icl_l_ecole_des_business_developers_campus_de_nantes-12120
EFHT Paris,etudiant@efht.fr,École hôtelière,Paris,33145262625,https://www.efht.fr/?utm_source=diplomeos,,,,https://diplomeo.com/etablissement-efht_paris-12124
ESI Business School - Bordeaux,admission-esi@groupe-gema.com,École de gestion et de commerce,Bordeaux,33139711212,https://www.esi-business-school.com?utm_source=diplomeos,,,,https://diplomeo.com/etablissement-esi_business_school_bordeaux-12133
ESGI - ECOLE SUPERIEURE DE GENIE INFORMATIQUE - Toulouse,admissions.esgi-toulouse@eductive.fr,École d'ingénierie informatique,Toulouse,0635155000,Non trouvé,,,,https://diplomeo.com/etablissement-esgi_ecole_superieure_de_genie_informatique_toulouse-12136
Alternis Business School,quentin.guiette@alternis-bs.com,École de gestion et de commerce,Bordeaux,33783534899,https://alternis-bs.com/?utm_source=diplomeos,,,,https://diplomeo.com/etablissement-alternis_business_school-12143
ESG Act,admissions-paris@esg-act.org,École de gestion et de commerce,Paris 11e,33140090603,https://www.esg-act.org/?utm_source=diplomeos,,,,https://diplomeo.com/etablissement-esg_act-12152
Ecole Pigier - Reims,reims@pigier.com,École de gestion et de commerce,Reims,0353630063,https://www.pigier.com/ecole-commerce-reims?utm_source=diplomeos,,,,https://diplomeo.com/etablissement-ecole_pigier_reims-12190
Studency,studency@ikigai-education.com,École de gestion et de commerce,Paris 15e,0185000177,https://studency.io/?utm_source=diplomeos,,,,https://diplomeo.com/etablissement-studency-12255
ESI Business School - Aix,admission-esi@groupe-gema.com,École de gestion et de commerce,Aix-en-Provence,33139711212,https://www.esi-business-school.com?utm_source=diplomeos,,,,https://diplomeo.com/etablissement-esi_business_school_aix-12278
ESI Business School - Lille,admission-esi@groupe-gema.com,École de gestion et de commerce,Lille,33139711212,https://www.esi-business-school.com?utm_source=diplomeos,,,,https://diplomeo.com/etablissement-esi_business_school_lille-12279
ESI Business School - Nantes,admission-esi@groupe-gema.com,École de gestion et de commerce,Nantes,33139711212,https://www.esi-business-school.com?utm_source=diplomeos,,,,https://diplomeo.com/etablissement-esi_business_school_nantes-12280
Euridis Business School - Campus de Lyon - Confluence,admission@euridis-ecole.eus,École de gestion et de commerce,Lyon 2e,33484880193,https://www.euridis-ecole.com/?utm_source=diplomeo&utm_medium=fiche-ecole&utm_campaign=20&utm_term=lyon?utm_source=diplomeos,,,,https://diplomeo.com/etablissement-euridis_business_school_campus_de_lyon_confluence-12303
Euridis Business School - Campus de Paris - Canal Saint Martin,admission@euridis-ecole.eus,École de gestion et de commerce,Paris,33183710351,https://www.euridis-ecole.com/?utm_source=diplomeo&utm_medium=fiche-ecole&utm_campaign=20&utm_term=paris?utm_source=diplomeos,,,,https://diplomeo.com/etablissement-euridis_business_school_campus_de_paris_canal_saint_martin-12304
Digital College - Lille,contact@digital-college.fr,École de l'internet,Villeneuve-d'Ascq,33374958460,https://digital-college.fr?utm_source=diplomeos,,,,https://diplomeo.com/etablissement-digital_college_lille-12320
ISA - l’institut supérieur d’audiovisuel - Paris,abaulac@reseau-ges.fr,"École de photo, audiovisuel, cinéma",Paris,33142381095,https://isa-paris.com/?utm_source=diplomeo&utm_medium=fiche-ecole&utm_campaign=campagne-2023-2024-campus-paris&utm_content=texte-home?utm_source=diplomeos,,,,https://diplomeo.com/etablissement-isa_l_institut_superieur_d_audiovisuel_paris-12363
Holberton Lille,clementine@holbertonschool.com,École d'ingénierie informatique,Roubaix,33366884039,https://www.holbertonschool.fr/campus/lille?utm_source=DIPLOMEO&utm_medium=bannierecta&utm_campaign=2024?utm_source=diplomeos,,,,https://diplomeo.com/etablissement-holberton_lille-12369
Holberton Paris,idf-staff@holbertonschool.com,École d'ingénierie informatique,Paris,33176311213,https://www.holbertonschool.fr/campus/paris?utm_source=DIPLOMEO&utm_medium=bannierecta&utm_campaign=2024?utm_source=diplomeos,,,,https://diplomeo.com/etablissement-holberton_paris-12370
Holberton Laval,clementine@holbertonschool.com,École d'ingénierie informatique,Laval,33252860120,https://www.holbertonschool.fr/campus/laval?utm_source=DIPLOMEO&utm_medium=bannierecta&utm_campaign=2024?utm_source=diplomeos,,,,https://diplomeo.com/etablissement-holberton_laval-12371
PPA BUSINESS SCHOOL - Toulon,toulon@eductive.fr,École de gestion et de commerce,Toulon,33494923284,https://www.ppa.fr?utm_source=diplomeos,,,,https://diplomeo.com/etablissement-ppa_business_school_toulon-12372
SUP DE VINCI - Bordeaux,bordeaux@supdevinci.fr,École d'ingénierie informatique,Bordeaux,0535548764,https://www.supdevinci.fr/?utm_source=diplomeos,,,,https://diplomeo.com/etablissement-sup_de_vinci_bordeaux-12378
MAESTRIS BTS - NANTES,toulon@maestris.com,École spécialisée,Nantes,33494923284,https://www.maestris-bts.com/campus/toulon/?utm_source=diplomeos,,,,https://diplomeo.com/etablissement-maestris_bts_nantes-12381
MAESTRIS BTS - TOULOUSE,aix-en-pce@maestris.com,École spécialisée,Toulouse,33532660036,https://www.maestris-bts.com/campus/aix-en-provence/?utm_source=diplomeos,,,,https://diplomeo.com/etablissement-maestris_bts_toulouse-12382
Ecole Supérieure de Logistique Industrielle Paris,contact@gip-cei.com,Autre établissement d'enseignement,Cachan,33187665837,https://gip-cei.com/esli-paris/?utm_source=diplomeos,,,,https://diplomeo.com/etablissement-ecole_superieure_de_logistique_industrielle_paris-12390
Rocket School - Paris,contact@rocket-school.com,École de gestion et de commerce,Paris 12e,0176420645,https://rocket-school.com/?utm_source=diplomeos,,,,https://diplomeo.com/etablissement-rocket_school_paris-12391
Ecole Supérieure des Technologies Industrielles Redon,contact@gip-cei.com,Autre établissement d'enseignement,Redon,33299716020,https://gip-cei.com/esti/?utm_source=diplomeos,,,,https://diplomeo.com/etablissement-ecole_superieure_des_technologies_industrielles_redon-12392
Holberton Toulouse,clementine@holbertonschool.com,École d'ingénierie informatique,Toulouse,33582880603,https://www.holbertonschool.fr/campus/toulouse?utm_source=DIPLOMEO&utm_medium=bannierecta&utm_campaign=2024?utm_source=diplomeos,,,,https://diplomeo.com/etablissement-holberton_toulouse-12393
EFAB IMMOBILIER - NANTES,lyon@efab.fr,École des métiers de l'immobilier,Nantes,0613964995,https://www.efab.fr/campus/campus-lyon/?utm_source=diplomeos,,,,https://diplomeo.com/etablissement-efab_immobilier_nantes-12395
EFAB  IMMOBILIER - Toulouse,toulouse@efab.fr,École des métiers de l'immobilier,Toulouse,0532660036,https://www.efab.fr/campus/campus-grenoble/?utm_source=diplomeos,,,,https://diplomeo.com/etablissement-efab_immobilier_toulouse-12396
IFAMS,contact@ifams.fr,École de santé,Paris,0188406080,https://ifams.fr/?utm_source=diplomeos,,,,https://diplomeo.com/etablissement-ifams-12408
WIS Arras,julien.houriez@campus-cd.com,École de l'internet,Arras,33321713334,https://www.wis-ecoles.com/campus/campus-wis-arras/?utm_source=diplomeos,,,,https://diplomeo.com/etablissement-wis_arras-12413
NEXA - Bordeaux,admission-bordeaux@doranco.fr,École de l'internet,Bordeaux,33554073020,https://www.nexa.fr/?utm_source=diplomeos,,,,https://diplomeo.com/etablissement-nexa_bordeaux-12418
IEFT - Institut européen de formation au tourisme - Montpellier,noemie.lefebvre@ecoles-ieft.fr,Autre établissement d'enseignement,Montpellier,33611861343,Non trouvé,,,,https://diplomeo.com/etablissement-ieft_institut_europeen_de_formation_au_tourisme_montpellier-12433
Eucléa Business School - Mulhouse,mulhouse@euclea-bs.com,École de gestion et de commerce,Mulhouse,33389562128,https://info.euclea-business-school.com/rentree-mulhouse-1782/?utm_source=diplomeos,,,,https://diplomeo.com/etablissement-euclea_business_school_mulhouse-12467
Eucléa Business School - Reims,reims@euclea-bs.com,École de gestion et de commerce,Reims,33353480606,https://info.euclea-business-school.com/rentree-reims-1782/?utm_source=diplomeos,,,,https://diplomeo.com/etablissement-euclea_business_school_reims-12468
MJM Graphic Design - Marseille,marseille@mjm-design.com,"Design, Graphisme, 3D, Vidéo, Mode",Marseille,0491313333,https://www.mjm-design.com/ecole/marseille?utm_source=diplomeos,,,,https://diplomeo.com/etablissement-mjm_graphic_design_marseille-12477
IGEFI - Nantes,contact-nantes@igefi.net,École de gestion et de commerce,Nantes,33285526441,https://www.igefi.net/formations/panorama-des-etudes-2-2/#utm_source=DIPLOMEO&utm_medium=Annauaire&utm_campaign=IFAG2021&utm_content=ANNUAIRE_DIPLOMEO?utm_source=diplomeos,,,,https://diplomeo.com/etablissement-igefi_nantes-12489
ESDAC Paris,info@esdac-paris.fr,"Design, Graphisme, 3D, Vidéo, Mode",Paris 5e,33187044700,https://ecole-esdac.com/?utm_source=diplomeo&utm_medium=referral&utm_campaign=minisite?utm_source=diplomeos,,,,https://diplomeo.com/etablissement-esdac_paris-12536
MyDigitalSchool - Nancy,nancy@mydigitalschool.com,École de l'internet,Nancy,33368890202,Non trouvé,,,,https://diplomeo.com/etablissement-mydigitalschool_nancy-12537
IFEC -  institut franco-européen de chiropraxie - Paris,contact@ifec.net,École de santé,Ivry-sur-Seine,33145158910,https://www.ifec.net?utm_source=diplomeos,,,,https://diplomeo.com/etablissement-ifec_institut_franco_europeen_de_chiropraxie_paris-12552
IFEC -  institut franco-européen de chiropraxie - Toulouse,contact@ifec.net,École de santé,Toulouse,0561162310,https://www.ifec.net?utm_source=diplomeos,,,,https://diplomeo.com/etablissement-ifec_institut_franco_europeen_de_chiropraxie_toulouse-12553
Studio M - Angers,contact-angers@studio-m.fr,École d'art,Angers,33252210847,https://www.studio-m.fr/?utm_source=diplomeos,,,,https://diplomeo.com/etablissement-studio_m_angers-12570
CMH - Centre de Management Hôtelier International Paris,info@cmh-paris.fr,École hôtelière,Paris,0145265928,https://cmh-academy.com/?utm_source=diplomeo&utm_medium=referral&utm_campaign=minisite_paris?utm_source=diplomeos,,,,https://diplomeo.com/etablissement-cmh_centre_de_management_hotelier_international_paris-12583
Itecom Art Design - Aix-en-Provence,contactaix@itecom-artdesign.com,École d'art,Aix-en-Provence,0486118959,https://www.itecom-artdesign.com?utm_source=diplomeos,,,,https://diplomeo.com/etablissement-itecom_art_design_aix_en_provence-12591
Asteria - Rungis,contact@asteria-bs.com,École hôtelière,Chevilly-Larue,33185011696,https://info.asteria-business-school.com/asteria-diplomeo-site/?utm_source=diplomeos,,,,https://diplomeo.com/etablissement-asteria_rungis-12592
Studio M - Béziers,contact@cime-art.com,École d'art,Béziers,33448140460,https://www.studio-m.fr/?utm_source=diplomeos,,,,https://diplomeo.com/etablissement-studio_m_beziers-12597
Asteria - Strasbourg,contact@asteria-bs.com,École hôtelière,Schiltigheim,33185011696,https://info.asteria-business-school.com/asteria-diplomeo-site/?utm_source=diplomeos,,,,https://diplomeo.com/etablissement-asteria_strasbourg-12608
Purple Campus - Tarbes,tarbes@purple-campus.com,Centre de formation d'apprentis,Tarbes,33562934060,https://www.purple-campus.com/?utm_source=diplomeos,,,,https://diplomeo.com/etablissement-purple_campus_tarbes-12613
Purple Campus - Foix,foix@purple-campus.com,Centre de formation d'apprentis,Foix,33561020340,https://www.purple-campus.com/?utm_source=diplomeos,,,,https://diplomeo.com/etablissement-purple_campus_foix-12614
Purple Campus - Mende,mende@purple-campus.com,Centre de formation d'apprentis,Mende,3466494397,https://www.purple-campus.com/?utm_source=diplomeos,,,,https://diplomeo.com/etablissement-purple_campus_mende-12615
Purple Campus - Cahors,cahors@purple-campus.com,Centre de formation d'apprentis,Cahors,33565203534,https://www.purple-campus.com/?utm_source=diplomeos,,,,https://diplomeo.com/etablissement-purple_campus_cahors-12616
Purple Campus - Albi,albi@purple-campus.com,Centre de formation d'apprentis,Albi,0563496696,https://www.purple-campus.com/?utm_source=diplomeos,,,,https://diplomeo.com/etablissement-purple_campus_albi-12617
Paris School of Technology & Business,paris@pstb.fr,Autre établissement d'enseignement,Paris 11e,33612841124,https://www.pstb.fr/?utm_source=diplomeos,,,,https://diplomeo.com/etablissement-paris_school_of_technology_business-12630
PEM Éducation,contact@paris-em.fr,École de gestion et de commerce,Puteaux,33184784982,Non trouvé,,,,https://diplomeo.com/etablissement-pem_education-12631
IHECF - Angers,angers@ihecf.fr,École spécialisée,Angers,0241732030,https://www.ihecf.fr/?utm_source=diplomeos,,,,https://diplomeo.com/etablissement-ihecf_angers-12633
IHECF - Paris,paris@ihecf.fr,École spécialisée,Versailles,0141081000,https://www.ihecf.fr/?utm_source=diplomeos,,,,https://diplomeo.com/etablissement-ihecf_paris-12634
IFIC,accueil@ific-formations.com,École de communication,Vichy,33473756914,https://ific-formations.com/?utm_source=diplomeos,,,,https://diplomeo.com/etablissement-ific-12637
School of Impact,admissions@school-of-impact.com,École spécialisée,Paris 12e,0176351259,https://school-of-impact.com/?utm_source=diplomeos,,,,https://diplomeo.com/etablissement-school_of_impact-12655
EPF - Saint-Nazaire,communication@epf.fr,École d'ingénieurs,Saint-Nazaire,33499654181,Non trouvé,,,,https://diplomeo.com/etablissement-epf_saint_nazaire-12688
Klima School,admissions@klimaschool.com,École de gestion et de commerce,Puteaux,0665741186,https://www.klimaschool.com/?utm_source=diplomeos,,,,https://diplomeo.com/etablissement-klima_school-12732
Cyber Management School - Paris,admission-cyber@groupe-gema.com,Autre établissement d'enseignement,Paris,33139711212,https://www.cyber-management-school.com/?utm_source=diplomeos,,,,https://diplomeo.com/etablissement-cyber_management_school_paris-12747
Cyber Management School - Lyon,admission-cyber@groupe-gema.com,Autre établissement d'enseignement,Lyon,33139711212,https://www.cyber-management-school.com/?utm_source=diplomeos,,,,https://diplomeo.com/etablissement-cyber_management_school_lyon-12748
Cyber Management School - Lille,admission-cyber@groupe-gema.com,Autre établissement d'enseignement,Lille,33139711212,https://www.cyber-management-school.com/ecole/nos-campus/lille/?utm_source=diplomeos,,,,https://diplomeo.com/etablissement-cyber_management_school_lille-12749
SUP DE VINCI - Nantes,contact@supdevinci.fr,École d'ingénierie informatique,Nantes,33623996791,https://www.supdevinci.fr/?utm_source=diplomeos,,,,https://diplomeo.com/etablissement-sup_de_vinci_nantes-12755
Cesacom Nantes,nantes@cesacom.fr,École de communication,Nantes,33252569090,https://www.cesacom.fr/?utm_source=diplomeos,,,,https://diplomeo.com/etablissement-cesacom_nantes-12756
Institut De Relooking International,admissions@institutderelooking.com,Autre établissement d'enseignement,Paris 14e,0141171225,https://www.institutderelooking.com/?utm_source=diplomeo&utm_medium=fiche-ecole&utm_campaign=campagne-2023-2024-campus-paris&utm_content=texte-home?utm_source=diplomeos,,,,https://diplomeo.com/etablissement-institut_de_relooking_international-12757
IFAG - Institut de formation aux affaires et à la gestion - Le Mans,contact.lemans@ifag.fr,École de gestion et de commerce,Le Mans,33611785907,https://www.ifag.com/campus/le-mans?utm_source=diplomeos,,,,https://diplomeo.com/etablissement-ifag_institut_de_formation_aux_affaires_et_a_la_gestion_le_mans-12761
IET - L’Institut des métiers de l’Environnement et de la Transition écologique - Auxerre,recrutement.es@pole-formation.net,Autre établissement d'enseignement,Auxerre,33631398536,https://www.iet.fr/campus/auxerre?utm_source=diplomeos,,,,https://diplomeo.com/etablissement-iet_l_institut_des_metiers_de_l_environnement_et_de_la_transition_ecologique_auxerre-12764
ILERI - L’Institut Libre des Relations Internationales et des Sciences Politiques  - Bordeaux,admissions.bordeaux@ileri.fr,École spécialisée,Bordeaux,05535544206,https://www.ileri.fr/campus/bordeaux?utm_source=Diplomeo&utm_medium=ANNUAIRE&utm_campaign=Annuaire_2024_2025&utm_content=ANNUAIRE_Diplomeo?utm_source=diplomeos,,,,https://diplomeo.com/etablissement-ileri_l_institut_libre_des_relations_internationales_et_des_sciences_politiques_bordeaux-12778
ILERI - L’Institut Libre des Relations Internationales et des Sciences Politiques  - Nice,dmissions.nice@ileri.fr,École spécialisée,Nice,33487870607,https://www.ileri.fr/campus/nice?utm_source=Diplomeo&utm_medium=annuaire&utm_campaign=ILERI-25-26&utm_content=Annuaire-Diplomeo?utm_source=diplomeos,,,,https://diplomeo.com/etablissement-ileri_l_institut_libre_des_relations_internationales_et_des_sciences_politiques_nice-12779
ISA - l’institut supérieur d’audiovisuel - Lille,admissions-lillenium@eductive.fr,"École de photo, audiovisuel, cinéma",Lille,33320400012,https://isa-paris.com/?utm_source=diplomeos,,,,https://diplomeo.com/etablissement-isa_l_institut_superieur_d_audiovisuel_lille-12784
ISA - l’institut supérieur d’audiovisuel - Lyon,a.marcel@sciences-u.fr,"École de photo, audiovisuel, cinéma",Lyon 8e,33426290132,https://isa-paris.com/?utm_source=diplomeos,,,,https://diplomeo.com/etablissement-isa_l_institut_superieur_d_audiovisuel_lyon-12785
ISME Vannes,contact-vannes@isme.fr,École de gestion et de commerce,Vannes,33252565656,https://www.isme.fr/?utm_source=diplomeos,,,,https://diplomeo.com/etablissement-isme_vannes-12800
EDBS - Toulouse,admission@eductive.fr,École de gestion et de commerce,Toulouse,33532660036,https://www.eductive-dbs.fr/?utm_source=diplomeos,,,,https://diplomeo.com/etablissement-edbs_toulouse-12804
ESI Business School - Montpellier,admission-esi@groupe-gema.com,École de gestion et de commerce,Montpellier,33139711212,https://www.esi-business-school.com?utm_source=diplomeos,,,,https://diplomeo.com/etablissement-esi_business_school_montpellier-12848
ESI Business School - Toulouse,admission-esi@groupe-gema.com,École de gestion et de commerce,Toulouse,33139711212,https://www.esi-business-school.com?utm_source=diplomeos,,,,https://diplomeo.com/etablissement-esi_business_school_toulouse-12849
NEXA - Nantes,admission-nantes@doranco.fr,École de l'internet,Nantes,33234880351,https://www.nexa.fr/campus/nantes?utm_source=diplomeos,,,,https://diplomeo.com/etablissement-nexa_nantes-12885
ESCM - Colmar,renseignement@escm-ecole.fr,École de gestion et de commerce,Colmar,33389712936,https://escm-ecole.fr/?utm_source=diplomeos,,,,https://diplomeo.com/etablissement-escm_colmar-12896
IGEFI - Lille,theo.rousselle@igefi.fr,École de gestion et de commerce,Lille,33643801987,https://www.igefi.net/formations/panorama-des-etudes-2-2/#utm_source=DIPLOMEO&utm_medium=Annauaire&utm_campaign=IFAG2021&utm_content=ANNUAIRE_DIPLOMEO?utm_source=diplomeos,,,,https://diplomeo.com/etablissement-igefi_lille-12898
MAESTRIS BTS - RENNES,rennes@eductive.fr,École spécialisée,Rennes,33219139001,https://www.maestris-bts.com/?utm_source=diplomeos,,,,https://diplomeo.com/etablissement-maestris_bts_rennes-12908
EFAB IMMOBILIER - RENNES,rennes@eductive.fr,École des métiers de l'immobilier,Rennes,33219139001,https://www.efab.fr/?utm_source=diplomeos,,,,https://diplomeo.com/etablissement-efab_immobilier_rennes-12909
PPA BUSINESS SCHOOL - RENNES,rennes@eductive.fr,École de gestion et de commerce,Rennes,33219139001,https://www.ppa.fr/campus-rennes.html?utm_source=diplomeos,,,,https://diplomeo.com/etablissement-ppa_business_school_rennes-12910
ESGI - ECOLE SUPERIEURE DE GENIE INFORMATIQUE - RENNES,rennes@eductive.fr,École d'ingénierie informatique,Rennes,33219139001,https://www.esgi.fr/campus-rennes.html?utm_source=diplomeos,,,,https://diplomeo.com/etablissement-esgi_ecole_superieure_de_genie_informatique_rennes-12911
EFET STUDIOCREA - RENNES,rennes@eductive.fr,"Design, Graphisme, 3D, Vidéo, Mode",Rennes,33219139001,https://www.efet-studiocrea.com/campus/rennes/?utm_source=diplomeos,,,,https://diplomeo.com/etablissement-efet_studiocrea_rennes-12912
ESA La Roche sur Yon,larochesuryon@esa-campus.fr,École de gestion et de commerce,La Roche-sur-Yon,0251622209,https://ecolesuperieurealternance.fr/?utm_source=diplomeos,,,,https://diplomeo.com/etablissement-esa_la_roche_sur_yon-12917
EFFICOM RH - Paris,paris@efficom.fr,École de ressources humaines,Paris,33141171212,https://www.efficom.fr/business_school/?utm_source=diplomeos,,,,https://diplomeo.com/etablissement-efficom_rh_paris-12920
EFFICOM RH - Lille,admissions.euralille@eductive.fr,Autre établissement d'enseignement,Lille,33320060289,https://www.efficom.fr/business_school/?utm_source=diplomeos,,,,https://diplomeo.com/etablissement-efficom_rh_lille-12921
ASCENCIA Business School - Saint-Denis - Aubervilliers,contact@ascencia-bs.com,École de gestion et de commerce,Aubervilliers,33184870730,https://info.ascencia-business-school.com/saint-denis-aubervilliers-1782-diplomeo-site/?utm_source=diplomeos,,,,https://diplomeo.com/etablissement-ascencia_business_school_saint_denis_aubervilliers-12927
EXCHANGE COLLEGE- Lille,contact@exchange-college.com,École de gestion et de commerce,Villeneuve-d'Ascq,33374285012,https://info.exchange-college.com/rentree-exchange-college-x-diplomeo-site/?utm_source=diplomeos,,,,https://diplomeo.com/etablissement-exchange_college_lille-12929
CFA Cogefi Formation,contact@cogefi.com,École de gestion et de commerce,Champs-sur-Marne,0164687764,https://cogefi.com/?utm_source=diplomeos,,,,https://diplomeo.com/etablissement-cfa_cogefi_formation-12932
IPSSI - Lyon,admissions@ecole-ipssi.com,École de l'internet,Lyon 3e,33155432665,https://ecole-ipssi.com/ecole-informatique-lyon//?utm_source=diplomeo&utm_medium=directory&utm_campaign=BRAND_pres_lyn?utm_source=diplomeos,,,,https://diplomeo.com/etablissement-ipssi_lyon-12935
IPSSI - Montpellier,admissions@ecole-ipssi.com,École de l'internet,Montpellier,33155432665,https://ecole-ipssi.com/ecole-informatique-montpellier/?utm_source=diplomeo&utm_medium=directory&utm_campaign=BRAND_pres_mtp?utm_source=diplomeos,,,,https://diplomeo.com/etablissement-ipssi_montpellier-12936
IPSSI - Nice,admissions@ecole-ipssi.com,École de l'internet,Nice,33155432665,https://ecole-ipssi.com/ecole-informatique-nice/?utm_source=diplomeo&utm_medium=directory&utm_campaign=BRAND_pres_nie?utm_source=diplomeos,,,,https://diplomeo.com/etablissement-ipssi_nice-12937
ISMAC (Institut supérieur de management et de la communication),contact@ismac.fr,École de gestion et de commerce,Paris,0981959372,https://www.ismac.fr/?utm_source=diplomeos,,,,https://diplomeo.com/etablissement-ismac_institut_superieur_de_management_et_de_la_communication-12974
Digital College - Nantes,contact@digital-college.fr,École de l'internet,Nantes,33155230804,https://digital-college.fr?utm_source=diplomeos,,,,https://diplomeo.com/etablissement-digital_college_nantes-13028
Pigier Lille,lille@pigier.com,École de gestion et de commerce,Lille,33366060506,https://www.pigier.com/ecole-commerce-lille?utm_source=diplomeos,,,,https://diplomeo.com/etablissement-pigier_lille-13036
Holberton Thonon-les-Bains,clementine@holbertonschool.com,École d'ingénierie informatique,Thonon-les-Bains,0176311213,https://www.holbertonschool.fr/campus/thonon?utm_source=DIPLOMEO&utm_medium=bannierecta&utm_campaign=2024?utm_source=diplomeos,,,,https://diplomeo.com/etablissement-holberton_thonon_les_bains-13037
Euridis Business School - Campus de Montpellier,admission-montpellier@euridis-ecole.eus,École de gestion et de commerce,Montpellier,33661136748,https://www.euridis-ecole.com/campus/ecole-de-commerce-a-montpellier/?utm_source=diplomeos,,,,https://diplomeo.com/etablissement-euridis_business_school_campus_de_montpellier-13050
EEMI - Ecole Européenne des Metiers de l'Internet - Lyon,admission@eemi.com,École de l'internet,Lyon 2e,33767547625,Non trouvé,,,,https://diplomeo.com/etablissement-eemi_ecole_europeenne_des_metiers_de_l_internet_lyon-13074
EEMI - Ecole Européenne des Metiers de l'Internet - Orléans,admission@eemi.com,École de l'internet,Orléans,33767547625,https://www.eemi.com/?utm_source=diplomeos,,,,https://diplomeo.com/etablissement-eemi_ecole_europeenne_des_metiers_de_l_internet_orleans-13075
ISCOM - Institut Supérieur de Communication et Publicité - Nice,fanny.vaude@iscom.fr,École de communication,Nice,33423320415,https://www.iscom.fr/fr/iscom-nice?utm_source=diplomeos,,,,https://diplomeo.com/etablissement-iscom_institut_superieur_de_communication_et_publicite_nice-13077
Holberton Bordeaux,clementine@holbertonschool.com,École d'ingénierie informatique,Bordeaux,33582880603,https://www.holbertonschool.fr/campus/bordeaux?utm_source=DIPLOMEO&utm_medium=bannierecta&utm_campaign=2024?utm_source=diplomeos,,,,https://diplomeo.com/etablissement-holberton_bordeaux-13081
ECOLE SUPERIEURE DE CONDUITE DE TRAVAUX (ESCT) - Strasbourg,communication@esct.fr,École spécialisée,Strasbourg,33367103298,https://esct.fr/?utm_source=diplomeos,,,,https://diplomeo.com/etablissement-ecole_superieure_de_conduite_de_travaux_esct_strasbourg-13106
L’école internationale du management responsable - 3A- Campus Bordeaux,contact.bordeaux@ecole3a.edu,École de gestion et de commerce,Bordeaux,0582952297,https://www.ecole3a.edu/campus/paris?utm_source=Diplomeo&utm_medium=annuaire&utm_id=Diplomeo&utm_content=ANNUAIRE_Diplomeo?utm_source=diplomeos,,,,https://diplomeo.com/etablissement-l_ecole_internationale_du_management_responsable_3a_campus_bordeaux-13127
Purple Campus - Perpignan,perpignan@purple-campus.com,Centre de formation professionnelle,Perpignan,33468566220,Non trouvé,,,,https://diplomeo.com/etablissement-purple_campus_perpignan-13142
Purple Campus - Montpellier,montpellier@purple-campus.com,,Montpellier,Non trouvé,Non trouvé,,,,https://diplomeo.com/etablissement-purple_campus_montpellier-13143
Purple Campus - Béziers,beziers@purple-campus.com,Centre de formation d'apprentis,Béziers,33467809709,https://www.purple-campus.com/?utm_source=diplomeos,,,,https://diplomeo.com/etablissement-purple_campus_beziers-13144
Purple Campus - Rodez,rodez@purple-campus.com,,Rodez,33565755692,https://www.purple-campus.com/?utm_source=diplomeos,,,,https://diplomeo.com/etablissement-purple_campus_rodez-13145
Jump - Académie des Métiers du Sport et de l'E-Sport,jump@ikigai-education.com,École de formation sportive,Boulogne-Billancourt,33183752325,https://www.jump-academiedesmetiersdusport.io/?utm_source=diplomeos,,,,https://diplomeo.com/etablissement-jump_academie_des_metiers_du_sport_et_de_l_e_sport-13147
Skale Business School,admissibles@c3groupe.com,Centre de formation professionnelle,Orléans,33238427667,https://c3a-france.com/?utm_source=diplomeos,,,,https://diplomeo.com/etablissement-skale_business_school-13170
EDTA SORNAS,contact@sornas.fr,École de communication,Paris,0183647158,https://edta-sornas.com/?utm_source=diplomeos,,,,https://diplomeo.com/etablissement-edta_sornas-16116
"ESIEA, expert·e·s d'un numérique utile - Agen",admissions@esiea.fr,École d'ingénieurs,Agen,33536730200,https://www.esiea.fr/?utm_source=diplomeos,,,,https://diplomeo.com/etablissement-esiea_expert_e_s_d_un_numerique_utile_agen-22588
"ESIEA, expert·e·s d'un numérique utile - Dax",admissions@esiea.fr,École d'ingénieurs,Dax,33536730200,https://www.esiea.fr/?utm_source=diplomeos,,,,https://diplomeo.com/etablissement-esiea_expert_e_s_d_un_numerique_utile_dax-22589
Institut IFALP,contact@gip-cei.com,Autre établissement d'enseignement,Cachan,33187665837,https://gip-cei.com/ifalp/?utm_source=diplomeos,,,,https://diplomeo.com/etablissement-institut_ifalp-22600
IFAG - Institut de formation aux affaires et à la gestion - Arras,nicolas.delobel@ifag.fr,École de gestion et de commerce,Arras,33623068870,Non trouvé,,,,https://diplomeo.com/etablissement-ifag_institut_de_formation_aux_affaires_et_a_la_gestion_arras-22610
IHECF Paris Sud,paris@ihecf.fr,École spécialisée,Boulogne-Billancourt,33141081000,https://www.ihecf.fr/ecole-comptabilite-paris?utm_source=diplomeos,,,,https://diplomeo.com/etablissement-ihecf_paris_sud-22617
Cesacom Le Mans,lemans@cesacom.fr,École de communication,Le Mans,33252568864,https://www.cesacom.fr/?utm_source=diplomeos,,,,https://diplomeo.com/etablissement-cesacom_le_mans-22688
Cesacom Bordeaux,aurelie.delest@cesacom.fr,École de communication,Bordeaux,33757688125,https://www.cesacom.fr/?utm_source=diplomeos,,,,https://diplomeo.com/etablissement-cesacom_bordeaux-22689
IHECF Lyon,lyon@ihecf.fr,École de gestion et de commerce,Lyon 9e,33428270808,https://ihecf.fr/?utm_source=diplomeos,,,,https://diplomeo.com/etablissement-ihecf_lyon-22712
Studio M Strasbourg,contact-strasbourg@studio-m.fr,"Design, Graphisme, 3D, Vidéo, Mode",Strasbourg,0388375900,Non trouvé,,,,https://diplomeo.com/etablissement-studio_m_strasbourg-22742
Ipac Bachelor Factory Bordeaux,bordeaux@ipacfactory.com,École de gestion et de commerce,Bordeaux,33556333537,https://www.ipacbachelorfactory.com/ecole-commerce-bordeaux?utm_source=diplomeos,,,,https://diplomeo.com/etablissement-ipac_bachelor_factory_bordeaux-22756
École Internationale Tunon - Angers,angers@ecoletunon.com,Lycée GT,Angers,33259582660,Non trouvé,,,,https://diplomeo.com/etablissement-ecole_internationale_tunon_angers-22757
ESA Cholet,cholet@esa-campus.fr,École de gestion et de commerce,Cholet,33259101283,https://ecolesuperieurealternance.fr/?utm_source=diplomeos,,,,https://diplomeo.com/etablissement-esa_cholet-22762
Créative Business School,hello@creative-business-school.com,Centre de formation professionnelle,Orléans,0258230850,https://creative-business-school.com/?utm_source=diplomeos,,,,https://diplomeo.com/etablissement-creative_business_school-22772
ISVM - Institut de Santé du Vivant et du Médico-social - Nantes,admission@isvm.fr,École de santé,Nantes,33285521359,Non trouvé,,,,https://diplomeo.com/etablissement-isvm_institut_de_sante_du_vivant_et_du_medico_social_nantes-22774
ISME Poitiers,s.perrichon@isme.fr,École de gestion et de commerce,Chasseneuil-du-Poitou,33533069631,https://www.isme.fr?utm_source=diplomeos,,,,https://diplomeo.com/etablissement-isme_poitiers-22775
ENSAO,contact@ensao.fr,École d'optique,Paris,33176351295,https://www.ensao.fr?utm_source=diplomeos,,,,https://diplomeo.com/etablissement-ensao-22776
Groupe ICS (Saint-Maur-des-Fossés),info@groupe-ics.fr,École de gestion et de commerce,Saint-Maur-des-Fossés,33139501420,https://www.groupe-ics.fr/?utm_source=diplomeos,,,,https://diplomeo.com/etablissement-groupe_ics_saint_maur_des_fosses-22780
HTBS - Angers,service.admissions@angers.globalopencampus.com,École hôtelière,Trélazé,33253577464,https://htbs.fr/?utm_source=diplomeos,,,,https://diplomeo.com/etablissement-htbs_angers-22781
HTBS - Caen,service.admissions@globalopencampus.com,École hôtelière,Saint-Contest,0626431960,https://htbs.fr/?utm_source=diplomeos,,,,https://diplomeo.com/etablissement-htbs_caen-22782
Holberton Rennes,clementine@holbertonschool.com,École d'ingénierie informatique,Rennes,0176311213,https://www.holbertonschool.fr/?utm_source=diplomeos,,,,https://diplomeo.com/etablissement-holberton_rennes-22788
Holberton Dijon,clementine@holbertonschool.com,École d'ingénierie informatique,Dijon,33176311213,https://www.holbertonschool.fr/?utm_source=diplomeos,,,,https://diplomeo.com/etablissement-holberton_dijon-22793
Holberton Fréjus,clementine@holbertonschool.com,École d'ingénierie informatique,Fréjus,017311213,https://www.holbertonschool.fr/?utm_source=diplomeos,,,,https://diplomeo.com/etablissement-holberton_frejus-22794
Ecole supérieure européenne de management en alternance - Grenoble,grenoble@ecema.fr,École de gestion et de commerce,Grenoble,33487000702,https://info.ecema.fr/rentree-grenoble-diplomeo-site/?utm_source=diplomeos,,,,https://diplomeo.com/etablissement-ecole_superieure_europeenne_de_management_en_alternance_grenoble-22808
ESMD,contact@esmd-droit.fr,École de droit et des métiers juridiques,Paris 17e,33189164724,https://esmd-droit.fr/?utm_source=diplomeos,,,,https://diplomeo.com/etablissement-esmd-22811
Ecole supérieure européenne de management en alternance - Limoges,limoge@ecema.fr,École de gestion et de commerce,Limoges,33518061801,https://info.ecema.fr/rentree-limoges-diplomeo-site/?utm_source=diplomeos,,,,https://diplomeo.com/etablissement-ecole_superieure_europeenne_de_management_en_alternance_limoges-22816
I2L Metz,contact@i2-logistique.com,École d'ingénieurs,Metz,Non trouvé,https://info.institut-innovation-logistique.fr/rentree-1782/?utm_source=diplomeos,,,,https://diplomeo.com/etablissement-i2l_metz-22834
ESP - Ecole supérieure de publicité - Nantes,echervy@esp-esd.com,École de communication,Nantes,33755547009,https://espub.org/?utm_source=diplomeos,,,,https://diplomeo.com/etablissement-esp_ecole_superieure_de_publicite_nantes-22835
ESP - Ecole supérieure de publicité - Lille,cvan-becelaere@esp-esd.com,École de communication,Lille,33756799808,https://espub.org/?utm_source=diplomeos,,,,https://diplomeo.com/etablissement-esp_ecole_superieure_de_publicite_lille-22836
IFA Business School - Metz,agencemetz@ifa-formation.fr,École de gestion et de commerce,Metz,33387740075,https://www.ifa-formation.fr/campus-metz?utm_source=diplomeos,,,,https://diplomeo.com/etablissement-ifa_business_school_metz-22841
IFA Business School - Nancy,nancy@ifa-formation.fr,École de gestion et de commerce,Nancy,33367700321,https://www.ifa-formation.fr/campus-nancy?utm_source=diplomeos,,,,https://diplomeo.com/etablissement-ifa_business_school_nancy-22842
Euridis Business School - Campus de Strasbourg,admission-strasbourg@euridis-ecole.eus,École de gestion et de commerce,Strasbourg,0664391338,https://www.euridis-ecole.com/campus/campus-de-strasbourg/?utm_source=diplomeos,,,,https://diplomeo.com/etablissement-euridis_business_school_campus_de_strasbourg-22854
GMS - Green Management School - Nice,info@green-management-school.fr,École de gestion et de commerce,Nice,0189166601,https://green-management-school.fr/?utm_source=diplomeos,,,,https://diplomeo.com/etablissement-gms_green_management_school_nice-22878
SUPDEPROD - Paris,contact@supdeprod.com,"École de photo, audiovisuel, cinéma",Paris 16e,33153922300,https://supdeprod.com/?utm_source=diplomeos,,,,https://diplomeo.com/etablissement-supdeprod_paris-22891
Paris School of Sports,info@paris-school-sports.com,Autre établissement d'enseignement,Paris 10e,33188337351,https://mediaschool-sports.com/paris?utm_source=diplomeos,,,,https://diplomeo.com/etablissement-paris_school_of_sports-22910
ETS Ecole Européenne,ets@ecole-europeenne.com,École de gestion et de commerce,Paris 17e,0144292360,https://www.ecole-europeenne.com/?utm_source=diplomeos,,,,https://diplomeo.com/etablissement-ets_ecole_europeenne-22924
PSTC - Paris School of Tourism & Communication,info@ecole-pstc.fr,École de communication,Paris 8e,0142615851,https://ecole-pstc.fr/?utm_source=diplomeos,,,,https://diplomeo.com/etablissement-pstc_paris_school_of_tourism_communication-22925
Paris BTS,campus@paris-bts.com,École de gestion et de commerce,Paris 10e,33143180706,Non trouvé,,,,https://diplomeo.com/etablissement-paris_bts-22939
Skale Business School Antony,admissibles@skale-france.com,Centre de formation professionnelle,Antony,33142371234,https://skale-france.com/?utm_source=diplomeos,,,,https://diplomeo.com/etablissement-skale_business_school_antony-22941
Paris School of Luxury,info@paris-school-luxury.com,École de gestion et de commerce,Paris 8e,33155740384,https://paris-school-luxury.com/?utm_source=diplomeos,,,,https://diplomeo.com/etablissement-paris_school_of_luxury-22955
Ipac Bachelor Factory de Lyon,lyon@ipacfactory.com,École de gestion et de commerce,Lyon 7e,33451620727,https://www.ipacbachelorfactory.com/ecole-commerce-lyon?utm_source=diplomeos,,,,https://diplomeo.com/etablissement-ipac_bachelor_factory_de_lyon-22959
ESIS Lille - Ecole Supérieure de l'Image et du Son,admissions.esis-lillenium@eductive.fr,"École de photo, audiovisuel, cinéma",Lille,33142381095,https://www.esis-paris.fr/?utm_source=diplomeo&utm_medium=fiche-ecole&utm_campaign=campagne-2023-2024-campus-paris&utm_term=texte-home?utm_source=diplomeos,,,,https://diplomeo.com/etablissement-esis_lille_ecole_superieure_de_l_image_et_du_son-22961
"ECITV - Ecole du Web, du Digital et de l’Audiovisuel - Rennes",admissions@ecitv.fr,École de l'internet,Rennes,33144230045,Non trouvé,,,,https://diplomeo.com/etablissement-ecitv_ecole_du_web_du_digital_et_de_l_audiovisuel_rennes-22962
ESIS Lyon - Ecole Supérieure de l'Image et du Son,admissions.esis-lyon@eductive.fr,"École de photo, audiovisuel, cinéma",Lyon 3e,33142381095,https://www.esis-paris.fr/?utm_source=diplomeo&utm_medium=fiche-ecole&utm_campaign=campagne-2023-2024-campus-paris&utm_term=texte-home?utm_source=diplomeos,,,,https://diplomeo.com/etablissement-esis_lyon_ecole_superieure_de_l_image_et_du_son-22963
ISA - l’institut supérieur d’audiovisuel - Toulouse,admissions.toulouse@eductive.fr,"École de photo, audiovisuel, cinéma",Toulouse,Non trouvé,https://isa-paris.com/?utm_source=diplomeos,,,,https://diplomeo.com/etablissement-isa_l_institut_superieur_d_audiovisuel_toulouse-22964
"ECITV - La Grande École du Digital, du Web et de l’Audiovisuel - Toulon",admissions.ecitv-toulon@eductive.fr,École de l'internet,Toulon,33320400012,Non trouvé,,,,https://diplomeo.com/etablissement-ecitv_la_grande_ecole_du_digital_du_web_et_de_l_audiovisuel_toulon-22965
Ecole Supérieure des Professions Immobilières - ESPI Lille,lille@groupe-espi.fr,École des métiers de l'immobilier,Lille,0748106547,https://groupe-espi.fr/campus/espi-lille/?utm_source=diplomeos,,,,https://diplomeo.com/etablissement-ecole_superieure_des_professions_immobilieres_espi_lille-22970
Ecole Supérieure des Professions Immobilières - ESPI Montpellier,montpellier@groupe-espi.fr,École des métiers de l'immobilier,Montpellier,33467158819,https://groupe-espi.fr/campus/espi-montpellier/?utm_source=diplomeos,,,,https://diplomeo.com/etablissement-ecole_superieure_des_professions_immobilieres_espi_montpellier-22971
L’École Hermès des savoir-faire - Pôle de Franche-Comté - Allenjoie,cfa@hermes.com,Centre de formation d'apprentis,Allenjoie,Non trouvé,https://ecole.hermes.com/lecole/?utm_source=Diplomeo&utm_medium=backlink&utm_campaign=pages_ecoles&utm_content=bouton?utm_source=diplomeos,,,,https://diplomeo.com/etablissement-l_ecole_hermes_des_savoir_faire_pole_de_franche_comte_allenjoie-22979
Ecole IT - Campus d'Amiens,justine.lephay@ecole-it.com,École de l'internet,Amiens,33681020403,https://ecole-it.com?utm_source=diplomeos,,,,https://diplomeo.com/etablissement-ecole_it_campus_d_amiens-22998
Faculté Des Métiers - Lorient,formation.alternance@morbihan.cci.fr,Centre de formation d'apprentis,Lorient,33297640454,https://www.fac-metiers.fr/etablissement/faculte-des-metiers-lorient?utm_source=diplomeos,,,,https://diplomeo.com/etablissement-faculte_des_metiers_lorient-23080
IHECF Montpellier,montpellier@ihecf.fr,École de gestion et de commerce,Montpellier,33467105857,https://www.ihecf.fr/?utm_source=diplomeos,,,,https://diplomeo.com/etablissement-ihecf_montpellier-23171
