name,email,sector,city,phone,website,address,formations,description,url
IEFT - Institut européen de formation au tourisme - Lyon,infolyon@ieftourisme.com,Autre établissement d'enseignement,Lyon,33472851740,Non trouvé,,,,https://diplomeo.com/etablissement-ieft_institut_europeen_de_formation_au_tourisme_lyon-1025
Ecole Supérieure de Logistique Industrielle Redon,contact@gip-cei.com,Autre établissement d'enseignement,Redon,33299716020,https://gip-cei.com/esli-redon/?utm_source=diplomeos,,,,https://diplomeo.com/etablissement-ecole_superieure_de_logistique_industrielle_redon-1930
Ecole Pratique,contact@ecolepratique.com,Autre établissement d'enseignement,Marseille 9e,33491142680,https://www.ecolepratique.com/?utm_source=diplomeos,,,,https://diplomeo.com/etablissement-ecole_pratique-2930
ISPN - Institut Supérieur Professionnel de Caen,contact@ispn.fr,Autre établissement d'enseignement,Caen,33231930912,Non trouvé,,,,https://diplomeo.com/etablissement-ispn_institut_superieur_professionnel_de_caen-7167
AFTEC - Laval,laval@aftec.fr,Autre établissement d'enseignement,Changé,33243597010,https://www.aftec.fr/?utm_source=diplomeos,,,,https://diplomeo.com/etablissement-aftec_laval-9994
Studio MERCIER,contact@cime-art.com,Autre établissement d'enseignement,Béziers,33609714403,Non trouvé,,,,https://diplomeo.com/etablissement-studio_mercier-11117
MyDigitalSchool - Montpellier,montpellier@mydigitalschool.com,Autre établissement d'enseignement,Montpellier,0467105853,https://www.mydigitalschool.com/?utm_source=diplomeos,,,,https://diplomeo.com/etablissement-mydigitalschool_montpellier-11656
ESG Luxe - École de Marketing et de Management du Luxe à Paris,admissions@esg-luxe.com,Autre établissement d'enseignement,Paris 1er,0183622470,https://www.esg-luxe.com/?utm_source=diplomeos,,,,https://diplomeo.com/etablissement-esg_luxe_ecole_de_marketing_et_de_management_du_luxe_a_paris-11782
IEFT - Institut européen de formation au tourisme - Bordeaux,contact.bordeaux@ecoles-ieft.fr,Autre établissement d'enseignement,Bordeaux,33535544971,Non trouvé,,,,https://diplomeo.com/etablissement-ieft_institut_europeen_de_formation_au_tourisme_bordeaux-12106
IEFT - Institut européen de formation au tourisme - Nantes,infonantes@ieftourisme.com,Autre établissement d'enseignement,Nantes,33285523130,Non trouvé,,,,https://diplomeo.com/etablissement-ieft_institut_europeen_de_formation_au_tourisme_nantes-12107
Ecole Supérieure de Logistique Industrielle Paris,contact@gip-cei.com,Autre établissement d'enseignement,Cachan,33187665837,https://gip-cei.com/esli-paris/?utm_source=diplomeos,,,,https://diplomeo.com/etablissement-ecole_superieure_de_logistique_industrielle_paris-12390
Ecole Supérieure des Technologies Industrielles Redon,contact@gip-cei.com,Autre établissement d'enseignement,Redon,33299716020,https://gip-cei.com/esti/?utm_source=diplomeos,,,,https://diplomeo.com/etablissement-ecole_superieure_des_technologies_industrielles_redon-12392
IEFT - Institut européen de formation au tourisme - Montpellier,noemie.lefebvre@ecoles-ieft.fr,Autre établissement d'enseignement,Montpellier,33611861343,Non trouvé,,,,https://diplomeo.com/etablissement-ieft_institut_europeen_de_formation_au_tourisme_montpellier-12433
Paris School of Technology & Business,paris@pstb.fr,Autre établissement d'enseignement,Paris 11e,33612841124,https://www.pstb.fr/?utm_source=diplomeos,,,,https://diplomeo.com/etablissement-paris_school_of_technology_business-12630
Cyber Management School - Paris,admission-cyber@groupe-gema.com,Autre établissement d'enseignement,Paris,33139711212,https://www.cyber-management-school.com/?utm_source=diplomeos,,,,https://diplomeo.com/etablissement-cyber_management_school_paris-12747
Cyber Management School - Lyon,admission-cyber@groupe-gema.com,Autre établissement d'enseignement,Lyon,33139711212,https://www.cyber-management-school.com/?utm_source=diplomeos,,,,https://diplomeo.com/etablissement-cyber_management_school_lyon-12748
Cyber Management School - Lille,admission-cyber@groupe-gema.com,Autre établissement d'enseignement,Lille,33139711212,https://www.cyber-management-school.com/ecole/nos-campus/lille/?utm_source=diplomeos,,,,https://diplomeo.com/etablissement-cyber_management_school_lille-12749
Institut De Relooking International,admissions@institutderelooking.com,Autre établissement d'enseignement,Paris 14e,0141171225,https://www.institutderelooking.com/?utm_source=diplomeo&utm_medium=fiche-ecole&utm_campaign=campagne-2023-2024-campus-paris&utm_content=texte-home?utm_source=diplomeos,,,,https://diplomeo.com/etablissement-institut_de_relooking_international-12757
IET - L’Institut des métiers de l’Environnement et de la Transition écologique - Auxerre,recrutement.es@pole-formation.net,Autre établissement d'enseignement,Auxerre,33631398536,https://www.iet.fr/campus/auxerre?utm_source=diplomeos,,,,https://diplomeo.com/etablissement-iet_l_institut_des_metiers_de_l_environnement_et_de_la_transition_ecologique_auxerre-12764
EFFICOM RH - Lille,admissions.euralille@eductive.fr,Autre établissement d'enseignement,Lille,33320060289,https://www.efficom.fr/business_school/?utm_source=diplomeos,,,,https://diplomeo.com/etablissement-efficom_rh_lille-12921
Institut IFALP,contact@gip-cei.com,Autre établissement d'enseignement,Cachan,33187665837,https://gip-cei.com/ifalp/?utm_source=diplomeos,,,,https://diplomeo.com/etablissement-institut_ifalp-22600
Paris School of Sports,info@paris-school-sports.com,Autre établissement d'enseignement,Paris 10e,33188337351,https://mediaschool-sports.com/paris?utm_source=diplomeos,,,,https://diplomeo.com/etablissement-paris_school_of_sports-22910
