name,email,sector,city,phone,website,address,formations,description,url
MBS EDUCATION,admission@mbseducation.fr,Centre de formation d'apprentis,Paris,33140500202,Non trouvé,,,,https://diplomeo.com/etablissement-mbs_education-7281
DIFCAM Ile-de-France,idf@difcam.com,Centre de formation d'apprentis,Montrouge,33149534323,https://implantation.difcam.com/14-cfa-difcam-ile-de-france?utm_source=diplomeos,,,,https://diplomeo.com/etablissement-difcam_ile_de_france-12429
Purple Campus - Alès,ales@purple-campus.com,Centre de formation d'apprentis,Alès,33466912121,https://purple-campus.com?utm_source=diplomeos,,,,https://diplomeo.com/etablissement-purple_campus_ales-13138
Purple Campus - Nîmes,marguerittes@purple-campus.com,Centre de formation d'apprentis,Marguerittes,33466879759,https://purple-campus.com?utm_source=diplomeos,,,,https://diplomeo.com/etablissement-purple_campus_nimes-13139
Purple Campus - Carcassonne,carcassonne@purple-campus.com,Centre de formation d'apprentis,Carcassonne,0468713876,https://purple-campus.com?utm_source=diplomeos,,,,https://diplomeo.com/etablissement-purple_campus_carcassonne-13140
Purple Campus - Narbonne,narbonne@purple-campus.com,Centre de formation d'apprentis,Narbonne,33468441802,https://purple-campus.com?utm_source=diplomeos,,,,https://diplomeo.com/etablissement-purple_campus_narbonne-13141
CFA CERFAL,contact@cerfal.fr,Centre de formation d'apprentis,Montrouge,33140522870,Non trouvé,,,,https://diplomeo.com/etablissement-cfa_cerfal-522
ISIPCA,info@isipca.fr,Centre de formation d'apprentis,Versailles,33139237000,Non trouvé,,,,https://diplomeo.com/etablissement-isipca-639
EPMT - École de Paris des Métiers de la Table,inscription@epmt.fr,Centre de formation d'apprentis,Paris,33144091200,Non trouvé,,,,https://diplomeo.com/etablissement-epmt_ecole_de_paris_des_metiers_de_la_table-720
Faculté Des Métiers - Rennes,mathilde.friquet@fac-metiers.fr,Centre de formation d'apprentis,Rennes,33299054545,https://www.fac-metiers.fr/?utm_source=diplomeos,,,,https://diplomeo.com/etablissement-faculte_des_metiers_rennes-865
L'Ecole Energie Tech,cfa@ecole-energietech.fr,Centre de formation d'apprentis,Alfortville,33618536108,Non trouvé,,,,https://diplomeo.com/etablissement-l_ecole_energie_tech-4574
Centre de Formation d'Apprentis numiA,contact@cfa-numia.fr,Centre de formation d'apprentis,Paris 13e,0176915913,https://www.cfa-afia.com/?utm_source=diplomeos,,,,https://diplomeo.com/etablissement-centre_de_formation_d_apprentis_numia-12060
Purple Campus - Tarbes,tarbes@purple-campus.com,Centre de formation d'apprentis,Tarbes,33562934060,https://www.purple-campus.com/?utm_source=diplomeos,,,,https://diplomeo.com/etablissement-purple_campus_tarbes-12613
Purple Campus - Foix,foix@purple-campus.com,Centre de formation d'apprentis,Foix,33561020340,https://www.purple-campus.com/?utm_source=diplomeos,,,,https://diplomeo.com/etablissement-purple_campus_foix-12614
Purple Campus - Mende,mende@purple-campus.com,Centre de formation d'apprentis,Mende,3466494397,https://www.purple-campus.com/?utm_source=diplomeos,,,,https://diplomeo.com/etablissement-purple_campus_mende-12615
Purple Campus - Cahors,cahors@purple-campus.com,Centre de formation d'apprentis,Cahors,33565203534,https://www.purple-campus.com/?utm_source=diplomeos,,,,https://diplomeo.com/etablissement-purple_campus_cahors-12616
Purple Campus - Albi,albi@purple-campus.com,Centre de formation d'apprentis,Albi,0563496696,https://www.purple-campus.com/?utm_source=diplomeos,,,,https://diplomeo.com/etablissement-purple_campus_albi-12617
Purple Campus - Béziers,beziers@purple-campus.com,Centre de formation d'apprentis,Béziers,33467809709,https://www.purple-campus.com/?utm_source=diplomeos,,,,https://diplomeo.com/etablissement-purple_campus_beziers-13144
L’École Hermès des savoir-faire - Pôle de Franche-Comté - Allenjoie,cfa@hermes.com,Centre de formation d'apprentis,Allenjoie,Non trouvé,https://ecole.hermes.com/lecole/?utm_source=Diplomeo&utm_medium=backlink&utm_campaign=pages_ecoles&utm_content=bouton?utm_source=diplomeos,,,,https://diplomeo.com/etablissement-l_ecole_hermes_des_savoir_faire_pole_de_franche_comte_allenjoie-22979
Faculté Des Métiers - Lorient,formation.alternance@morbihan.cci.fr,Centre de formation d'apprentis,Lorient,33297640454,https://www.fac-metiers.fr/etablissement/faculte-des-metiers-lorient?utm_source=diplomeos,,,,https://diplomeo.com/etablissement-faculte_des_metiers_lorient-23080
