name,email,sector,city,phone,website,address,formations,description,url
Diplomeo - Aide en orientation,Non trouvé,Centre d'information et d'orientation,Paris,Non trouvé,Non trouvé,,,,https://diplomeo.com/etablissement-diplomeo_aide_en_orientation-7304
Centre d'information et d'orientation des Sables d'Olonne,Non trouvé,Centre d'information et d'orientation,Les Sables-d'Olonne,Non trouvé,Non trouvé,,,,https://diplomeo.com/etablissement-centre_d_information_et_d_orientation_des_sables_d_olonne-10620
Centre d'information et d'orientation de Châtellerault,Non trouvé,Centre d'information et d'orientation,Châtellerault,Non trouvé,Non trouvé,,,,https://diplomeo.com/etablissement-centre_d_information_et_d_orientation_de_chatellerault-10621
Centre d'information et d'orientation de Montmorillon,Non trouvé,Centre d'information et d'orientation,Montmorillon,Non trouvé,Non trouvé,,,,https://diplomeo.com/etablissement-centre_d_information_et_d_orientation_de_montmorillon-10622
Centre d'information et d'orientation de Poitiers,Non trouvé,Centre d'information et d'orientation,Poitiers,Non trouvé,Non trouvé,,,,https://diplomeo.com/etablissement-centre_d_information_et_d_orientation_de_poitiers-10623
Centre d'information et d'orientation de Bellac,Non trouvé,Centre d'information et d'orientation,Bellac,Non trouvé,Non trouvé,,,,https://diplomeo.com/etablissement-centre_d_information_et_d_orientation_de_bellac-10624
Centre d'information et d'orientation de Limoges 2,Non trouvé,Centre d'information et d'orientation,Limoges,Non trouvé,Non trouvé,,,,https://diplomeo.com/etablissement-centre_d_information_et_d_orientation_de_limoges_2-10625
Centre d'information et d'orientation de Limoges 1,Non trouvé,Centre d'information et d'orientation,Limoges,Non trouvé,Non trouvé,,,,https://diplomeo.com/etablissement-centre_d_information_et_d_orientation_de_limoges_1-10626
Centre d'information et d'orientation de Saint-Junien (antenne du CIO Bellac),Non trouvé,Centre d'information et d'orientation,Saint-Junien,Non trouvé,Non trouvé,,,,https://diplomeo.com/etablissement-centre_d_information_et_d_orientation_de_saint_junien_antenne_du_cio_bellac-10627
Centre d'information et d'orientation de Saint-Yrieix (antenne de Limoges I),Non trouvé,Centre d'information et d'orientation,Saint-Yrieix-la-Perche,Non trouvé,Non trouvé,,,,https://diplomeo.com/etablissement-centre_d_information_et_d_orientation_de_saint_yrieix_antenne_de_limoges_i-10628
Centre d'information et d'orientation d'Epinal,Non trouvé,Centre d'information et d'orientation,Épinal,Non trouvé,Non trouvé,,,,https://diplomeo.com/etablissement-centre_d_information_et_d_orientation_d_epinal-10629
Centre d'information et d'orientation de Neufchâteau,Non trouvé,Centre d'information et d'orientation,Neufchâteau,Non trouvé,Non trouvé,,,,https://diplomeo.com/etablissement-centre_d_information_et_d_orientation_de_neufchateau-10630
Centre d'information et d'orientation de Remiremont,Non trouvé,Centre d'information et d'orientation,Remiremont,Non trouvé,Non trouvé,,,,https://diplomeo.com/etablissement-centre_d_information_et_d_orientation_de_remiremont-10631
Centre d'information et d'orientation de Saint-Dié,Non trouvé,Centre d'information et d'orientation,Saint-Dié-des-Vosges,Non trouvé,Non trouvé,,,,https://diplomeo.com/etablissement-centre_d_information_et_d_orientation_de_saint_die-10632
Centre d'information et d'orientation d'Auxerre,Non trouvé,Centre d'information et d'orientation,Auxerre,Non trouvé,Non trouvé,,,,https://diplomeo.com/etablissement-centre_d_information_et_d_orientation_d_auxerre-10633
Centre d'information et d'orientation de Joigny,Non trouvé,Centre d'information et d'orientation,Joigny,Non trouvé,Non trouvé,,,,https://diplomeo.com/etablissement-centre_d_information_et_d_orientation_de_joigny-10634
Centre d'information et d'orientation de Sens,Non trouvé,Centre d'information et d'orientation,Sens,Non trouvé,Non trouvé,,,,https://diplomeo.com/etablissement-centre_d_information_et_d_orientation_de_sens-10635
Centre d'information et d'orientation de Belfort,Non trouvé,Centre d'information et d'orientation,Belfort,Non trouvé,Non trouvé,,,,https://diplomeo.com/etablissement-centre_d_information_et_d_orientation_de_belfort-10636
Centre d'information et d'orientation d'Arpajon,Non trouvé,Centre d'information et d'orientation,Arpajon,Non trouvé,Non trouvé,,,,https://diplomeo.com/etablissement-centre_d_information_et_d_orientation_d_arpajon-10637
Centre d'information et d'orientation de Brunoy,Non trouvé,Centre d'information et d'orientation,Brunoy,Non trouvé,Non trouvé,,,,https://diplomeo.com/etablissement-centre_d_information_et_d_orientation_de_brunoy-10638
Centre d'information et d'orientation de Chilly-Mazarin (CIO section spécialisée auprès du Tribunal,Non trouvé,Centre d'information et d'orientation,Chilly-Mazarin,Non trouvé,Non trouvé,,,,https://diplomeo.com/etablissement-centre_d_information_et_d_orientation_de_chilly_mazarin_cio_section_specialisee_aupres_du_tribunal-10639
Centre d'information et d'orientation de Corbeil-Essonnes,Non trouvé,Centre d'information et d'orientation,Corbeil-Essonnes,Non trouvé,Non trouvé,,,,https://diplomeo.com/etablissement-centre_d_information_et_d_orientation_de_corbeil_essonnes-10640
Centre d'information et d'orientation d'Étampes,Non trouvé,Centre d'information et d'orientation,Étampes,Non trouvé,Non trouvé,,,,https://diplomeo.com/etablissement-centre_d_information_et_d_orientation_d_etampes-10641
Centre d'information et d'orientation d'Évry,Non trouvé,Centre d'information et d'orientation,Évry-Courcouronnes,Non trouvé,Non trouvé,,,,https://diplomeo.com/etablissement-centre_d_information_et_d_orientation_d_evry-10642
Centre d'information et d'orientation de Massy,Non trouvé,Centre d'information et d'orientation,Massy,Non trouvé,Non trouvé,,,,https://diplomeo.com/etablissement-centre_d_information_et_d_orientation_de_massy-10643
Centre d'information et d'orientation de Sainte-Geneviève-des-Bois,Non trouvé,Centre d'information et d'orientation,Sainte-Geneviève-des-Bois,Non trouvé,Non trouvé,,,,https://diplomeo.com/etablissement-centre_d_information_et_d_orientation_de_sainte_genevieve_des_bois-10644
Centre d'information et d'orientation de Savigny-sur-Orge,Non trouvé,Centre d'information et d'orientation,Savigny-sur-Orge,Non trouvé,Non trouvé,,,,https://diplomeo.com/etablissement-centre_d_information_et_d_orientation_de_savigny_sur_orge-10645
Centre d'information et d'orientation des Ulis,Non trouvé,Centre d'information et d'orientation,Les Ulis,Non trouvé,Non trouvé,,,,https://diplomeo.com/etablissement-centre_d_information_et_d_orientation_des_ulis-10646
Centre d'information et d'orientation de Boulogne,Non trouvé,Centre d'information et d'orientation,Boulogne-Billancourt,Non trouvé,Non trouvé,,,,https://diplomeo.com/etablissement-centre_d_information_et_d_orientation_de_boulogne-10647
Centre d'information et d'orientation de Clamart,Non trouvé,Centre d'information et d'orientation,Clamart,Non trouvé,Non trouvé,,,,https://diplomeo.com/etablissement-centre_d_information_et_d_orientation_de_clamart-10648
Centre d'information et d'orientation de Colombes,Non trouvé,Centre d'information et d'orientation,Colombes,Non trouvé,Non trouvé,,,,https://diplomeo.com/etablissement-centre_d_information_et_d_orientation_de_colombes-10649
Centre d'information et d'orientation de Gennevilliers,Non trouvé,Centre d'information et d'orientation,Gennevilliers,Non trouvé,Non trouvé,,,,https://diplomeo.com/etablissement-centre_d_information_et_d_orientation_de_gennevilliers-10650
Centre d'information et d'orientation de Montrouge (CIO relais Europe),Non trouvé,Centre d'information et d'orientation,Montrouge,Non trouvé,Non trouvé,,,,https://diplomeo.com/etablissement-centre_d_information_et_d_orientation_de_montrouge_cio_relais_europe-10651
Centre d'information et d'orientation de Puteaux,Non trouvé,Centre d'information et d'orientation,Puteaux,Non trouvé,Non trouvé,,,,https://diplomeo.com/etablissement-centre_d_information_et_d_orientation_de_puteaux-10652
CIO de Rueil-Malmaison (héberge le CIO de Nanterre),Non trouvé,Centre d'information et d'orientation,Rueil-Malmaison,Non trouvé,Non trouvé,,,,https://diplomeo.com/etablissement-cio_de_rueil_malmaison_heberge_le_cio_de_nanterre-10653
CIO de Nanterre (CIO section spécialisée auprès du Tribunal pour enfants) hébergé au CIO de Rueil-Ma,Non trouvé,Centre d'information et d'orientation,Rueil-Malmaison,Non trouvé,Non trouvé,,,,https://diplomeo.com/etablissement-cio_de_nanterre_cio_section_specialisee_aupres_du_tribunal_pour_enfants_heberge_au_cio_de_rueil_ma-10654
Centre d'information et d'orientation d'Aubervilliers,Non trouvé,Centre d'information et d'orientation,Aubervilliers,Non trouvé,Non trouvé,,,,https://diplomeo.com/etablissement-centre_d_information_et_d_orientation_d_aubervilliers-10655
Centre d'information et d'orientation d'Aulnay-sous-Bois,Non trouvé,Centre d'information et d'orientation,Aulnay-sous-Bois,Non trouvé,Non trouvé,,,,https://diplomeo.com/etablissement-centre_d_information_et_d_orientation_d_aulnay_sous_bois-10656
Centre d'information et d'orientation du Blanc Mesnil (antenne du CIO de Drancy),Non trouvé,Centre d'information et d'orientation,Le Blanc-Mesnil,Non trouvé,Non trouvé,,,,https://diplomeo.com/etablissement-centre_d_information_et_d_orientation_du_blanc_mesnil_antenne_du_cio_de_drancy-10657
Centre d'information et d'orientation (auprès du tribunal pour enfants),Non trouvé,Centre d'information et d'orientation,Bobigny,Non trouvé,Non trouvé,,,,https://diplomeo.com/etablissement-centre_d_information_et_d_orientation_aupres_du_tribunal_pour_enfants-10658
Centre d'information et d'orientation de Bobigny,Non trouvé,Centre d'information et d'orientation,Bobigny,Non trouvé,Non trouvé,,,,https://diplomeo.com/etablissement-centre_d_information_et_d_orientation_de_bobigny-10659
Centre d'information et d'orientation de Bondy,Non trouvé,Centre d'information et d'orientation,Bondy,Non trouvé,Non trouvé,,,,https://diplomeo.com/etablissement-centre_d_information_et_d_orientation_de_bondy-10660
Centre d'information et d'orientation de Clichy - le Raincy,Non trouvé,Centre d'information et d'orientation,Clichy-sous-Bois,Non trouvé,Non trouvé,,,,https://diplomeo.com/etablissement-centre_d_information_et_d_orientation_de_clichy_le_raincy-10661
Centre d'information et d'orientation de Drancy,Non trouvé,Centre d'information et d'orientation,Drancy,Non trouvé,Non trouvé,,,,https://diplomeo.com/etablissement-centre_d_information_et_d_orientation_de_drancy-10662
Centre d'information et d'orientation d'Épinay-sur-Seine (Cio relais Europe),Non trouvé,Centre d'information et d'orientation,Épinay-sur-Seine,Non trouvé,Non trouvé,,,,https://diplomeo.com/etablissement-centre_d_information_et_d_orientation_d_epinay_sur_seine_cio_relais_europe-10663
Centre d'information et d'orientation de Gagny,Non trouvé,Centre d'information et d'orientation,Gagny,Non trouvé,Non trouvé,,,,https://diplomeo.com/etablissement-centre_d_information_et_d_orientation_de_gagny-10664
Centre d'information et d'orientation de Montreuil,Non trouvé,Centre d'information et d'orientation,Montreuil,Non trouvé,Non trouvé,,,,https://diplomeo.com/etablissement-centre_d_information_et_d_orientation_de_montreuil-10665
Centre d'information et d'orientation de Noisy-le-Grand,Non trouvé,Centre d'information et d'orientation,Noisy-le-Grand,Non trouvé,Non trouvé,,,,https://diplomeo.com/etablissement-centre_d_information_et_d_orientation_de_noisy_le_grand-10666
Centre d'information et d'orientation de Noisy-le-Sec,Non trouvé,Centre d'information et d'orientation,Créteil,Non trouvé,Non trouvé,,,,https://diplomeo.com/etablissement-centre_d_information_et_d_orientation_de_noisy_le_sec-10667
Centre d'information et d'orientation de Pantin,Non trouvé,Centre d'information et d'orientation,Pantin,Non trouvé,Non trouvé,,,,https://diplomeo.com/etablissement-centre_d_information_et_d_orientation_de_pantin-10668
Centre d'information et d'orientation de Saint-Denis,Non trouvé,Centre d'information et d'orientation,Saint-Denis,Non trouvé,Non trouvé,,,,https://diplomeo.com/etablissement-centre_d_information_et_d_orientation_de_saint_denis-10669
Centre d'information et d'orientation de Stains,Non trouvé,Centre d'information et d'orientation,Stains,Non trouvé,Non trouvé,,,,https://diplomeo.com/etablissement-centre_d_information_et_d_orientation_de_stains-10670
Centre d'information et d'orientation du Tremblay-en-France,Non trouvé,Centre d'information et d'orientation,Tremblay-en-France,Non trouvé,Non trouvé,,,,https://diplomeo.com/etablissement-centre_d_information_et_d_orientation_du_tremblay_en_france-10671
Centre d'information et d'orientation de Boissy-Saint-Léger,Non trouvé,Centre d'information et d'orientation,Boissy-Saint-Léger,Non trouvé,Non trouvé,,,,https://diplomeo.com/etablissement-centre_d_information_et_d_orientation_de_boissy_saint_leger-10672
Centre d'information et d'orientation de Champigny-sur-Marne,Non trouvé,Centre d'information et d'orientation,Champigny-sur-Marne,Non trouvé,Non trouvé,,,,https://diplomeo.com/etablissement-centre_d_information_et_d_orientation_de_champigny_sur_marne-10673
Centre d'information et d'orientation de Charenton-le-Pont,Non trouvé,Centre d'information et d'orientation,Charenton-le-Pont,Non trouvé,Non trouvé,,,,https://diplomeo.com/etablissement-centre_d_information_et_d_orientation_de_charenton_le_pont-10674
Centre d'information et d'orientation de Choisy-le-Roi,Non trouvé,Centre d'information et d'orientation,Choisy-le-Roi,Non trouvé,Non trouvé,,,,https://diplomeo.com/etablissement-centre_d_information_et_d_orientation_de_choisy_le_roi-10675
Centre d'information et d'orientation de Créteil (CIO spécialisé auprès du Tribunal de Créteil),Non trouvé,Centre d'information et d'orientation,Créteil,Non trouvé,Non trouvé,,,,https://diplomeo.com/etablissement-centre_d_information_et_d_orientation_de_creteil_cio_specialise_aupres_du_tribunal_de_creteil-10676
Centre d'information et d'orientation de Créteil,Non trouvé,Centre d'information et d'orientation,Créteil,Non trouvé,Non trouvé,,,,https://diplomeo.com/etablissement-centre_d_information_et_d_orientation_de_creteil-10677
Centre d'information et d'orientation de L'Haÿ-les-Roses (CIO relais Europe),Non trouvé,Centre d'information et d'orientation,L'Haÿ-les-Roses,Non trouvé,Non trouvé,,,,https://diplomeo.com/etablissement-centre_d_information_et_d_orientation_de_l_hay_les_roses_cio_relais_europe-10678
Centre d'information et d'orientation d'Ivry-sur-Seine,Non trouvé,Centre d'information et d'orientation,Ivry-sur-Seine,Non trouvé,Non trouvé,,,,https://diplomeo.com/etablissement-centre_d_information_et_d_orientation_d_ivry_sur_seine-10679
Centre d'information et d'orientation de Nogent-sur-Marne,Non trouvé,Centre d'information et d'orientation,Nogent-sur-Marne,Non trouvé,Non trouvé,,,,https://diplomeo.com/etablissement-centre_d_information_et_d_orientation_de_nogent_sur_marne-10680
Centre d'information et d'orientation de Saint-Maur-des-Fossés,Non trouvé,Centre d'information et d'orientation,Saint-Maur-des-Fossés,Non trouvé,Non trouvé,,,,https://diplomeo.com/etablissement-centre_d_information_et_d_orientation_de_saint_maur_des_fosses-10681
Centre d'information et d'orientation de Villejuif,Non trouvé,Centre d'information et d'orientation,Villejuif,Non trouvé,Non trouvé,,,,https://diplomeo.com/etablissement-centre_d_information_et_d_orientation_de_villejuif-10682
Centre d'information et d'orientation de Vincennes,Non trouvé,Centre d'information et d'orientation,Vincennes,Non trouvé,Non trouvé,,,,https://diplomeo.com/etablissement-centre_d_information_et_d_orientation_de_vincennes-10683
Centre d'information et d'orientation d'Argenteuil,Non trouvé,Centre d'information et d'orientation,Argenteuil,Non trouvé,Non trouvé,,,,https://diplomeo.com/etablissement-centre_d_information_et_d_orientation_d_argenteuil-10684
Centre d'information et d'orientation de Cergy-Pontoise (CIO relais Europe),Non trouvé,Centre d'information et d'orientation,Cergy,Non trouvé,Non trouvé,,,,https://diplomeo.com/etablissement-centre_d_information_et_d_orientation_de_cergy_pontoise_cio_relais_europe-10685
Centre d'information et d'orientation d'Ermont,Non trouvé,Centre d'information et d'orientation,Ermont,Non trouvé,Non trouvé,,,,https://diplomeo.com/etablissement-centre_d_information_et_d_orientation_d_ermont-10686
Centre d'information et d'orientation de Gonesse,Non trouvé,Centre d'information et d'orientation,Gonesse,Non trouvé,Non trouvé,,,,https://diplomeo.com/etablissement-centre_d_information_et_d_orientation_de_gonesse-10687
Centre d'information et d'orientation de Sarcelles,Non trouvé,Centre d'information et d'orientation,Sarcelles,Non trouvé,Non trouvé,,,,https://diplomeo.com/etablissement-centre_d_information_et_d_orientation_de_sarcelles-10688
