name,email,sector,city,phone,website,address,formations,description,url
L'École Multimédia,service.communication@ecole-multimedia.com,École de l'internet,Paris,33142785101,Non trouvé,,,,https://diplomeo.com/etablissement-l_ecole_multimedia-7273
Digital School of Paris,contact@digitalschool.paris,École de l'internet,Paris,33173433000,https://www.digitalschool.paris/?utm_source=diplomeos,,,,https://diplomeo.com/etablissement-digital_school_of_paris-9877
Digital College - Paris La Défense,contact@digital-college.fr,École de l'internet,Nanterre,33155230804,https://digital-college.fr?utm_source=diplomeos,,,,https://diplomeo.com/etablissement-digital_college_paris_la_defense-11366
301,contact@301-digital.com,École de l'internet,Rennes,33299148088,https://www.301-digital.com/?utm_source=diplomeos,,,,https://diplomeo.com/etablissement-301-11775
Ynov Tech & Business -  Paris Ouest,contact-paris@ynov.com,École de l'internet,Nanterre,0148070702,https://www.ynov.com/formation/ynov-web-management/?utm_source=diplomeos,,,,https://diplomeo.com/etablissement-ynov_tech_business_paris_ouest-12348
IRIS - Ecole Supérieur d'informatique et de Numérique - Paris,iris@groupeipf.com,École de l'internet,Paris,33155743099,Non trouvé,,,,https://diplomeo.com/etablissement-iris_ecole_superieur_d_informatique_et_de_numerique_paris-4236
Institut G4 - Marseille,contact@g-4.fr,École de l'internet,Marseille,33811690000,https://www.institut-g4.fr/?utm_source=diplomeos,,,,https://diplomeo.com/etablissement-institut_g4_marseille-4750
EEMI - Ecole Européenne des Metiers de l'Internet - Paris,admission@eemi.com,École de l'internet,Paris,33767547625,https://www.eemi.com/?utm_source=diplomeos,,,,https://diplomeo.com/etablissement-eemi_ecole_europeenne_des_metiers_de_l_internet_paris-7253
"L’ECITV, La Grande École du Digital, du Web et de l’Audiovisuel en alternance",admissions@ecitv.fr,École de l'internet,Paris 16e,33144230045,Non trouvé,,,,https://diplomeo.com/etablissement-l_ecitv_la_grande_ecole_du_digital_du_web_et_de_l_audiovisuel_en_alternance-7254
Digital Campus - Bordeaux,bordeaux@digital-campus.fr,École de l'internet,Bordeaux,33518251828,https://www.digital-campus.fr/ecole/bordeaux?utm_source=diplomeo?utm_source=diplomeos,,,,https://diplomeo.com/etablissement-digital_campus_bordeaux-7653
Institut G4 - Lyon,contact@institut-g4.fr,École de l'internet,Lyon,33811690000,https://www.institut-g4.fr?utm_source=diplomeos,,,,https://diplomeo.com/etablissement-institut_g4_lyon-7660
IPSSI - Paris,admissions@ecole-ipssi.com,École de l'internet,Paris,33155432665,https://ecole-ipssi.com/?utm_source=diplomeo&utm_medium=directory&utm_campaign=BRAND_pres_ipssi?utm_source=diplomeos,,,,https://diplomeo.com/etablissement-ipssi_paris-7842
WIS Lyon,lyon@wis-ecoles.com,École de l'internet,Lyon 9e,33609060628,Non trouvé,,,,https://diplomeo.com/etablissement-wis_lyon-8063
WIS Bordeaux,bordeaux@wis-ecoles.com,École de l'internet,Bordeaux,33556431313,Non trouvé,,,,https://diplomeo.com/etablissement-wis_bordeaux-8064
WIS Lille,lille@wis-ecoles.com,École de l'internet,Lille,33320343536,https://www.wis-ecoles.com/?utm_source=diplomeo&utm_medium=Annuaire&utm_campaign=diplomeo_2024&utm_content=ANNUAIRE_diplomeo?utm_source=diplomeos,,,,https://diplomeo.com/etablissement-wis_lille-8065
WIS Nantes,nantes@wis-ecoles.com,École de l'internet,Nantes,33240766087,Non trouvé,,,,https://diplomeo.com/etablissement-wis_nantes-8066
MyDigitalSchool - Paris,paris@mydigitalschool.com,École de l'internet,Paris 11e,33155070765,Non trouvé,,,,https://diplomeo.com/etablissement-mydigitalschool_paris-9488
IPSSI - Marne-la-Vallée,admissions@ecole-ipssi.com,École de l'internet,Serris,33181807710,https://ecole-ipssi.com/contact-ecole-informatique-web-design-graphique/marne-la-vallee/?utm_source=diplomeo&utm_medium=directory&utm_campaign=BRAND_pres_ipssi?utm_source=diplomeos,,,,https://diplomeo.com/etablissement-ipssi_marne_la_vallee-9927
MyDigitalSchool - Angers,angers@mydigitalschool.com,École de l'internet,Angers,33252210038,https://www.mydigitalschool.com/?utm_source=diplomeos,,,,https://diplomeo.com/etablissement-mydigitalschool_angers-10177
WIS Montpellier,montpellier@wis-ecoles.com,École de l'internet,Montpellier,33467042001,https://www.wis-ecoles.com/?utm_source=diplomeo&utm_medium=Annuaire&utm_campaign=diplomeo_2024&utm_content=ANNUAIRE_diplomeo?utm_source=diplomeos,,,,https://diplomeo.com/etablissement-wis_montpellier-11120
MyDigitalSchool - Saint-Quentin-en-Yvelines,stquentin@mydigitalschool.com,École de l'internet,Montigny-le-Bretonneux,0184270654,https://www.mydigitalschool.com/saint-quentin-en-yvelines/contact?utm_source=diplomeos,,,,https://diplomeo.com/etablissement-mydigitalschool_saint_quentin_en_yvelines-11405
IPSSI - Saint-Quentin-en-Yvelines,admissions@ipssi-sqy.com,École de l'internet,Versailles,0155432910,https://ecole-ipssi.com/ecole-informatique/campus-saint-quentin-en-yvelines/?utm_source=diplomeo&utm_medium=directory&utm_campaign=BRAND_pres_sqy?utm_source=diplomeos,,,,https://diplomeo.com/etablissement-ipssi_saint_quentin_en_yvelines-11482
WIS Paris,paris@wis-ecoles.com,École de l'internet,Paris,33155900630,https://www.wis-ecoles.com/?utm_source=diplomeo&utm_medium=Annuaire&utm_campaign=diplomeo_2024&utm_content=ANNUAIRE_diplomeo?utm_source=diplomeos,,,,https://diplomeo.com/etablissement-wis_paris-11483
WIS Toulouse,eric.albert@toulouse-epsi.fr,École de l'internet,Quint-Fonsegrives,0467042001,Non trouvé,,,,https://diplomeo.com/etablissement-wis_toulouse-11484
WIS Grenoble,grenoble@wis-ecoles.com,École de l'internet,Saint-Martin-d'Hères,0458003890,Non trouvé,,,,https://diplomeo.com/etablissement-wis_grenoble-11485
MyDigitalSchool - Lyon,lyon@mydigitalschool.com,École de l'internet,Lyon,33472913631,https://www.mydigitalschool.com/?utm_source=diplomeos,,,,https://diplomeo.com/etablissement-mydigitalschool_lyon-11582
MyDigitalSchool - Lille,lille@mydigitalschool.com,École de l'internet,Lille,0366060696,https://www.mydigitalschool.com/?utm_source=diplomeos,,,,https://diplomeo.com/etablissement-mydigitalschool_lille-11653
ESGI - ECOLE SUPERIEURE DE GENIE INFORMATIQUE - LYON,admissions.esgi-lyon@eductive.fr,École de l'internet,Lyon,33426290106,https://www.esgi.fr/campus-lyon.html?utm_source=diplomeos,,,,https://diplomeo.com/etablissement-esgi_ecole_superieure_de_genie_informatique_lyon-11689
EFFICOM DIGITAL SCHOOL - PARIS,paris@efficom.fr,École de l'internet,Paris,0141171212,https://www.efficom.fr/digital_school/?utm_source=diplomeos,,,,https://diplomeo.com/etablissement-efficom_digital_school_paris-11710
EFFICOM INFORMATIQUE - LILLE,lille@efficom.fr,École de l'internet,Lille,3320060289,https://www.efficom.fr/tech_school/?utm_source=diplomeos,,,,https://diplomeo.com/etablissement-efficom_informatique_lille-11712
EFFICOM INFORMATIQUE - PARIS,paris@efficom.fr,École de l'internet,Paris,33141171212,https://www.efficom.fr/tech_school/?utm_source=diplomeos,,,,https://diplomeo.com/etablissement-efficom_informatique_paris-11713
Coding Factory by ESIEE-IT - Paris,admissions@esiee-it.fr,École de l'internet,Paris 15e,33640557787,https://codingfactory.fr/?utm_source=diplomeos,,,,https://diplomeo.com/etablissement-coding_factory_by_esiee_it_paris-11794
LiveCampus,placement@livecampus.fr,École de l'internet,Paris 1er,0184601622,https://livecampus.fr/?utm_source=diplomeos,,,,https://diplomeo.com/etablissement-livecampus-11887
WIS Rennes,contact.rennes@ecoles-wis.fr,École de l'internet,Rennes,33285523310,https://www.wis-ecoles.com/?utm_source=diplomeo&utm_medium=Annuaire&utm_campaign=diplomeo_2024&utm_content=ANNUAIRE_diplomeo?utm_source=diplomeos,,,,https://diplomeo.com/etablissement-wis_rennes-11963
Ecole IT - Campus d'Orléans,sonia.derriennic@ecole-it.com,École de l'internet,Orléans,33246915071,https://ecole-it.com/?utm_source=diplomeos,,,,https://diplomeo.com/etablissement-ecole_it_campus_d_orleans-12001
Digital College - Lille,contact@digital-college.fr,École de l'internet,Villeneuve-d'Ascq,33374958460,https://digital-college.fr?utm_source=diplomeos,,,,https://diplomeo.com/etablissement-digital_college_lille-12320
WIS Arras,julien.houriez@campus-cd.com,École de l'internet,Arras,33321713334,https://www.wis-ecoles.com/campus/campus-wis-arras/?utm_source=diplomeos,,,,https://diplomeo.com/etablissement-wis_arras-12413
NEXA - Bordeaux,admission-bordeaux@doranco.fr,École de l'internet,Bordeaux,33554073020,https://www.nexa.fr/?utm_source=diplomeos,,,,https://diplomeo.com/etablissement-nexa_bordeaux-12418
MyDigitalSchool - Nancy,nancy@mydigitalschool.com,École de l'internet,Nancy,33368890202,Non trouvé,,,,https://diplomeo.com/etablissement-mydigitalschool_nancy-12537
NEXA - Nantes,admission-nantes@doranco.fr,École de l'internet,Nantes,33234880351,https://www.nexa.fr/campus/nantes?utm_source=diplomeos,,,,https://diplomeo.com/etablissement-nexa_nantes-12885
IPSSI - Lyon,admissions@ecole-ipssi.com,École de l'internet,Lyon 3e,33155432665,https://ecole-ipssi.com/ecole-informatique-lyon//?utm_source=diplomeo&utm_medium=directory&utm_campaign=BRAND_pres_lyn?utm_source=diplomeos,,,,https://diplomeo.com/etablissement-ipssi_lyon-12935
IPSSI - Montpellier,admissions@ecole-ipssi.com,École de l'internet,Montpellier,33155432665,https://ecole-ipssi.com/ecole-informatique-montpellier/?utm_source=diplomeo&utm_medium=directory&utm_campaign=BRAND_pres_mtp?utm_source=diplomeos,,,,https://diplomeo.com/etablissement-ipssi_montpellier-12936
IPSSI - Nice,admissions@ecole-ipssi.com,École de l'internet,Nice,33155432665,https://ecole-ipssi.com/ecole-informatique-nice/?utm_source=diplomeo&utm_medium=directory&utm_campaign=BRAND_pres_nie?utm_source=diplomeos,,,,https://diplomeo.com/etablissement-ipssi_nice-12937
Digital College - Nantes,contact@digital-college.fr,École de l'internet,Nantes,33155230804,https://digital-college.fr?utm_source=diplomeos,,,,https://diplomeo.com/etablissement-digital_college_nantes-13028
EEMI - Ecole Européenne des Metiers de l'Internet - Lyon,admission@eemi.com,École de l'internet,Lyon 2e,33767547625,Non trouvé,,,,https://diplomeo.com/etablissement-eemi_ecole_europeenne_des_metiers_de_l_internet_lyon-13074
EEMI - Ecole Européenne des Metiers de l'Internet - Orléans,admission@eemi.com,École de l'internet,Orléans,33767547625,https://www.eemi.com/?utm_source=diplomeos,,,,https://diplomeo.com/etablissement-eemi_ecole_europeenne_des_metiers_de_l_internet_orleans-13075
"ECITV - Ecole du Web, du Digital et de l’Audiovisuel - Rennes",admissions@ecitv.fr,École de l'internet,Rennes,33144230045,Non trouvé,,,,https://diplomeo.com/etablissement-ecitv_ecole_du_web_du_digital_et_de_l_audiovisuel_rennes-22962
"ECITV - La Grande École du Digital, du Web et de l’Audiovisuel - Toulon",admissions.ecitv-toulon@eductive.fr,École de l'internet,Toulon,33320400012,Non trouvé,,,,https://diplomeo.com/etablissement-ecitv_la_grande_ecole_du_digital_du_web_et_de_l_audiovisuel_toulon-22965
Ecole IT - Campus d'Amiens,justine.lephay@ecole-it.com,École de l'internet,Amiens,33681020403,https://ecole-it.com?utm_source=diplomeos,,,,https://diplomeo.com/etablissement-ecole_it_campus_d_amiens-22998
