name,email,sector,city,phone,website,address,formations,description,url
ECS Paris - Ecole de communication,info@ecs-paris.com,École de communication,Paris,33146472990,Non trouvé,,,,https://diplomeo.com/etablissement-ecs_paris_ecole_de_communication-1557
ESUPCOM - ECOLE SUPERIEURE DE COMMUNICATION - LILLE,lille@esupcom.com,École de communication,Lille,33320400012,https://www.esupcom.com/nos-ecoles/lille/?utm_source=diplomeos,,,,https://diplomeo.com/etablissement-esupcom_ecole_superieure_de_communication_lille-1600
ESUPCOM - ECOLE SUPERIEURE DE COMMUNICATION - AIX-EN-PROVENCE,aix@esupcom.com,École de communication,Vitrolles,33442646200,https://www.esupcom.com/nos-ecoles/aix-en-provence/?utm_source=diplomeos,,,,https://diplomeo.com/etablissement-esupcom_ecole_superieure_de_communication_aix_en_provence-1601
ESP - Ecole supérieure de publicité - Paris,plandi@espub.org,École de communication,Paris,33764363995,https://espub.org?utm_source=diplomeos,,,,https://diplomeo.com/etablissement-esp_ecole_superieure_de_publicite_paris-1918
Narratiiv,admissions@narratiiv.schools,École de communication,Paris,33153825713,https://www.narratiiv.school/?utm_source=diplomeos,,,,https://diplomeo.com/etablissement-narratiiv-2810
ISCOM - Institut supérieur de communication et de publicité - Montpellier,montpellier@iscom.fr,École de communication,Montpellier,33467105774,Non trouvé,,,,https://diplomeo.com/etablissement-iscom_institut_superieur_de_communication_et_de_publicite_montpellier-4005
ISCOM - Institut supérieur de communication et de publicité - Lyon,jean.gouix@iscom.fr,École de communication,Lyon 7e,33472913604,Non trouvé,,,,https://diplomeo.com/etablissement-iscom_institut_superieur_de_communication_et_de_publicite_lyon-4320
ISCOM - Institut supérieur de communication et de publicité - Lille,oceane.gautier@iscom.fr,École de communication,Lille,33328361610,Non trouvé,,,,https://diplomeo.com/etablissement-iscom_institut_superieur_de_communication_et_de_publicite_lille-4321
ISCOM - Institut supérieur de communication et de publicité - Paris,infos@iscom.fr,École de communication,Paris,33155070777,Non trouvé,,,,https://diplomeo.com/etablissement-iscom_institut_superieur_de_communication_et_de_publicite_paris-4335
SUP'DE COM - Lyon,lyon@ecoles-supdecom.com,École de communication,Lyon,33786795077,https://www.ecoles-supdecom.com/?utm_source=diplomeos,,,,https://diplomeo.com/etablissement-sup_de_com_lyon-4591
Audencia SciencesCom - MediaCampus,sciencescom@audencia.com,École de communication,Nantes,33240449000,https://www.audencia.com/?utm_source=diplomeos,,,,https://diplomeo.com/etablissement-audencia_sciencescom_mediacampus-4890
Cesacom Paris,elhem.aissaoui@cesacom.fr,École de communication,Paris,33183647522,Non trouvé,,,,https://diplomeo.com/etablissement-cesacom_paris-7274
Cesacom Lille,infolille@cesacom.fr,École de communication,Lille,33320788118,Non trouvé,,,,https://diplomeo.com/etablissement-cesacom_lille-7593
SUP'DE COM - Bordeaux,bordeaux@ecoles-supdecom.com,École de communication,Bordeaux,33535542836,Non trouvé,,,,https://diplomeo.com/etablissement-sup_de_com_bordeaux-7800
SUP'DE COM - Grenoble,grenoble@ecoles-supdecom.com,École de communication,Saint-Martin-d'Hères,33458005441,Non trouvé,,,,https://diplomeo.com/etablissement-sup_de_com_grenoble-7801
ESUPCOM - ECOLE SUPERIEURE DE COMMUNICATION - PARIS,paris@esupcom.com,École de communication,Paris 14e,33141171212,https://www.esupcom.com/nos-ecoles/paris/?utm_source=diplomeos,,,,https://diplomeo.com/etablissement-esupcom_ecole_superieure_de_communication_paris-9875
ESUPCOM - ECOLE SUPERIEURE DE COMMUNICATION - REIMS,reims@esupcom.com,École de communication,Reims,33616136593,https://www.esupcom.com/nos-ecoles/reims/?utm_source=diplomeos,,,,https://diplomeo.com/etablissement-esupcom_ecole_superieure_de_communication_reims-9879
ISCOM - Institut supérieur de communication et de publicité - Bordeaux,bordeaux@iscom.fr,École de communication,Bordeaux,33607690447,Non trouvé,,,,https://diplomeo.com/etablissement-iscom_institut_superieur_de_communication_et_de_publicite_bordeaux-11651
ESUPCOM - ECOLE SUPERIEURE DE COMMUNICATION - LYON,lyon@esupcom.com,École de communication,Lyon,33426290101,https://www.esupcom.com/nos-ecoles/lyon/?utm_source=diplomeos,,,,https://diplomeo.com/etablissement-esupcom_ecole_superieure_de_communication_lyon-11730
ESP - Ecole supérieure de publicité - Lyon,dconrad@esp-esd.com,École de communication,Lyon,33755546993,https://espub.org/?utm_source=diplomeos,,,,https://diplomeo.com/etablissement-esp_ecole_superieure_de_publicite_lyon-11905
ESP - Ecole supérieure de publicité - Bordeaux,echervy@esp-esd.com,École de communication,Bordeaux,33755546992,https://espub.org/?utm_source=diplomeos,,,,https://diplomeo.com/etablissement-esp_ecole_superieure_de_publicite_bordeaux-11906
ESP - Ecole supérieure de publicité - Toulouse,rsese@esp-esd.com,École de communication,Toulouse,33532099977,https://espub.org/?utm_source=diplomeos,,,,https://diplomeo.com/etablissement-esp_ecole_superieure_de_publicite_toulouse-11907
IFIC,accueil@ific-formations.com,École de communication,Vichy,33473756914,https://ific-formations.com/?utm_source=diplomeos,,,,https://diplomeo.com/etablissement-ific-12637
Cesacom Nantes,nantes@cesacom.fr,École de communication,Nantes,33252569090,https://www.cesacom.fr/?utm_source=diplomeos,,,,https://diplomeo.com/etablissement-cesacom_nantes-12756
ISCOM - Institut Supérieur de Communication et Publicité - Nice,fanny.vaude@iscom.fr,École de communication,Nice,33423320415,https://www.iscom.fr/fr/iscom-nice?utm_source=diplomeos,,,,https://diplomeo.com/etablissement-iscom_institut_superieur_de_communication_et_publicite_nice-13077
EDTA SORNAS,contact@sornas.fr,École de communication,Paris,0183647158,https://edta-sornas.com/?utm_source=diplomeos,,,,https://diplomeo.com/etablissement-edta_sornas-16116
Cesacom Le Mans,lemans@cesacom.fr,École de communication,Le Mans,33252568864,https://www.cesacom.fr/?utm_source=diplomeos,,,,https://diplomeo.com/etablissement-cesacom_le_mans-22688
Cesacom Bordeaux,aurelie.delest@cesacom.fr,École de communication,Bordeaux,33757688125,https://www.cesacom.fr/?utm_source=diplomeos,,,,https://diplomeo.com/etablissement-cesacom_bordeaux-22689
ESP - Ecole supérieure de publicité - Nantes,echervy@esp-esd.com,École de communication,Nantes,33755547009,https://espub.org/?utm_source=diplomeos,,,,https://diplomeo.com/etablissement-esp_ecole_superieure_de_publicite_nantes-22835
ESP - Ecole supérieure de publicité - Lille,cvan-becelaere@esp-esd.com,École de communication,Lille,33756799808,https://espub.org/?utm_source=diplomeos,,,,https://diplomeo.com/etablissement-esp_ecole_superieure_de_publicite_lille-22836
PSTC - Paris School of Tourism & Communication,info@ecole-pstc.fr,École de communication,Paris 8e,0142615851,https://ecole-pstc.fr/?utm_source=diplomeos,,,,https://diplomeo.com/etablissement-pstc_paris_school_of_tourism_communication-22925
