name,email,sector,city,phone,website,address,formations,description,url
AFIP Formations,contact@afip-formations.com,École spécialisée,Villeurbanne,33478378181,Non trouvé,,,,https://diplomeo.com/etablissement-afip_formations-6774
ILERI - L’Institut Libre des Relations Internationales et des Sciences Politiques  - Lyon,admissions.lyon@ileri.fr,École spécialisée,Lyon,0472853831,https://www.ileri.fr/campus/lyon-leclair?utm_source=Diplomeo&utm_medium=ANNUAIRE&utm_campaign=Annuaire_2024_2025&utm_content=ANNUAIRE_Diplomeo?utm_source=diplomeos,,,,https://diplomeo.com/etablissement-ileri_l_institut_libre_des_relations_internationales_et_des_sciences_politiques_lyon-1092
IHEDREA - L'école de l'Agri et de l'Agro Management - Paris,contact@paris.ihedrea.orrgs,École spécialisée,Courbevoie,33141066222,https://www.ihedrea.org/?utm_source=diplomeo&utm_medium=annuaire&utm_campaign=IHEDREA_2022_2023&utm_content=ANNUAIRE_diplomeo?utm_source=diplomeos,,,,https://diplomeo.com/etablissement-ihedrea_l_ecole_de_l_agri_et_de_l_agro_management_paris-1181
ICAN - Institut de création et d'animation numériques - PARIS,admissions@ican-design.fr,École spécialisée,Paris,33186220869,https://www.ican-design.fr/?utm_source=diplomeos,,,,https://diplomeo.com/etablissement-ican_institut_de_creation_et_d_animation_numeriques_paris-2727
ISFJ - INSTITUT SUPERIEUR DE FORMATION AU JOURNALISME ET A LA COMMUNICATION DIGITALE - PARIS,contact@isfj-international.com,École spécialisée,Paris 15e,33178966832,https://www.isfj.fr/?utm_source=diplomeo&utm_medium=fiche-ecole&utm_campaign=campagne-2023-2024-campus-paris&utm_content=texte-home?utm_source=diplomeos,,,,https://diplomeo.com/etablissement-isfj_institut_superieur_de_formation_au_journalisme_et_a_la_communication_digitale_paris-4312
EIML - ECOLE INTERNATIONALE DE MARKETING DU LUXE - PARIS,admissions@eimlp.fr,École spécialisée,Paris 15e,33153952890,https://www.eiml-paris.fr/?utm_source=diplomeo&utm_medium=fiche-ecole&utm_campaign=campagne-2023-2024-campus-paris&utm_content=texte-home?utm_source=diplomeos,,,,https://diplomeo.com/etablissement-eiml_ecole_internationale_de_marketing_du_luxe_paris-7256
Sup de Luxe,admissions@supdeluxe.fr,École spécialisée,Paris,33764775051,Non trouvé,,,,https://diplomeo.com/etablissement-sup_de_luxe-7663
ISIFA Plus Values - Sud,parissud@isifaplusvalues.com,École spécialisée,Issy-les-Moulineaux,33140951300,Non trouvé,,,,https://diplomeo.com/etablissement-isifa_plus_values_sud-7700
ISIFA Plus Values - Ouest,parisouest@isifaplusvalues.com,École spécialisée,Paris,33179363509,https://www.isifaplusvalues.com/?utm_source=diplomeos,,,,https://diplomeo.com/etablissement-isifa_plus_values_ouest-7701
MAESTRIS BTS - AIX-EN-PROVENCE,aix-en-pce@maestris.com,École spécialisée,Vitrolles,0442646200,https://www.maestris-bts.com/campus/aix-en-provence/?utm_source=diplomeos,,,,https://diplomeo.com/etablissement-maestris_bts_aix_en_provence-11704
MAESTRIS BTS - TOULON,toulon@maestris.com,École spécialisée,Toulon,33494923284,https://toulon.eductive.fr/?utm_source=diplomeos,,,,https://diplomeo.com/etablissement-maestris_bts_toulon-11705
MAESTRIS BTS - LYON,lyon@maestris.com,École spécialisée,Lyon,0426290106,https://www.maestris-bts.com/campus/lyon/?utm_source=diplomeos,,,,https://diplomeo.com/etablissement-maestris_bts_lyon-11706
MAESTRIS BTS - LILLE,lille@maestris.com,École spécialisée,Lille,0320060289,https://www.maestris-bts.com/campus/lille/?utm_source=diplomeos,,,,https://diplomeo.com/etablissement-maestris_bts_lille-11747
MAESTRIS BTS - REIMS,reims@maestris.com,École spécialisée,Reims,0326866464,https://www.maestris-bts.com/campus/reims/?utm_source=diplomeos,,,,https://diplomeo.com/etablissement-maestris_bts_reims-11748
MAESTRIS BTS - GRENOBLE,grenoble@maestris.com,École spécialisée,Grenoble,0476469059,https://www.maestris-bts.com/campus/grenoble/?utm_source=diplomeos,,,,https://diplomeo.com/etablissement-maestris_bts_grenoble-11799
ILERI - L’Institut Libre des Relations Internationales et des Sciences Politiques  - Paris,admissions.paris@ileri.fr,École spécialisée,Paris,33140530044,https://www.ileri.fr/campus/paris-17eme?utm_source=Diplomeo&utm_medium=ANNUAIRE&utm_campaign=Annuaire_2024_2025&utm_content=ANNUAIRE_Diplomeo?utm_source=diplomeos,,,,https://diplomeo.com/etablissement-ileri_l_institut_libre_des_relations_internationales_et_des_sciences_politiques_paris-11809
EIML - ECOLE INTERNATIONALE DE MARKETING DU LUXE - LILLE,admissions.euralille@eductive.fr,École spécialisée,Lille,33320060289,https://www.eiml-paris.fr/?utm_source=diplomeos,,,,https://diplomeo.com/etablissement-eiml_ecole_internationale_de_marketing_du_luxe_lille-11942
EIML - ECOLE INTERNATIONALE DE MARKETING DU LUXE - AIX,admissions.eiml-aix@eductive.fr,École spécialisée,Aix-en-Provence,33442646200,https://www.eiml-paris.fr/?utm_source=diplomeos,,,,https://diplomeo.com/etablissement-eiml_ecole_internationale_de_marketing_du_luxe_aix-11943
IET - L’Institut des métiers de l’Environnement et de la Transition écologique - Lyon,contact.lyon@iet.fr,École spécialisée,Lyon,0472851825,https://www.iet.fr/?utm_source=diplomeo&utm_medium=annuaire&utm_campaign=iet_2022_2023&utm_content=ANNUAIRE_diplomeo?utm_source=diplomeos,,,,https://diplomeo.com/etablissement-iet_l_institut_des_metiers_de_l_environnement_et_de_la_transition_ecologique_lyon-11976
ICAN - Institut de création et d'animation numériques - LYON,admissions.ican-lyon@eductive.fr,École spécialisée,Lyon,33426290106,https://www.ican-design.fr/?utm_source=diplomeos,,,,https://diplomeo.com/etablissement-ican_institut_de_creation_et_d_animation_numeriques_lyon-12012
MAESTRIS BTS - PARIS,paris@maestris.com,École spécialisée,Paris,0141171212,https://www.maestris-bts.com/campus/paris/?utm_source=diplomeos,,,,https://diplomeo.com/etablissement-maestris_bts_paris-12013
IHEDREA - L'école de l'Agri et de l'Agro Management - Toulouse,contact@toulouse.ihedrea.org,École spécialisée,Balma,33616304263,https://www.ihedrea.org/?utm_source=diplomeo&utm_medium=annuaire&utm_campaign=IHEDREA_2022_2023&utm_content=ANNUAIRE_diplomeo?utm_source=diplomeos,,,,https://diplomeo.com/etablissement-ihedrea_l_ecole_de_l_agri_et_de_l_agro_management_toulouse-12108
MAESTRIS BTS - NANTES,toulon@maestris.com,École spécialisée,Nantes,33494923284,https://www.maestris-bts.com/campus/toulon/?utm_source=diplomeos,,,,https://diplomeo.com/etablissement-maestris_bts_nantes-12381
MAESTRIS BTS - TOULOUSE,aix-en-pce@maestris.com,École spécialisée,Toulouse,33532660036,https://www.maestris-bts.com/campus/aix-en-provence/?utm_source=diplomeos,,,,https://diplomeo.com/etablissement-maestris_bts_toulouse-12382
IHECF - Angers,angers@ihecf.fr,École spécialisée,Angers,0241732030,https://www.ihecf.fr/?utm_source=diplomeos,,,,https://diplomeo.com/etablissement-ihecf_angers-12633
IHECF - Paris,paris@ihecf.fr,École spécialisée,Versailles,0141081000,https://www.ihecf.fr/?utm_source=diplomeos,,,,https://diplomeo.com/etablissement-ihecf_paris-12634
School of Impact,admissions@school-of-impact.com,École spécialisée,Paris 12e,0176351259,https://school-of-impact.com/?utm_source=diplomeos,,,,https://diplomeo.com/etablissement-school_of_impact-12655
ILERI - L’Institut Libre des Relations Internationales et des Sciences Politiques  - Bordeaux,admissions.bordeaux@ileri.fr,École spécialisée,Bordeaux,05535544206,https://www.ileri.fr/campus/bordeaux?utm_source=Diplomeo&utm_medium=ANNUAIRE&utm_campaign=Annuaire_2024_2025&utm_content=ANNUAIRE_Diplomeo?utm_source=diplomeos,,,,https://diplomeo.com/etablissement-ileri_l_institut_libre_des_relations_internationales_et_des_sciences_politiques_bordeaux-12778
ILERI - L’Institut Libre des Relations Internationales et des Sciences Politiques  - Nice,dmissions.nice@ileri.fr,École spécialisée,Nice,33487870607,https://www.ileri.fr/campus/nice?utm_source=Diplomeo&utm_medium=annuaire&utm_campaign=ILERI-25-26&utm_content=Annuaire-Diplomeo?utm_source=diplomeos,,,,https://diplomeo.com/etablissement-ileri_l_institut_libre_des_relations_internationales_et_des_sciences_politiques_nice-12779
MAESTRIS BTS - RENNES,rennes@eductive.fr,École spécialisée,Rennes,33219139001,https://www.maestris-bts.com/?utm_source=diplomeos,,,,https://diplomeo.com/etablissement-maestris_bts_rennes-12908
ECOLE SUPERIEURE DE CONDUITE DE TRAVAUX (ESCT) - Strasbourg,communication@esct.fr,École spécialisée,Strasbourg,33367103298,https://esct.fr/?utm_source=diplomeos,,,,https://diplomeo.com/etablissement-ecole_superieure_de_conduite_de_travaux_esct_strasbourg-13106
IHECF Paris Sud,paris@ihecf.fr,École spécialisée,Boulogne-Billancourt,33141081000,https://www.ihecf.fr/ecole-comptabilite-paris?utm_source=diplomeos,,,,https://diplomeo.com/etablissement-ihecf_paris_sud-22617
