name,email,sector,city,phone,website,address,formations,description,url
DSTI School of Engineering - Paris,contact@dsti.institutes,École d'ingénierie informatique,Paris,33489412944,https://dsti.school?utm_source=diplomeos,,,,https://diplomeo.com/etablissement-dsti_school_of_engineering_paris-11920
DSTI School of Engineering - Nice - Sophia-Antipolis,contact@dsti.institutes,École d'ingénierie informatique,Nice,33489412944,https://dsti.school?utm_source=diplomeos,,,,https://diplomeo.com/etablissement-dsti_school_of_engineering_nice_sophia_antipolis-11922
European School of Cybersecurity,contact@esc-cybersecurity.com,École d'ingénierie informatique,Lyon,0469960065,https://www.esc-cybersecurity.com/?utm_source=diplomeos,,,,https://diplomeo.com/etablissement-european_school_of_cybersecurity-12253
SUP DE VINCI - Paris,contact@supdevinci.fr,École d'ingénierie informatique,Puteaux,33141167280,https://www.supdevinci.fr/?utm_source=diplomeos,,,,https://diplomeo.com/etablissement-sup_de_vinci_paris-546
EPSI Lyon,lyon@epsi.fr,École d'ingénierie informatique,Lyon,33472853850,Non trouvé,,,,https://diplomeo.com/etablissement-epsi_lyon-2037
EPSI Arras,arras@epsi.fr,École d'ingénierie informatique,Arras,33321713334,Non trouvé,,,,https://diplomeo.com/etablissement-epsi_arras-2041
H3 HITEMA,admission@h3hitema.fr,École d'ingénierie informatique,Paris 15e,33141330470,https://www.h3hitema.fr/?utm_source=diplomeos,,,,https://diplomeo.com/etablissement-h3_hitema-7609
EPSI Lille,celia.wauters@campus-cd.com,École d'ingénierie informatique,Lille,33320343536,https://www.epsi.fr/?utm_source=diplomeo&utm_medium=Annuaire&utm_campaign=diplomeo_2024&utm_content=ANNUAIRE_diplomeo?utm_source=diplomeos,,,,https://diplomeo.com/etablissement-epsi_lille-7784
EPSI Grenoble,info@grenoble.epsi.fr,École d'ingénierie informatique,Saint-Martin-d'Hères,33686833145,Non trouvé,,,,https://diplomeo.com/etablissement-epsi_grenoble-7785
3W Academy Paris,paris@3wacademy.fr,École d'ingénierie informatique,Paris 14e,0176401159,https://3wacademy.fr/?utm_source=diplomeos,,,,https://diplomeo.com/etablissement-3w_academy_paris-8083
IMIE - École de la Filière Numérique - Paris,contact@imie-paris.fr,École d'ingénierie informatique,Levallois-Perret,0184782217,https://www.imie-paris.fr?utm_source=diplomeos,,,,https://diplomeo.com/etablissement-imie_ecole_de_la_filiere_numerique_paris-9872
Éstiam - Lyon,lyon@estiam.com,École d'ingénierie informatique,Lyon 7e,33428292575,https://info.estiam-lyon.education/rentree-diplomeo-site/?utm_source=diplomeos,,,,https://diplomeo.com/etablissement-estiam_lyon-11447
ESGI - ECOLE SUPERIEURE DE GENIE INFORMATIQUE - AIX-EN-PROVENCE,admissions.esgi-aix@eductive.fr,École d'ingénierie informatique,Aix-en-Provence,33442951865,https://www.esgi.fr/campus-aix-en-provence.html?utm_source=diplomeos,,,,https://diplomeo.com/etablissement-esgi_ecole_superieure_de_genie_informatique_aix_en_provence-11686
ESGI - ECOLE SUPERIEURE DE GENIE INFORMATIQUE - GRENOBLE,admissions.esgi-grenoble@eductive.fr,École d'ingénierie informatique,Grenoble,33476469059,https://www.esgi.fr/campus-grenoble.html?utm_source=diplomeos,,,,https://diplomeo.com/etablissement-esgi_ecole_superieure_de_genie_informatique_grenoble-11687
ESGI - ECOLE SUPERIEURE DE GENIE INFORMATIQUE - REIMS,admissions.esgi-reims@eductive.fr,École d'ingénierie informatique,Reims,33351251070,https://www.esgi.fr/campus-reims.html?utm_source=diplomeos,,,,https://diplomeo.com/etablissement-esgi_ecole_superieure_de_genie_informatique_reims-11688
ESGI - ECOLE SUPERIEURE DE GENIE INFORMATIQUE - LILLE,admissions.esgi-euralille@eductive.fr,École d'ingénierie informatique,Lille,33320067453,https://www.esgi.fr/campus-lille.html?utm_source=diplomeos,,,,https://diplomeo.com/etablissement-esgi_ecole_superieure_de_genie_informatique_lille-11746
EPSI Toulouse,info@toulouse-epsi.fr,École d'ingénierie informatique,Balma,33320343536,https://www.epsi.fr/campus/campus-de-toulouse/?utm_source=diplomeos,,,,https://diplomeo.com/etablissement-epsi_toulouse-11783
EPSI Rennes,info@rennes-epsi.fr,École d'ingénierie informatique,Rennes,33285523310,https://www.epsi.fr/?utm_source=diplomeo&utm_medium=Annuaire&utm_campaign=diplomeo_2024&utm_content=ANNUAIRE_diplomeo?utm_source=diplomeos,,,,https://diplomeo.com/etablissement-epsi_rennes-11784
Webitech,info@webitechparis.com,École d'ingénierie informatique,Paris,0142037700,https://webitechparis.com/?utm_source=diplomeos,,,,https://diplomeo.com/etablissement-webitech-11797
ESGI - ECOLE SUPERIEURE DE GENIE INFORMATIQUE - NANTES,admissions.esgi-nantes@eductive.fr,École d'ingénierie informatique,Nantes,33613964995,https://www.esgi.fr/?utm_source=diplomeos,,,,https://diplomeo.com/etablissement-esgi_ecole_superieure_de_genie_informatique_nantes-11935
Ecole IT - Campus de Valenciennes,megane.pagniez@ecole-it.com,École d'ingénierie informatique,Valenciennes,33374014047,https://ecole-it.com/?utm_source=diplomeos,,,,https://diplomeo.com/etablissement-ecole_it_campus_de_valenciennes-12000
SUP DE VINCI - Rennes,lena.queguiner@supdevinci.fr,École d'ingénierie informatique,Rennes,33623996791,https://www.supdevinci.fr/?utm_source=diplomeos,,,,https://diplomeo.com/etablissement-sup_de_vinci_rennes-12006
EPSI Auxerre,recrutement.es@pole-formation.net,École d'ingénierie informatique,Auxerre,33650792430,https://www.epsi.fr/campus/campus-de-auxerre/?utm_source=diplomeos,,,,https://diplomeo.com/etablissement-epsi_auxerre-12091
ESGI - ECOLE SUPERIEURE DE GENIE INFORMATIQUE - Toulouse,admissions.esgi-toulouse@eductive.fr,École d'ingénierie informatique,Toulouse,0635155000,Non trouvé,,,,https://diplomeo.com/etablissement-esgi_ecole_superieure_de_genie_informatique_toulouse-12136
Holberton Lille,clementine@holbertonschool.com,École d'ingénierie informatique,Roubaix,33366884039,https://www.holbertonschool.fr/campus/lille?utm_source=DIPLOMEO&utm_medium=bannierecta&utm_campaign=2024?utm_source=diplomeos,,,,https://diplomeo.com/etablissement-holberton_lille-12369
Holberton Paris,idf-staff@holbertonschool.com,École d'ingénierie informatique,Paris,33176311213,https://www.holbertonschool.fr/campus/paris?utm_source=DIPLOMEO&utm_medium=bannierecta&utm_campaign=2024?utm_source=diplomeos,,,,https://diplomeo.com/etablissement-holberton_paris-12370
Holberton Laval,clementine@holbertonschool.com,École d'ingénierie informatique,Laval,33252860120,https://www.holbertonschool.fr/campus/laval?utm_source=DIPLOMEO&utm_medium=bannierecta&utm_campaign=2024?utm_source=diplomeos,,,,https://diplomeo.com/etablissement-holberton_laval-12371
SUP DE VINCI - Bordeaux,bordeaux@supdevinci.fr,École d'ingénierie informatique,Bordeaux,0535548764,https://www.supdevinci.fr/?utm_source=diplomeos,,,,https://diplomeo.com/etablissement-sup_de_vinci_bordeaux-12378
Holberton Toulouse,clementine@holbertonschool.com,École d'ingénierie informatique,Toulouse,33582880603,https://www.holbertonschool.fr/campus/toulouse?utm_source=DIPLOMEO&utm_medium=bannierecta&utm_campaign=2024?utm_source=diplomeos,,,,https://diplomeo.com/etablissement-holberton_toulouse-12393
SUP DE VINCI - Nantes,contact@supdevinci.fr,École d'ingénierie informatique,Nantes,33623996791,https://www.supdevinci.fr/?utm_source=diplomeos,,,,https://diplomeo.com/etablissement-sup_de_vinci_nantes-12755
ESGI - ECOLE SUPERIEURE DE GENIE INFORMATIQUE - RENNES,rennes@eductive.fr,École d'ingénierie informatique,Rennes,33219139001,https://www.esgi.fr/campus-rennes.html?utm_source=diplomeos,,,,https://diplomeo.com/etablissement-esgi_ecole_superieure_de_genie_informatique_rennes-12911
Holberton Thonon-les-Bains,clementine@holbertonschool.com,École d'ingénierie informatique,Thonon-les-Bains,0176311213,https://www.holbertonschool.fr/campus/thonon?utm_source=DIPLOMEO&utm_medium=bannierecta&utm_campaign=2024?utm_source=diplomeos,,,,https://diplomeo.com/etablissement-holberton_thonon_les_bains-13037
Holberton Bordeaux,clementine@holbertonschool.com,École d'ingénierie informatique,Bordeaux,33582880603,https://www.holbertonschool.fr/campus/bordeaux?utm_source=DIPLOMEO&utm_medium=bannierecta&utm_campaign=2024?utm_source=diplomeos,,,,https://diplomeo.com/etablissement-holberton_bordeaux-13081
Holberton Rennes,clementine@holbertonschool.com,École d'ingénierie informatique,Rennes,0176311213,https://www.holbertonschool.fr/?utm_source=diplomeos,,,,https://diplomeo.com/etablissement-holberton_rennes-22788
Holberton Dijon,clementine@holbertonschool.com,École d'ingénierie informatique,Dijon,33176311213,https://www.holbertonschool.fr/?utm_source=diplomeos,,,,https://diplomeo.com/etablissement-holberton_dijon-22793
Holberton Fréjus,clementine@holbertonschool.com,École d'ingénierie informatique,Fréjus,017311213,https://www.holbertonschool.fr/?utm_source=diplomeos,,,,https://diplomeo.com/etablissement-holberton_frejus-22794
