name,email,sector,city,phone,website,address,formations,description,url
IT-CNAM Paris,Non trouvé,Institut universitaire de technologie,Paris,Non trouvé,Non trouvé,,,,https://diplomeo.com/etablissement-it_cnam_paris-1112
"IUT site de Mont-Saint-Aignan, Université de Rouen",Non trouvé,Institut universitaire de technologie,Rouen,Non trouvé,Non trouvé,,,,https://diplomeo.com/etablissement-iut_site_de_mont_saint_aignan_universite_de_rouen-6536
"IUT site d'Elbeuf, Université de Rouen",Non trouvé,Institut universitaire de technologie,Rouen,Non trouvé,Non trouvé,,,,https://diplomeo.com/etablissement-iut_site_d_elbeuf_universite_de_rouen-6537
"IUT Robert Schuman, Université de Strasbourg",Non trouvé,Institut universitaire de technologie,Strasbourg,Non trouvé,Non trouvé,,,,https://diplomeo.com/etablissement-iut_robert_schuman_universite_de_strasbourg-6538
"IUT Paul Sabatier d'Auch, Université Toulouse III",Non trouvé,Institut universitaire de technologie,Auch,Non trouvé,Non trouvé,,,,https://diplomeo.com/etablissement-iut_paul_sabatier_d_auch_universite_toulouse_iii-6539
"IUT Paris Descartes, Université Paris Descartes",Non trouvé,Institut universitaire de technologie,Paris,Non trouvé,Non trouvé,,,,https://diplomeo.com/etablissement-iut_paris_descartes_universite_paris_descartes-6540
"IUT Périgueux Bordeaux IV, Université Bordeaux IV",Non trouvé,Institut universitaire de technologie,Périgueux,Non trouvé,Non trouvé,,,,https://diplomeo.com/etablissement-iut_perigueux_bordeaux_iv_universite_bordeaux_iv-6541
"IUT 2, Université Grenoble Alpes (COMUE)",Non trouvé,Institut universitaire de technologie,Grenoble,Non trouvé,Non trouvé,,,,https://diplomeo.com/etablissement-iut_2_universite_grenoble_alpes_comue-6543
"IUT site Pasteur, Université de Rouen",Non trouvé,Institut universitaire de technologie,Rouen,Non trouvé,Non trouvé,,,,https://diplomeo.com/etablissement-iut_site_pasteur_universite_de_rouen-6544
"IUT 1, Université Joseph Fourier - Grenoble 1",Non trouvé,Institut universitaire de technologie,Grenoble,Non trouvé,Non trouvé,,,,https://diplomeo.com/etablissement-iut_1_universite_joseph_fourier_grenoble_1-6545
"IUT Paul Sabatier de Castres, Université Toulouse III",Non trouvé,Institut universitaire de technologie,Albi,Non trouvé,Non trouvé,,,,https://diplomeo.com/etablissement-iut_paul_sabatier_de_castres_universite_toulouse_iii-6546
"IUT Nancy-Charlemagne, Nancy-Université - Nancy 2",Non trouvé,Institut universitaire de technologie,Nancy,Non trouvé,Non trouvé,,,,https://diplomeo.com/etablissement-iut_nancy_charlemagne_nancy_universite_nancy_2-6548
"IUT Nancy-Brabois site de Vandoeuvre, Nancy-Université - Université Henri Poincaré",Non trouvé,Institut universitaire de technologie,Nancy,Non trouvé,Non trouvé,,,,https://diplomeo.com/etablissement-iut_nancy_brabois_site_de_vandoeuvre_nancy_universite_universite_henri_poincare-6549
"IUT Lyon 1 (site La Doua), Université Claude Bernard - Lyon 1",Non trouvé,Institut universitaire de technologie,Villeurbanne,Non trouvé,Non trouvé,,,,https://diplomeo.com/etablissement-iut_lyon_1_site_la_doua_universite_claude_bernard_lyon_1-6551
"IUT Lyon 1 (site Gratte-ciel), Université Claude Bernard - Lyon 1",Non trouvé,Institut universitaire de technologie,Lyon,Non trouvé,Non trouvé,,,,https://diplomeo.com/etablissement-iut_lyon_1_site_gratte_ciel_universite_claude_bernard_lyon_1-6552
"IUT Nancy-Brabois site de Lunéville, Nancy-Université - Université Henri Poincaré",Non trouvé,Institut universitaire de technologie,Lunéville,Non trouvé,Non trouvé,,,,https://diplomeo.com/etablissement-iut_nancy_brabois_site_de_luneville_nancy_universite_universite_henri_poincare-6553
"IUT Nancy-Brabois - site de Villers, Nancy-Université - Université Henri Poincaré",Non trouvé,Institut universitaire de technologie,Villers,Non trouvé,Non trouvé,,,,https://diplomeo.com/etablissement-iut_nancy_brabois_site_de_villers_nancy_universite_universite_henri_poincare-6554
"IUT Michel de Montaigne Gradignan, Université Bordeaux III",Non trouvé,Institut universitaire de technologie,Bordeaux,Non trouvé,Non trouvé,,,,https://diplomeo.com/etablissement-iut_michel_de_montaigne_gradignan_universite_bordeaux_iii-6555
"infocom 1 et 2 - IUT Michel de Montaigne Bordeaux, Université Bordeaux III",Non trouvé,Institut universitaire de technologie,Bordeaux,Non trouvé,Non trouvé,,,,https://diplomeo.com/etablissement-infocom_1_et_2_iut_michel_de_montaigne_bordeaux_universite_bordeaux_iii-6556
"IUT Lyon 1 (antenne de Bourg) - Département génie thermique et énergie, Université Claude Bernard - Lyon 1",Non trouvé,Institut universitaire de technologie,Bourg-en-Bresse,Non trouvé,Non trouvé,,,,https://diplomeo.com/etablissement-iut_lyon_1_antenne_de_bourg_departement_genie_thermique_et_energie_universite_claude_bernard_lyon_1-6558
"IUT Louis Pasteur, Université de Strasbourg",Non trouvé,Institut universitaire de technologie,Strasbourg,Non trouvé,Non trouvé,,,,https://diplomeo.com/etablissement-iut_louis_pasteur_universite_de_strasbourg-6559
"IUT Jean Moulin, Université Jean Moulin - Lyon 3",Non trouvé,Institut universitaire de technologie,Lyon,Non trouvé,Non trouvé,,,,https://diplomeo.com/etablissement-iut_jean_moulin_universite_jean_moulin_lyon_3-6560
"IUT Luminy - antenne de l'IUT d'Aix-en-Provence, Université Aix-Marseille II",Non trouvé,Institut universitaire de technologie,Marseille,Non trouvé,Non trouvé,,,,https://diplomeo.com/etablissement-iut_luminy_antenne_de_l_iut_d_aix_en_provence_universite_aix_marseille_ii-6561
"IUT du Limousin, site de Tulle, Université de Limoges",Non trouvé,Institut universitaire de technologie,Tulle,Non trouvé,Non trouvé,,,,https://diplomeo.com/etablissement-iut_du_limousin_site_de_tulle_universite_de_limoges-6562
"IUT Lumière, Université Lumière - Lyon 2",Non trouvé,Institut universitaire de technologie,Lyon,Non trouvé,Non trouvé,,,,https://diplomeo.com/etablissement-iut_lumiere_universite_lumiere_lyon_2-6563
"IUT Lyon 1 (antenne de Bourg) - Département génie biologique, Université Claude Bernard - Lyon 1",Non trouvé,Institut universitaire de technologie,Bourg-en-Bresse,Non trouvé,Non trouvé,,,,https://diplomeo.com/etablissement-iut_lyon_1_antenne_de_bourg_departement_genie_biologique_universite_claude_bernard_lyon_1-6564
"IUT d'Évry (site Romero), Université d'Evry-Val-d'Essonne",Non trouvé,Institut universitaire de technologie,Évry,Non trouvé,Non trouvé,,,,https://diplomeo.com/etablissement-iut_d_evry_site_romero_universite_d_evry_val_d_essonne-6565
"IUT du Mans, Université du Mans",Non trouvé,Institut universitaire de technologie,Le Mans,Non trouvé,Non trouvé,,,,https://diplomeo.com/etablissement-iut_du_mans_universite_du_mans-6566
"IUT du Limousin, site de Limoges, Université de Limoges",Non trouvé,Institut universitaire de technologie,Limoges,Non trouvé,Non trouvé,,,,https://diplomeo.com/etablissement-iut_du_limousin_site_de_limoges_universite_de_limoges-6567
"IUT Lyon 1 (antenne de Bourg) - Département informatique et GEA, Université Claude Bernard - Lyon 1",Non trouvé,Institut universitaire de technologie,Bourg-en-Bresse,Non trouvé,Non trouvé,,,,https://diplomeo.com/etablissement-iut_lyon_1_antenne_de_bourg_departement_informatique_et_gea_universite_claude_bernard_lyon_1-6568
"IUT Henri Poincaré de Longwy, Nancy-Université - Université Henri Poincaré",Non trouvé,Institut universitaire de technologie,Cosnes-et-Romain,Non trouvé,Non trouvé,,,,https://diplomeo.com/etablissement-iut_henri_poincare_de_longwy_nancy_universite_universite_henri_poincare-6569
"IUT du Limousin, site de La Souterraine, Université de Limoges",Non trouvé,Institut universitaire de technologie,Guéret,Non trouvé,Non trouvé,,,,https://diplomeo.com/etablissement-iut_du_limousin_site_de_la_souterraine_universite_de_limoges-6570
"IUT du Limousin, site d'Egletons, Université de Limoges",Non trouvé,Institut universitaire de technologie,Tulle,Non trouvé,Non trouvé,,,,https://diplomeo.com/etablissement-iut_du_limousin_site_d_egletons_universite_de_limoges-6571
"IUT TC - IUT Département techniques de commercialisation (annexe de Poitiers), Université de Poitiers",Non trouvé,Institut universitaire de technologie,Poitiers,Non trouvé,Non trouvé,,,,https://diplomeo.com/etablissement-iut_tc_iut_departement_techniques_de_commercialisation_annexe_de_poitiers_universite_de_poitiers-6572
"IUT SRC - IUT Département services et réseaux de communication, Université de Poitiers",Non trouvé,Institut universitaire de technologie,Angoulême,Non trouvé,Non trouvé,,,,https://diplomeo.com/etablissement-iut_src_iut_departement_services_et_reseaux_de_communication_universite_de_poitiers-6573
"IUT STID - IUT Département STatistique et Informatique Décisionnelle (annexe de Poitiers), Université de Poitiers",Non trouvé,Institut universitaire de technologie,Niort,Non trouvé,Non trouvé,,,,https://diplomeo.com/etablissement-iut_stid_iut_departement_statistique_et_informatique_decisionnelle_annexe_de_poitiers_universite_de_poitiers-6574
"IUT du Limousin, site de Brive, Université de Limoges",Non trouvé,Institut universitaire de technologie,Tulle,Non trouvé,Non trouvé,,,,https://diplomeo.com/etablissement-iut_du_limousin_site_de_brive_universite_de_limoges-6575
"IUT RT - IUT Département réseaux et télécommunications (annexe de Poitiers), Université de Poitiers",Non trouvé,Institut universitaire de technologie,Poitiers,Non trouvé,Non trouvé,,,,https://diplomeo.com/etablissement-iut_rt_iut_departement_reseaux_et_telecommunications_annexe_de_poitiers_universite_de_poitiers-6576
"IUT HSE - IUT Département hygiène, sécurité, environnement (annexe de Poitiers), Université de Poitiers",Non trouvé,Institut universitaire de technologie,Niort,Non trouvé,Non trouvé,,,,https://diplomeo.com/etablissement-iut_hse_iut_departement_hygiene_securite_environnement_annexe_de_poitiers_universite_de_poitiers-6577
"IUT GTE - IUT Département génie thermique et énergie, Université de Poitiers",Non trouvé,Institut universitaire de technologie,Poitiers,Non trouvé,Non trouvé,,,,https://diplomeo.com/etablissement-iut_gte_iut_departement_genie_thermique_et_energie_universite_de_poitiers-6578
"IUT GMP - IUT Département génie mécanique et productique, Université de Poitiers",Non trouvé,Institut universitaire de technologie,Poitiers,Non trouvé,Non trouvé,,,,https://diplomeo.com/etablissement-iut_gmp_iut_departement_genie_mecanique_et_productique_universite_de_poitiers-6579
"IUT GMP - IUT Département génie mécanique et productique, Université de Poitiers",Non trouvé,Institut universitaire de technologie,Angoulême,Non trouvé,Non trouvé,,,,https://diplomeo.com/etablissement-iut_gmp_iut_departement_genie_mecanique_et_productique_universite_de_poitiers-6580
"IUT GEII - IUT Département génie électrique et informatique industrielle, Université de Poitiers",Non trouvé,Institut universitaire de technologie,Poitiers,Non trouvé,Non trouvé,,,,https://diplomeo.com/etablissement-iut_geii_iut_departement_genie_electrique_et_informatique_industrielle_universite_de_poitiers-6581
"IUT GEII - IUT Département génie électrique et informatique industrielle, Université de Poitiers",Non trouvé,Institut universitaire de technologie,Angoulême,Non trouvé,Non trouvé,,,,https://diplomeo.com/etablissement-iut_geii_iut_departement_genie_electrique_et_informatique_industrielle_universite_de_poitiers-6582
"IUT TC - IUT Département techniques de commercialisation, Université de Poitiers",Non trouvé,Institut universitaire de technologie,Angoulême,Non trouvé,Non trouvé,,,,https://diplomeo.com/etablissement-iut_tc_iut_departement_techniques_de_commercialisation_universite_de_poitiers-6583
"IUT GC - IUT Département génie civil, Université de La Rochelle",Non trouvé,Institut universitaire de technologie,La Rochelle,Non trouvé,Non trouvé,,,,https://diplomeo.com/etablissement-iut_gc_iut_departement_genie_civil_universite_de_la_rochelle-6584
"IUT GEA - IUT Département gestion des entreprises et des administrations, Université de Poitiers",Non trouvé,Institut universitaire de technologie,Poitiers,Non trouvé,Non trouvé,,,,https://diplomeo.com/etablissement-iut_gea_iut_departement_gestion_des_entreprises_et_des_administrations_universite_de_poitiers-6585
"IUT GEA - IUT Département gestion des entreprises et des administrations (annexe de Poitiers), Université de Poitiers",Non trouvé,Institut universitaire de technologie,Niort,Non trouvé,Non trouvé,,,,https://diplomeo.com/etablissement-iut_gea_iut_departement_gestion_des_entreprises_et_des_administrations_annexe_de_poitiers_universite_de_poitiers-6586
"IUT CHIMIE - IUT Département Chimie, Université de Poitiers",Non trouvé,Institut universitaire de technologie,Poitiers,Non trouvé,Non trouvé,,,,https://diplomeo.com/etablissement-iut_chimie_iut_departement_chimie_universite_de_poitiers-6587
"IUT d'Orsay, Université Paris-Sud 11",Non trouvé,Institut universitaire de technologie,Évry-Courcouronnes,Non trouvé,Non trouvé,,,,https://diplomeo.com/etablissement-iut_d_orsay_universite_paris_sud_11-6588
"IUT d'Orléans, Université d'Orléans",Non trouvé,Institut universitaire de technologie,Orléans,Non trouvé,Non trouvé,,,,https://diplomeo.com/etablissement-iut_d_orleans_universite_d_orleans-6589
"IUT GB - IUT Département génie biologique, Université de La Rochelle",Non trouvé,Institut universitaire de technologie,La Rochelle,Non trouvé,Non trouvé,,,,https://diplomeo.com/etablissement-iut_gb_iut_departement_genie_biologique_universite_de_la_rochelle-6590
"IUT RT - IUT Département réseaux et télécommunications, Université de La Rochelle",Non trouvé,Institut universitaire de technologie,La Rochelle,Non trouvé,Non trouvé,,,,https://diplomeo.com/etablissement-iut_rt_iut_departement_reseaux_et_telecommunications_universite_de_la_rochelle-6591
"IUT d' Issoudun, Université d'Orléans",Non trouvé,Institut universitaire de technologie,Issoudun,Non trouvé,Non trouvé,,,,https://diplomeo.com/etablissement-iut_d_issoudun_universite_d_orleans-6592
"IUT d'Evry (site Les passages), Université d'Evry-Val-d'Essonne",Non trouvé,Institut universitaire de technologie,Évry,Non trouvé,Non trouvé,,,,https://diplomeo.com/etablissement-iut_d_evry_site_les_passages_universite_d_evry_val_d_essonne-6593
"IUT MP - IUT Département mesures physiques (annexe de Poitiers), Université de Poitiers",Non trouvé,Institut universitaire de technologie,Poitiers,Non trouvé,Non trouvé,,,,https://diplomeo.com/etablissement-iut_mp_iut_departement_mesures_physiques_annexe_de_poitiers_universite_de_poitiers-6594
"IUT d'Evry (site Juvisy-sur-Orge), Université d'Evry-Val-d'Essonne",Non trouvé,Institut universitaire de technologie,Évry-Courcouronnes,Non trouvé,Non trouvé,,,,https://diplomeo.com/etablissement-iut_d_evry_site_juvisy_sur_orge_universite_d_evry_val_d_essonne-6596
"IUT du Havre, Université du Havre",Non trouvé,Institut universitaire de technologie,Rouen,Non trouvé,Non trouvé,,,,https://diplomeo.com/etablissement-iut_du_havre_universite_du_havre-6597
"IUT INFO - IUT Département informatique, Université de La Rochelle",Non trouvé,Institut universitaire de technologie,La Rochelle,Non trouvé,Non trouvé,,,,https://diplomeo.com/etablissement-iut_info_iut_departement_informatique_universite_de_la_rochelle-6598
"IUT d'Evry (site Brétigny), Université d'Evry-Val-d'Essonne",Non trouvé,Institut universitaire de technologie,Bretigny,Non trouvé,Non trouvé,,,,https://diplomeo.com/etablissement-iut_d_evry_site_bretigny_universite_d_evry_val_d_essonne-6599
"IUT Département qualité logistique industrielle et organisation, Université de Poitiers",Non trouvé,Institut universitaire de technologie,Angoulême,Non trouvé,Non trouvé,,,,https://diplomeo.com/etablissement-iut_departement_qualite_logistique_industrielle_et_organisation_universite_de_poitiers-6600
IUT de Vélizy (antenne de Rambouillet),Non trouvé,Institut universitaire de technologie,Versailles,Non trouvé,Non trouvé,,,,https://diplomeo.com/etablissement-iut_de_velizy_antenne_de_rambouillet-6601
"IUT d'Evreux, Université de Rouen",Non trouvé,Institut universitaire de technologie,Évreux,Non trouvé,Non trouvé,,,,https://diplomeo.com/etablissement-iut_d_evreux_universite_de_rouen-6602
"IUT d'Evry (département science et génie des matériaux Bâtiment Maupertuis), Université d'Evry-Val-d'Essonne",Non trouvé,Institut universitaire de technologie,Évry,Non trouvé,Non trouvé,,,,https://diplomeo.com/etablissement-iut_d_evry_departement_science_et_genie_des_materiaux_batiment_maupertuis_universite_d_evry_val_d_essonne-6603
"IUT 2 - IUT 2 de Vienne, Université Grenoble Alpes (COMUE)",Non trouvé,Institut universitaire de technologie,Vienne,Non trouvé,Non trouvé,,,,https://diplomeo.com/etablissement-iut_2_iut_2_de_vienne_universite_grenoble_alpes_comue-6604
"IUT de Vannes, Université Bretagne Sud",Non trouvé,Institut universitaire de technologie,Vannes,Non trouvé,Non trouvé,,,,https://diplomeo.com/etablissement-iut_de_vannes_universite_bretagne_sud-6605
"IUT de Valence, Université Pierre Mendès France - Grenoble 2",Non trouvé,Institut universitaire de technologie,Valence,Non trouvé,Non trouvé,,,,https://diplomeo.com/etablissement-iut_de_valence_universite_pierre_mendes_france_grenoble_2-6606
"IUT de Troyes, Université de Reims Champagne-Ardenne",Non trouvé,Institut universitaire de technologie,Troyes,Non trouvé,Non trouvé,,,,https://diplomeo.com/etablissement-iut_de_troyes_universite_de_reims_champagne_ardenne-6607
IUT de Ville d'Avray (Nanterre),Non trouvé,Institut universitaire de technologie,Nanterre,Non trouvé,Non trouvé,,,,https://diplomeo.com/etablissement-iut_de_ville_d_avray_nanterre-6608
IUT de Ville d’Avray (Ville d'Avray),Non trouvé,Institut universitaire de technologie,Nanterre,Non trouvé,Non trouvé,,,,https://diplomeo.com/etablissement-iut_de_ville_d_avray_ville_d_avray-6609
IUT de Ville d’Avray (St Cloud),Non trouvé,Institut universitaire de technologie,Nanterre,Non trouvé,Non trouvé,,,,https://diplomeo.com/etablissement-iut_de_ville_d_avray_st_cloud-6610
IUT de Vélizy,Non trouvé,Institut universitaire de technologie,Versailles,Non trouvé,Non trouvé,,,,https://diplomeo.com/etablissement-iut_de_velizy-6611
"IUT de Villetaneuse, Université Paris 13",Non trouvé,Institut universitaire de technologie,Bobigny,Non trouvé,Non trouvé,,,,https://diplomeo.com/etablissement-iut_de_villetaneuse_universite_paris_13-6612
"IUT de Tours, Université de Tours",Non trouvé,Institut universitaire de technologie,Tours,Non trouvé,Non trouvé,,,,https://diplomeo.com/etablissement-iut_de_tours_universite_de_tours-6613
"IUT de Tarbes, Université Toulouse III",Non trouvé,Institut universitaire de technologie,Tarbes,Non trouvé,Non trouvé,,,,https://diplomeo.com/etablissement-iut_de_tarbes_universite_toulouse_iii-6614
"IUT de Toulon site de Draguignan, Université du Sud Toulon - Var",Non trouvé,Institut universitaire de technologie,Toulon,Non trouvé,Non trouvé,,,,https://diplomeo.com/etablissement-iut_de_toulon_site_de_draguignan_universite_du_sud_toulon_var-6615
"IUT de Thionville-Yutz, Université Paul Verlaine de Metz",Non trouvé,Institut universitaire de technologie,Metz,Non trouvé,Non trouvé,,,,https://diplomeo.com/etablissement-iut_de_thionville_yutz_universite_paul_verlaine_de_metz-6616
"IUT de Toulon et du Var, Université du Sud Toulon - Var",Non trouvé,Institut universitaire de technologie,Toulon,Non trouvé,Non trouvé,,,,https://diplomeo.com/etablissement-iut_de_toulon_et_du_var_universite_du_sud_toulon_var-6617
"IUT de Toulon site de Saint-Raphael, Université du Sud Toulon - Var",Non trouvé,Institut universitaire de technologie,Toulon,Non trouvé,Non trouvé,,,,https://diplomeo.com/etablissement-iut_de_toulon_site_de_saint_raphael_universite_du_sud_toulon_var-6618
"IUT - ULCO - IUT de St Omer, Université du Littoral - Côte d'Opale",Non trouvé,Institut universitaire de technologie,Arras,Non trouvé,Non trouvé,,,,https://diplomeo.com/etablissement-iut_ulco_iut_de_st_omer_universite_du_littoral_cote_d_opale-6619
"IUT des Pays de l'Adour - Pau, Université Pau et Pays de l'Adour",Non trouvé,Institut universitaire de technologie,Pau,Non trouvé,Non trouvé,,,,https://diplomeo.com/etablissement-iut_des_pays_de_l_adour_pau_universite_pau_et_pays_de_l_adour-6620
"IUT de Sceaux, Université Paris-Sud 11",Non trouvé,Institut universitaire de technologie,Sceaux,Non trouvé,Non trouvé,,,,https://diplomeo.com/etablissement-iut_de_sceaux_universite_paris_sud_11-6621
"IUT de Salon-de-Provence-antenne IUT Marseille, Université Paul Cézanne - Aix-Marseille III",Non trouvé,Institut universitaire de technologie,Aix-en-Provence,Non trouvé,Non trouvé,,,,https://diplomeo.com/etablissement-iut_de_salon_de_provence_antenne_iut_marseille_universite_paul_cezanne_aix_marseille_iii-6622
"IUT de Tremblay, Université Vincennes-Saint-Denis",Non trouvé,Institut universitaire de technologie,Bobigny,Non trouvé,Non trouvé,,,,https://diplomeo.com/etablissement-iut_de_tremblay_universite_vincennes_saint_denis-6624
"IUT Cambrai UVH - IUT de Valenciennes, antenne de Cambrai UVHC, Université de Valenciennes",Non trouvé,Institut universitaire de technologie,Lille,Non trouvé,Non trouvé,,,,https://diplomeo.com/etablissement-iut_cambrai_uvh_iut_de_valenciennes_antenne_de_cambrai_uvhc_universite_de_valenciennes-6625
"IUT de Seine et Marne Sud (site Fontainebleau), Université Paris-Est Créteil Val-de-Marne",Non trouvé,Institut universitaire de technologie,Melun,Non trouvé,Non trouvé,,,,https://diplomeo.com/etablissement-iut_de_seine_et_marne_sud_site_fontainebleau_universite_paris_est_creteil_val_de_marne-6626
"IUT de Seine et Marne Sud (site Sénart), Université Paris-Est Créteil Val-de-Marne",Non trouvé,Institut universitaire de technologie,Melun,Non trouvé,Non trouvé,,,,https://diplomeo.com/etablissement-iut_de_seine_et_marne_sud_site_senart_universite_paris_est_creteil_val_de_marne-6627
"IUT Val. UVHC - IUT de Valenciennes UVHC, Université de Valenciennes",Non trouvé,Institut universitaire de technologie,Lille,Non trouvé,Non trouvé,,,,https://diplomeo.com/etablissement-iut_val_uvhc_iut_de_valenciennes_uvhc_universite_de_valenciennes-6628
"IUT de Saint-Nazaire, Université de Nantes",Non trouvé,Institut universitaire de technologie,Nantes,Non trouvé,Non trouvé,,,,https://diplomeo.com/etablissement-iut_de_saint_nazaire_universite_de_nantes-6629
"IUT des Pays de l'Adour - Mont de Marsan, Université Pau et Pays de l'Adour",Non trouvé,Institut universitaire de technologie,Mont-de-Marsan,Non trouvé,Non trouvé,,,,https://diplomeo.com/etablissement-iut_des_pays_de_l_adour_mont_de_marsan_universite_pau_et_pays_de_l_adour-6630
"IUT de Saint-Malo, Université Rennes 1",Non trouvé,Institut universitaire de technologie,Rennes,Non trouvé,Non trouvé,,,,https://diplomeo.com/etablissement-iut_de_saint_malo_universite_rennes_1-6631
"IUT de Saint-Etienne, Université Jean Monnet de Saint-Etienne",Non trouvé,Institut universitaire de technologie,Saint-Étienne,Non trouvé,Non trouvé,,,,https://diplomeo.com/etablissement-iut_de_saint_etienne_universite_jean_monnet_de_saint_etienne-6632
"IUT de Saint-Denis (site La Plaine St-Denis), Université Paris 13",Non trouvé,Institut universitaire de technologie,Bobigny,Non trouvé,Non trouvé,,,,https://diplomeo.com/etablissement-iut_de_saint_denis_site_la_plaine_st_denis_universite_paris_13-6633
"IUT de Rodez, Université Toulouse I Capitole",Non trouvé,Institut universitaire de technologie,Rodez,Non trouvé,Non trouvé,,,,https://diplomeo.com/etablissement-iut_de_rodez_universite_toulouse_i_capitole-6634
"IUT de Roanne, Université Jean Monnet de Saint-Etienne",Non trouvé,Institut universitaire de technologie,Saint-Étienne,Non trouvé,Non trouvé,,,,https://diplomeo.com/etablissement-iut_de_roanne_universite_jean_monnet_de_saint_etienne-6635
"IUT de Rennes, Université Rennes 1",Non trouvé,Institut universitaire de technologie,Rennes,Non trouvé,Non trouvé,,,,https://diplomeo.com/etablissement-iut_de_rennes_universite_rennes_1-6636
"IUT de Reims Châlons Charleville, Université de Reims Champagne-Ardenne",Non trouvé,Institut universitaire de technologie,Reims,Non trouvé,Non trouvé,,,,https://diplomeo.com/etablissement-iut_de_reims_chalons_charleville_universite_de_reims_champagne_ardenne-6637
IUT de Saint-Dié - Université de Lorraine,Non trouvé,Institut universitaire de technologie,Saint-Dié-des-Vosges,Non trouvé,Non trouvé,,,,https://diplomeo.com/etablissement-iut_de_saint_die_universite_de_lorraine-6638
"IUT de Reims, Châlons, Charleville, Université de Reims Champagne-Ardenne",Non trouvé,Institut universitaire de technologie,Reims,Non trouvé,Non trouvé,,,,https://diplomeo.com/etablissement-iut_de_reims_chalons_charleville_universite_de_reims_champagne_ardenne-6639
"IUT de Reims, Châlons, Charleville, Université de Reims Champagne-Ardenne",Non trouvé,Institut universitaire de technologie,Charleville-Mézières,Non trouvé,Non trouvé,,,,https://diplomeo.com/etablissement-iut_de_reims_chalons_charleville_universite_de_reims_champagne_ardenne-6640
"IUT de Provence - site d'Arles, Université Aix-Marseille I",Non trouvé,Institut universitaire de technologie,Aix-en-Provence,Non trouvé,Non trouvé,,,,https://diplomeo.com/etablissement-iut_de_provence_site_d_arles_universite_aix_marseille_i-6641
"IUT de Perpignan université de Perpignan, Université de Perpignan Via Domitia",Non trouvé,Institut universitaire de technologie,Perpignan,Non trouvé,Non trouvé,,,,https://diplomeo.com/etablissement-iut_de_perpignan_universite_de_perpignan_universite_de_perpignan_via_domitia-6642
"IUT d'Epinal - Hubert Curien, Nancy-Université - Nancy 2",Non trouvé,Institut universitaire de technologie,Nancy,Non trouvé,Non trouvé,,,,https://diplomeo.com/etablissement-iut_d_epinal_hubert_curien_nancy_universite_nancy_2-6643
"IUT de Provence - site de Digne-les-Bains, Université Aix-Marseille I",Non trouvé,Institut universitaire de technologie,Digne-les-Bains,Non trouvé,Non trouvé,,,,https://diplomeo.com/etablissement-iut_de_provence_site_de_digne_les_bains_universite_aix_marseille_i-6644
"IUT de Saint-Brieuc, Université Rennes 1",Non trouvé,Institut universitaire de technologie,Saint-Brieuc,Non trouvé,Non trouvé,,,,https://diplomeo.com/etablissement-iut_de_saint_brieuc_universite_rennes_1-6645
"IUT de Saint-Denis, Université Paris 13",Non trouvé,Institut universitaire de technologie,Bobigny,Non trouvé,Non trouvé,,,,https://diplomeo.com/etablissement-iut_de_saint_denis_universite_paris_13-6646
"IUT de Quimper, Université de Bretagne Occidentale",Non trouvé,Institut universitaire de technologie,Quimper,Non trouvé,Non trouvé,,,,https://diplomeo.com/etablissement-iut_de_quimper_universite_de_bretagne_occidentale-6647
"IUT de Perpignan antenne de Narbonne, Université de Perpignan Via Domitia",Non trouvé,Institut universitaire de technologie,Carcassonne,Non trouvé,Non trouvé,,,,https://diplomeo.com/etablissement-iut_de_perpignan_antenne_de_narbonne_universite_de_perpignan_via_domitia-6648
"IUT de Perpignan antenne de Carcassonne, Université de Perpignan Via Domitia",Non trouvé,Institut universitaire de technologie,Carcassonne,Non trouvé,Non trouvé,,,,https://diplomeo.com/etablissement-iut_de_perpignan_antenne_de_carcassonne_universite_de_perpignan_via_domitia-6649
"IUT de Nîmes, Université Montpellier II",Non trouvé,Institut universitaire de technologie,Nîmes,Non trouvé,Non trouvé,,,,https://diplomeo.com/etablissement-iut_de_nimes_universite_montpellier_ii-6650
"IUT de Nice Côte d'Azur - Site de Cannes - Département Tech de commercialisation, Université de Nice - Sophia Antipolis",Non trouvé,Institut universitaire de technologie,Nice,Non trouvé,Non trouvé,,,,https://diplomeo.com/etablissement-iut_de_nice_cote_d_azur_site_de_cannes_departement_tech_de_commercialisation_universite_de_nice_sophia_antipolis-6651
"IUT de Nice Côte d'Azur - Site de Menton, Université de Nice - Sophia Antipolis",Non trouvé,Institut universitaire de technologie,Nice,Non trouvé,Non trouvé,,,,https://diplomeo.com/etablissement-iut_de_nice_cote_d_azur_site_de_menton_universite_de_nice_sophia_antipolis-6652
"IUT de Nice Côte d'Azur Antenne de Sophia-Antipolis, Université de Nice - Sophia Antipolis",Non trouvé,Institut universitaire de technologie,Nice,Non trouvé,Non trouvé,,,,https://diplomeo.com/etablissement-iut_de_nice_cote_d_azur_antenne_de_sophia_antipolis_universite_de_nice_sophia_antipolis-6653
"IUT de Nantes, Université de Nantes",Non trouvé,Institut universitaire de technologie,Nantes,Non trouvé,Non trouvé,,,,https://diplomeo.com/etablissement-iut_de_nantes_universite_de_nantes-6654
"IUT de Mulhouse, Université de Haute Alsace Mulhouse",Non trouvé,Institut universitaire de technologie,Colmar,Non trouvé,Non trouvé,,,,https://diplomeo.com/etablissement-iut_de_mulhouse_universite_de_haute_alsace_mulhouse-6655
"IUT de Moselle-Est, site de Saint -Avold, Université Paul Verlaine de Metz",Non trouvé,Institut universitaire de technologie,Metz,Non trouvé,Non trouvé,,,,https://diplomeo.com/etablissement-iut_de_moselle_est_site_de_saint_avold_universite_paul_verlaine_de_metz-6656
"IUT de Moselle-Est, site de Forbach, Université Paul Verlaine de Metz",Non trouvé,Institut universitaire de technologie,Metz,Non trouvé,Non trouvé,,,,https://diplomeo.com/etablissement-iut_de_moselle_est_site_de_forbach_universite_paul_verlaine_de_metz-6657
"IUT de Montpellier, Université Montpellier II",Non trouvé,Institut universitaire de technologie,Montpellier,Non trouvé,Non trouvé,,,,https://diplomeo.com/etablissement-iut_de_montpellier_universite_montpellier_ii-6658
"IUT de Montreuil, Université Vincennes-Saint-Denis",Non trouvé,Institut universitaire de technologie,Bobigny,Non trouvé,Non trouvé,,,,https://diplomeo.com/etablissement-iut_de_montreuil_universite_vincennes_saint_denis-6659
"IUT de Montluçon - Moulins, Université Blaise Pascal, Université Clermont-Ferrand II",Non trouvé,Institut universitaire de technologie,Moulins,Non trouvé,Non trouvé,,,,https://diplomeo.com/etablissement-iut_de_montlucon_moulins_universite_blaise_pascal_universite_clermont_ferrand_ii-6660
"IUT de Marseille, Université Paul Cézanne - Aix-Marseille III",Non trouvé,Institut universitaire de technologie,Marseille,Non trouvé,Non trouvé,,,,https://diplomeo.com/etablissement-iut_de_marseille_universite_paul_cezanne_aix_marseille_iii-6661
"IUT de Marne-la-Vallée (site Meaux), Université Paris-Est Marne-La-Vallée",Non trouvé,Institut universitaire de technologie,Melun,Non trouvé,Non trouvé,,,,https://diplomeo.com/etablissement-iut_de_marne_la_vallee_site_meaux_universite_paris_est_marne_la_vallee-6662
"IUT de Paris Diderot, Université Paris Diderot",Non trouvé,Institut universitaire de technologie,Paris,Non trouvé,Non trouvé,,,,https://diplomeo.com/etablissement-iut_de_paris_diderot_universite_paris_diderot-6663
IUT - IUT de Nice côte d'Azur - Site de Cannes - Département Information- Communication,Non trouvé,Institut universitaire de technologie,Nice,Non trouvé,Non trouvé,,,,https://diplomeo.com/etablissement-iut_iut_de_nice_cote_d_azur_site_de_cannes_departement_information_communication-6664
"IUT de Moselle-Est, site de Sarreguemines, Université Paul Verlaine de Metz",Non trouvé,Institut universitaire de technologie,Sarreguemines,Non trouvé,Non trouvé,,,,https://diplomeo.com/etablissement-iut_de_moselle_est_site_de_sarreguemines_universite_paul_verlaine_de_metz-6665
"IUT de Nice Côte d'Azur, Université de Nice - Sophia Antipolis",Non trouvé,Institut universitaire de technologie,Nice,Non trouvé,Non trouvé,,,,https://diplomeo.com/etablissement-iut_de_nice_cote_d_azur_universite_de_nice_sophia_antipolis-6666
"IUT de Marne-La-Vallée (site Champs-sur-Marne), Université Paris-Est Marne-La-Vallée",Non trouvé,Institut universitaire de technologie,Melun,Non trouvé,Non trouvé,,,,https://diplomeo.com/etablissement-iut_de_marne_la_vallee_site_champs_sur_marne_universite_paris_est_marne_la_vallee-6667
"IUT de Lorient, Université Bretagne Sud",Non trouvé,Institut universitaire de technologie,Vannes,Non trouvé,Non trouvé,,,,https://diplomeo.com/etablissement-iut_de_lorient_universite_bretagne_sud-6668
"IUT de Montpellier - antenne de Sète, Université Montpellier II",Non trouvé,Institut universitaire de technologie,Montpellier,Non trouvé,Non trouvé,,,,https://diplomeo.com/etablissement-iut_de_montpellier_antenne_de_sete_universite_montpellier_ii-6669
"IUT de Metz, Université Paul Verlaine de Metz",Non trouvé,Institut universitaire de technologie,Metz,Non trouvé,Non trouvé,,,,https://diplomeo.com/etablissement-iut_de_metz_universite_paul_verlaine_de_metz-6670
"IUT de Montluçon - Université Blaise Pascal, Université Clermont-Ferrand II",Non trouvé,Institut universitaire de technologie,Moulins,Non trouvé,Non trouvé,,,,https://diplomeo.com/etablissement-iut_de_montlucon_universite_blaise_pascal_universite_clermont_ferrand_ii-6671
"IUT de l'Oise site de Creil, Université Picardie Jules Verne Amiens",Non trouvé,Institut universitaire de technologie,Compiègne,Non trouvé,Non trouvé,,,,https://diplomeo.com/etablissement-iut_de_l_oise_site_de_creil_universite_picardie_jules_verne_amiens-6672
"IUT Lens Artois - IUT de Lens Université d'Artois, Université d'Artois",Non trouvé,Institut universitaire de technologie,Arras,Non trouvé,Non trouvé,,,,https://diplomeo.com/etablissement-iut_lens_artois_iut_de_lens_universite_d_artois_universite_d_artois-6673
"IUT de l'Oise site de Beauvais, Université Picardie Jules Verne Amiens",Non trouvé,Institut universitaire de technologie,Compiègne,Non trouvé,Non trouvé,,,,https://diplomeo.com/etablissement-iut_de_l_oise_site_de_beauvais_universite_picardie_jules_verne_amiens-6674
"IUT de Lorient (site de Pontivy), Université Bretagne Sud",Non trouvé,Institut universitaire de technologie,Vannes,Non trouvé,Non trouvé,,,,https://diplomeo.com/etablissement-iut_de_lorient_site_de_pontivy_universite_bretagne_sud-6675
"IUT de Laval, Université du Mans",Non trouvé,Institut universitaire de technologie,Laval,Non trouvé,Non trouvé,,,,https://diplomeo.com/etablissement-iut_de_laval_universite_du_mans-6676
"IUT de l'Indre, Université d'Orléans",Non trouvé,Institut universitaire de technologie,Châteauroux,Non trouvé,Non trouvé,,,,https://diplomeo.com/etablissement-iut_de_l_indre_universite_d_orleans-6677
IUT de Mantes en Yvelines,Non trouvé,Institut universitaire de technologie,Versailles,Non trouvé,Non trouvé,,,,https://diplomeo.com/etablissement-iut_de_mantes_en_yvelines-6678
"IUT de La Roche sur Yon, Université de Nantes",Non trouvé,Institut universitaire de technologie,La Roche-sur-Yon,Non trouvé,Non trouvé,,,,https://diplomeo.com/etablissement-iut_de_la_roche_sur_yon_universite_de_nantes-6679
"IUT de Lannion, Université Rennes 1",Non trouvé,Institut universitaire de technologie,Saint-Brieuc,Non trouvé,Non trouvé,,,,https://diplomeo.com/etablissement-iut_de_lannion_universite_rennes_1-6680
"IUT de l'Aisne site de Saint-Quentin, Université Picardie Jules Verne Amiens",Non trouvé,Institut universitaire de technologie,Laon,Non trouvé,Non trouvé,,,,https://diplomeo.com/etablissement-iut_de_l_aisne_site_de_saint_quentin_universite_picardie_jules_verne_amiens-6681
"IUT de l'Aisne site de Laon, Université Picardie Jules Verne Amiens",Non trouvé,Institut universitaire de technologie,Laon,Non trouvé,Non trouvé,,,,https://diplomeo.com/etablissement-iut_de_l_aisne_site_de_laon_universite_picardie_jules_verne_amiens-6682
"IUT de Gap - antenne IUT Aix-en-Provence, Université Aix-Marseille II",Non trouvé,Institut universitaire de technologie,Gap,Non trouvé,Non trouvé,,,,https://diplomeo.com/etablissement-iut_de_gap_antenne_iut_aix_en_provence_universite_aix_marseille_ii-6683
"IUT de Figeac, Université Toulouse II",Non trouvé,Institut universitaire de technologie,Cahors,Non trouvé,Non trouvé,,,,https://diplomeo.com/etablissement-iut_de_figeac_universite_toulouse_ii-6684
"IUT - ULCO - IUT de Dunkerque, Université du Littoral - Côte d'Opale",Non trouvé,Institut universitaire de technologie,Lille,Non trouvé,Non trouvé,,,,https://diplomeo.com/etablissement-iut_ulco_iut_de_dunkerque_universite_du_littoral_cote_d_opale-6685
"IUT de Créteil-Vitry (site Vitry), Université Paris-Est Créteil Val-de-Marne",Non trouvé,Institut universitaire de technologie,Créteil,Non trouvé,Non trouvé,,,,https://diplomeo.com/etablissement-iut_de_creteil_vitry_site_vitry_universite_paris_est_creteil_val_de_marne-6686
"IUT de Corse, Université de Corse",Non trouvé,Institut universitaire de technologie,Corte,Non trouvé,Non trouvé,,,,https://diplomeo.com/etablissement-iut_de_corse_universite_de_corse-6687
"IUT de Clermont-Ferrand - Aurillac, Université d'Auvergne, Université Clermont-Ferrand I",Non trouvé,Institut universitaire de technologie,Aurillac,Non trouvé,Non trouvé,,,,https://diplomeo.com/etablissement-iut_de_clermont_ferrand_aurillac_universite_d_auvergne_universite_clermont_ferrand_i-6688
"IUT de l'Aisne site de Soissons, Université Picardie Jules Verne Amiens",Non trouvé,Institut universitaire de technologie,Laon,Non trouvé,Non trouvé,,,,https://diplomeo.com/etablissement-iut_de_l_aisne_site_de_soissons_universite_picardie_jules_verne_amiens-6689
"IUT de Clermont-Ferrand - Aubière, Université d'Auvergne, Université Clermont-Ferrand I",Non trouvé,Institut universitaire de technologie,Clermont-Ferrand,Non trouvé,Non trouvé,,,,https://diplomeo.com/etablissement-iut_de_clermont_ferrand_aubiere_universite_d_auvergne_universite_clermont_ferrand_i-6690
"IUT de Créteil-Vitry (site Créteil), Université Paris-Est Créteil Val-de-Marne",Non trouvé,Institut universitaire de technologie,Créteil,Non trouvé,Non trouvé,,,,https://diplomeo.com/etablissement-iut_de_creteil_vitry_site_creteil_universite_paris_est_creteil_val_de_marne-6691
"IUT de Haguenau, Université de Strasbourg",Non trouvé,Institut universitaire de technologie,Strasbourg,Non trouvé,Non trouvé,,,,https://diplomeo.com/etablissement-iut_de_haguenau_universite_de_strasbourg-6692
"IUT de Clermont-Ferrand - Le Puy-en-Velay, Université d'Auvergne, Université Clermont-Ferrand I",Non trouvé,Institut universitaire de technologie,Le Puy-en-Velay,Non trouvé,Non trouvé,,,,https://diplomeo.com/etablissement-iut_de_clermont_ferrand_le_puy_en_velay_universite_d_auvergne_universite_clermont_ferrand_i-6694
"IUT de La Ciotat - Antenne de l'IUT d'Aix-en-Provence, Université Aix-Marseille II",Non trouvé,Institut universitaire de technologie,Aix-en-Provence,Non trouvé,Non trouvé,,,,https://diplomeo.com/etablissement-iut_de_la_ciotat_antenne_de_l_iut_d_aix_en_provence_universite_aix_marseille_ii-6695
"IUT de Colmar, Université de Haute Alsace Mulhouse",Non trouvé,Institut universitaire de technologie,Colmar,Non trouvé,Non trouvé,,,,https://diplomeo.com/etablissement-iut_de_colmar_universite_de_haute_alsace_mulhouse-6696
"IUT de Cherbourg Manche, Université de Caen Basse-Normandie",Non trouvé,Institut universitaire de technologie,Saint-Lô,Non trouvé,Non trouvé,,,,https://diplomeo.com/etablissement-iut_de_cherbourg_manche_universite_de_caen_basse_normandie-6697
"IUT de Cherbourg Manche antenne de St-Lô, Université de Caen Basse-Normandie",Non trouvé,Institut universitaire de technologie,Saint-Lô,Non trouvé,Non trouvé,,,,https://diplomeo.com/etablissement-iut_de_cherbourg_manche_antenne_de_st_lo_universite_de_caen_basse_normandie-6698
"IUT de Cergy (site Saint-Christophe), Université de Cergy-Pontoise",Non trouvé,Institut universitaire de technologie,Cergy,Non trouvé,Non trouvé,,,,https://diplomeo.com/etablissement-iut_de_cergy_site_saint_christophe_universite_de_cergy_pontoise-6699
"IUT de Chambéry, Université de Savoie",Non trouvé,Institut universitaire de technologie,Chambéry,Non trouvé,Non trouvé,,,,https://diplomeo.com/etablissement-iut_de_chambery_universite_de_savoie-6700
"IUT de Cergy (site Argenteuil), Université de Cergy-Pontoise",Non trouvé,Institut universitaire de technologie,Cergy,Non trouvé,Non trouvé,,,,https://diplomeo.com/etablissement-iut_de_cergy_site_argenteuil_universite_de_cergy_pontoise-6701
"IUT de Cergy (site Neuville), Université de Cergy-Pontoise",Non trouvé,Institut universitaire de technologie,Cergy,Non trouvé,Non trouvé,,,,https://diplomeo.com/etablissement-iut_de_cergy_site_neuville_universite_de_cergy_pontoise-6702
"IUT - ULCO - IUT de Calais, Université du Littoral - Côte d'Opale",Non trouvé,Institut universitaire de technologie,Arras,Non trouvé,Non trouvé,,,,https://diplomeo.com/etablissement-iut_ulco_iut_de_calais_universite_du_littoral_cote_d_opale-6703
"IUT de Caen antenne Vire département TC, Université de Caen Basse-Normandie",Non trouvé,Institut universitaire de technologie,Caen,Non trouvé,Non trouvé,,,,https://diplomeo.com/etablissement-iut_de_caen_antenne_vire_departement_tc_universite_de_caen_basse_normandie-6704
"IUT de Caen antenne de Lisieux, Université de Caen Basse-Normandie",Non trouvé,Institut universitaire de technologie,Caen,Non trouvé,Non trouvé,,,,https://diplomeo.com/etablissement-iut_de_caen_antenne_de_lisieux_universite_de_caen_basse_normandie-6705
"IUT de Chartres, Université d'Orléans",Non trouvé,Institut universitaire de technologie,Orléans,Non trouvé,Non trouvé,,,,https://diplomeo.com/etablissement-iut_de_chartres_universite_d_orleans-6706
"IUT de Béziers, Université Montpellier II",Non trouvé,Institut universitaire de technologie,Montpellier,Non trouvé,Non trouvé,,,,https://diplomeo.com/etablissement-iut_de_beziers_universite_montpellier_ii-6707
"IUT de Caen antenne Vire département HSE, Université de Caen Basse-Normandie",Non trouvé,Institut universitaire de technologie,Caen,Non trouvé,Non trouvé,,,,https://diplomeo.com/etablissement-iut_de_caen_antenne_vire_departement_hse_universite_de_caen_basse_normandie-6708
"IUT Artois - IUT de Béthune université d'Artois, Université d'Artois",Non trouvé,Institut universitaire de technologie,Arras,Non trouvé,Non trouvé,,,,https://diplomeo.com/etablissement-iut_artois_iut_de_bethune_universite_d_artois_universite_d_artois-6709
"IUT de Caen antenne d'Ifs, Université de Caen Basse-Normandie",Non trouvé,Institut universitaire de technologie,Caen,Non trouvé,Non trouvé,,,,https://diplomeo.com/etablissement-iut_de_caen_antenne_d_ifs_universite_de_caen_basse_normandie-6710
"IUT de Brest, Université de Bretagne Occidentale",Non trouvé,Institut universitaire de technologie,Quimper,Non trouvé,Non trouvé,,,,https://diplomeo.com/etablissement-iut_de_brest_universite_de_bretagne_occidentale-6711
"IUT de Caen, Université de Caen Basse-Normandie",Non trouvé,Institut universitaire de technologie,Caen,Non trouvé,Non trouvé,,,,https://diplomeo.com/etablissement-iut_de_caen_universite_de_caen_basse_normandie-6712
"IUT de Cergy (site Saint-Martin), Université de Cergy-Pontoise",Non trouvé,Institut universitaire de technologie,Cergy,Non trouvé,Non trouvé,,,,https://diplomeo.com/etablissement-iut_de_cergy_site_saint_martin_universite_de_cergy_pontoise-6713
"IUT de Cergy (site Sarcelles), Université de Cergy-Pontoise",Non trouvé,Institut universitaire de technologie,Cergy,Non trouvé,Non trouvé,,,,https://diplomeo.com/etablissement-iut_de_cergy_site_sarcelles_universite_de_cergy_pontoise-6714
"IUT de Brest (site de Morlaix), Université de Bretagne Occidentale",Non trouvé,Institut universitaire de technologie,Quimper,Non trouvé,Non trouvé,,,,https://diplomeo.com/etablissement-iut_de_brest_site_de_morlaix_universite_de_bretagne_occidentale-6715
"IUT de Bourges, Université d'Orléans",Non trouvé,Institut universitaire de technologie,Bourges,Non trouvé,Non trouvé,,,,https://diplomeo.com/etablissement-iut_de_bourges_universite_d_orleans-6716
"IUT de Blois, Université de Tours",Non trouvé,Institut universitaire de technologie,Blois,Non trouvé,Non trouvé,,,,https://diplomeo.com/etablissement-iut_de_blois_universite_de_tours-6717
"IUT de Blagnac, Université Toulouse II",Non trouvé,Institut universitaire de technologie,Toulouse,Non trouvé,Non trouvé,,,,https://diplomeo.com/etablissement-iut_de_blagnac_universite_toulouse_ii-6718
"IUT de Cachan, Université Paris-Sud 11",Non trouvé,Institut universitaire de technologie,Créteil,Non trouvé,Non trouvé,,,,https://diplomeo.com/etablissement-iut_de_cachan_universite_paris_sud_11-6719
"IUT de Besançon-Vesoul, site de Besançon, Université de Franche-Comté",Non trouvé,Institut universitaire de technologie,Besançon,Non trouvé,Non trouvé,,,,https://diplomeo.com/etablissement-iut_de_besancon_vesoul_site_de_besancon_universite_de_franche_comte-6720
"IUT de Belfort-Montbeliard, site de Montbeliard, Université de Franche-Comté",Non trouvé,Institut universitaire de technologie,Besançon,Non trouvé,Non trouvé,,,,https://diplomeo.com/etablissement-iut_de_belfort_montbeliard_site_de_montbeliard_universite_de_franche_comte-6721
"IUT de Besançon-Vesoul, site de Vesoul, Université de Franche-Comté",Non trouvé,Institut universitaire de technologie,Vesoul,Non trouvé,Non trouvé,,,,https://diplomeo.com/etablissement-iut_de_besancon_vesoul_site_de_vesoul_universite_de_franche_comte-6722
"IUT - ULCO - IUT de Boulogne, Université du Littoral - Côte d'Opale",Non trouvé,Institut universitaire de technologie,Arras,Non trouvé,Non trouvé,,,,https://diplomeo.com/etablissement-iut_ulco_iut_de_boulogne_universite_du_littoral_cote_d_opale-6723
"IUT de Bayonne, Pays Basque - Anglet, Université Pau et Pays de l'Adour",Non trouvé,Institut universitaire de technologie,Pau,Non trouvé,Non trouvé,,,,https://diplomeo.com/etablissement-iut_de_bayonne_pays_basque_anglet_universite_pau_et_pays_de_l_adour-6724
"IUT de Bobigny, Université Paris 13",Non trouvé,Institut universitaire de technologie,Bobigny,Non trouvé,Non trouvé,,,,https://diplomeo.com/etablissement-iut_de_bobigny_universite_paris_13-6725
"IUT de Bayonne, Pays Basque - Bayonne, Université Pau et Pays de l'Adour",Non trouvé,Institut universitaire de technologie,Pau,Non trouvé,Non trouvé,,,,https://diplomeo.com/etablissement-iut_de_bayonne_pays_basque_bayonne_universite_pau_et_pays_de_l_adour-6726
"IUT de Belfort-Montbeliard, site de Belfort, Université de Franche-Comté",Non trouvé,Institut universitaire de technologie,Belfort,Non trouvé,Non trouvé,,,,https://diplomeo.com/etablissement-iut_de_belfort_montbeliard_site_de_belfort_universite_de_franche_comte-6727
"IUT d'Angers, Université d'Angers",Non trouvé,Institut universitaire de technologie,Angers,Non trouvé,Non trouvé,,,,https://diplomeo.com/etablissement-iut_d_angers_universite_d_angers-6728
"IUT d'Amiens, Université Picardie Jules Verne Amiens",Non trouvé,Institut universitaire de technologie,Amiens,Non trouvé,Non trouvé,,,,https://diplomeo.com/etablissement-iut_d_amiens_universite_picardie_jules_verne_amiens-6729
"IUT d'Annecy, Université de Savoie",Non trouvé,Institut universitaire de technologie,Annecy,Non trouvé,Non trouvé,,,,https://diplomeo.com/etablissement-iut_d_annecy_universite_de_savoie-6730
"IUT d'Avignon, Université d'Avignon",Non trouvé,Institut universitaire de technologie,Avignon,Non trouvé,Non trouvé,,,,https://diplomeo.com/etablissement-iut_d_avignon_universite_d_avignon-6731
"IUT d'Aix-en-Provence, Université Aix-Marseille II",Non trouvé,Institut universitaire de technologie,Aix-en-Provence,Non trouvé,Non trouvé,,,,https://diplomeo.com/etablissement-iut_d_aix_en_provence_universite_aix_marseille_ii-6732
"IUT d'Aix en Provence Dép information-communication - métiers du livre, Université Aix-Marseille II",Non trouvé,Institut universitaire de technologie,Aix-en-Provence,Non trouvé,Non trouvé,,,,https://diplomeo.com/etablissement-iut_d_aix_en_provence_dep_information_communication_metiers_du_livre_universite_aix_marseille_ii-6733
"IUT d'Allier - Vichy, Université Blaise Pascal, Université Clermont-Ferrand II",Non trouvé,Institut universitaire de technologie,Moulins,Non trouvé,Non trouvé,,,,https://diplomeo.com/etablissement-iut_d_allier_vichy_universite_blaise_pascal_universite_clermont_ferrand_ii-6734
"IUT Lille 3 - IUT B de l'université de Lille 3, Université Lille 3",Non trouvé,Institut universitaire de technologie,Lille,Non trouvé,Non trouvé,,,,https://diplomeo.com/etablissement-iut_lille_3_iut_b_de_l_universite_de_lille_3_universite_lille_3-6735
"IUT Bordeaux 1, Université Bordeaux I",Non trouvé,Institut universitaire de technologie,Bordeaux,Non trouvé,Non trouvé,,,,https://diplomeo.com/etablissement-iut_bordeaux_1_universite_bordeaux_i-6740
"IUT C Lille 2 - IUT C de l'université de Lille 2 - Roubaix, Université de Lille 2",Non trouvé,Institut universitaire de technologie,Lille,Non trouvé,Non trouvé,,,,https://diplomeo.com/etablissement-iut_c_lille_2_iut_c_de_l_universite_de_lille_2_roubaix_universite_de_lille_2-6741
"IUT d'Alençon, Université de Caen Basse-Normandie",Non trouvé,Institut universitaire de technologie,Alençon,Non trouvé,Non trouvé,,,,https://diplomeo.com/etablissement-iut_d_alencon_universite_de_caen_basse_normandie-6742
"IUT d'Agen, Université Bordeaux I",Non trouvé,Institut universitaire de technologie,Agen,Non trouvé,Non trouvé,,,,https://diplomeo.com/etablissement-iut_d_agen_universite_bordeaux_i-6743
"IUT d'Aix en Provence département Carrières sociales, Université Aix-Marseille II",Non trouvé,Institut universitaire de technologie,Aix-en-Provence,Non trouvé,Non trouvé,,,,https://diplomeo.com/etablissement-iut_d_aix_en_provence_departement_carrieres_sociales_universite_aix_marseille_ii-6747
"IUT A Lille 1, Université Lille 1 - Sciences et Technologies",Non trouvé,Institut universitaire de technologie,Lille,Non trouvé,Non trouvé,,,,https://diplomeo.com/etablissement-iut_a_lille_1_universite_lille_1_sciences_et_technologies-6749
"IUT Bordeaux Montesquieu, Université Bordeaux IV",Non trouvé,Institut universitaire de technologie,Bordeaux,Non trouvé,Non trouvé,,,,https://diplomeo.com/etablissement-iut_bordeaux_montesquieu_universite_bordeaux_iv-6750
"IUT Maubeuge - Antenne de l'IUT de Valenciennes Maubeuge, Université de Valenciennes",Non trouvé,Institut universitaire de technologie,Lille,Non trouvé,Non trouvé,,,,https://diplomeo.com/etablissement-iut_maubeuge_antenne_de_l_iut_de_valenciennes_maubeuge_universite_de_valenciennes-7189
"Antenne de Cholet - IUT d'Angers, Université d'Angers",Non trouvé,Institut universitaire de technologie,Angers,Non trouvé,Non trouvé,,,,https://diplomeo.com/etablissement-antenne_de_cholet_iut_d_angers_universite_d_angers-7209
Oxford Brookes University,Non trouvé,Institut universitaire de technologie,,Non trouvé,Non trouvé,,,,https://diplomeo.com/etablissement-oxford_brookes_university-9171
