name,email,sector,city,phone,website,address,formations,description,url
Ecole de coiffure et esthétique,Non trouvé,Lycée professionnel,Laon,Non trouvé,Non trouvé,,,,https://diplomeo.com/etablissement-ecole_de_coiffure_et_esthetique-115
Ecole Darfeuille - Esthétique Coiffure,Non trouvé,Lycée professionnel,Saint-Étienne,Non trouvé,Non trouvé,,,,https://diplomeo.com/etablissement-ecole_darfeuille_esthetique_coiffure-128
EATP - Ecole d'application des travaux publics,Non trouvé,Lycée professionnel,Tulle,Non trouvé,Non trouvé,,,,https://diplomeo.com/etablissement-eatp_ecole_d_application_des_travaux_publics-137
EDEA - École d'esthétique appliquée,Non trouvé,Lycée professionnel,Pau,Non trouvé,Non trouvé,,,,https://diplomeo.com/etablissement-edea_ecole_d_esthetique_appliquee-442
Lycée professionnel privé de la CCI - École de commerce de la CCI Dordogne,Non trouvé,Lycée professionnel,Périgueux,Non trouvé,Non trouvé,,,,https://diplomeo.com/etablissement-lycee_professionnel_prive_de_la_cci_ecole_de_commerce_de_la_cci_dordogne-854
Etablissement technique privé de coiffure et d'esthétique,Non trouvé,Lycée professionnel,Montpellier,Non trouvé,Non trouvé,,,,https://diplomeo.com/etablissement-etablissement_technique_prive_de_coiffure_et_d_esthetique-1607
Ensemble scolaire Saint-Michel,Non trouvé,Lycée professionnel,Art-sur-Meurthe,Non trouvé,Non trouvé,,,,https://diplomeo.com/etablissement-ensemble_scolaire_saint_michel-1738
Ecole technique privée ITCC - Groupe Peyrefitte,Non trouvé,Lycée professionnel,Chambéry,Non trouvé,Non trouvé,,,,https://diplomeo.com/etablissement-ecole_technique_privee_itcc_groupe_peyrefitte-1778
Oscélorn - Ecole technique privée - Oscélorn,Non trouvé,Lycée professionnel,Quimper,Non trouvé,Non trouvé,,,,https://diplomeo.com/etablissement-oscelorn_ecole_technique_privee_oscelorn-1779
Ecole technique privée Notre Dame,Non trouvé,Lycée professionnel,Albi,Non trouvé,Non trouvé,,,,https://diplomeo.com/etablissement-ecole_technique_privee_notre_dame-1780
Ecole technique privée - IFFDEC,Non trouvé,Lycée professionnel,Rennes,Non trouvé,Non trouvé,,,,https://diplomeo.com/etablissement-ecole_technique_privee_iffdec-1792
ETP - Ecole technique privée - Chantal Le Cozic,Non trouvé,Lycée professionnel,Rennes,Non trouvé,Non trouvé,,,,https://diplomeo.com/etablissement-etp_ecole_technique_privee_chantal_le_cozic-1809
Ecole technique coiffure esthétique Joffre - Karine Moncla,Non trouvé,Lycée professionnel,Pau,Non trouvé,Non trouvé,,,,https://diplomeo.com/etablissement-ecole_technique_coiffure_esthetique_joffre_karine_moncla-1816
EPEB - Ecole privée d'esthétique Agnès Briat-Pierrain,Non trouvé,Lycée professionnel,Poitiers,Non trouvé,Non trouvé,,,,https://diplomeo.com/etablissement-epeb_ecole_privee_d_esthetique_agnes_briat_pierrain-2050
Ecole privée de coiffure et d'esthétique Académie de beauté,Non trouvé,Lycée professionnel,Lille,Non trouvé,Non trouvé,,,,https://diplomeo.com/etablissement-ecole_privee_de_coiffure_et_d_esthetique_academie_de_beaute-2064
Ecole privée des carrières de la mode,Non trouvé,Lycée professionnel,Strasbourg,Non trouvé,Non trouvé,,,,https://diplomeo.com/etablissement-ecole_privee_des_carrieres_de_la_mode-2071
LT- ORT - Lycée technique et institut d'enseignement privé ORT Maurice Grynfogel,Non trouvé,Lycée professionnel,Toulouse,Non trouvé,Non trouvé,,,,https://diplomeo.com/etablissement-lt_ort_lycee_technique_et_institut_d_enseignement_prive_ort_maurice_grynfogel-5515
Lycée professionnel Vincent de Paul,Non trouvé,Lycée professionnel,Avignon,Non trouvé,Non trouvé,,,,https://diplomeo.com/etablissement-lycee_professionnel_vincent_de_paul-5686
Lycée professionnel Victor Laloux,Non trouvé,Lycée professionnel,Tours,Non trouvé,Non trouvé,,,,https://diplomeo.com/etablissement-lycee_professionnel_victor_laloux-5687
Lycée professionnel Viette,Non trouvé,Lycée professionnel,Besançon,Non trouvé,Non trouvé,,,,https://diplomeo.com/etablissement-lycee_professionnel_viette-5688
Lycée professionnel Vercingétorix,Non trouvé,Lycée professionnel,Clermont-Ferrand,Non trouvé,Non trouvé,,,,https://diplomeo.com/etablissement-lycee_professionnel_vercingetorix-5689
Lycée professionnel Sixte Vignon,Non trouvé,Lycée professionnel,Tarbes,Non trouvé,Non trouvé,,,,https://diplomeo.com/etablissement-lycee_professionnel_sixte_vignon-5698
Lycée professionnel Théodore Monod,Non trouvé,Lycée professionnel,Nanterre,Non trouvé,Non trouvé,,,,https://diplomeo.com/etablissement-lycee_professionnel_theodore_monod-5699
Lycée professionnel Sully,Non trouvé,Lycée professionnel,Nogent-le-Rotrou,Non trouvé,Non trouvé,,,,https://diplomeo.com/etablissement-lycee_professionnel_sully-5700
Lycée professionnel Sainte-Marie,Non trouvé,Lycée professionnel,Nîmes,Non trouvé,Non trouvé,,,,https://diplomeo.com/etablissement-lycee_professionnel_sainte_marie-5707
Lycée professionnel Sauxmarais,Non trouvé,Lycée professionnel,Saint-Lô,Non trouvé,Non trouvé,,,,https://diplomeo.com/etablissement-lycee_professionnel_sauxmarais-5710
Lycée professionnel René Caillié,Non trouvé,Lycée professionnel,Marseille,Non trouvé,Non trouvé,,,,https://diplomeo.com/etablissement-lycee_professionnel_rene_caillie-5713
Lycée professionnel Raoul Mortier,Non trouvé,Lycée professionnel,Poitiers,Non trouvé,Non trouvé,,,,https://diplomeo.com/etablissement-lycee_professionnel_raoul_mortier-5718
Lycée professionnel privé Saint-Vincent de Paul,Non trouvé,Lycée professionnel,Tours,Non trouvé,Non trouvé,,,,https://diplomeo.com/etablissement-lycee_professionnel_prive_saint_vincent_de_paul-5720
Lycée professionnel privé Saint Luc - Cambrai,Non trouvé,Lycée professionnel,Lille,Non trouvé,Non trouvé,,,,https://diplomeo.com/etablissement-lycee_professionnel_prive_saint_luc_cambrai-5721
Lycée professionnel René Cassin,Non trouvé,Lycée professionnel,Paris,Non trouvé,Non trouvé,,,,https://diplomeo.com/etablissement-lycee_professionnel_rene_cassin-5722
Lycée professionnel privé Saint-Louis,Non trouvé,Lycée professionnel,Lille,Non trouvé,Non trouvé,,,,https://diplomeo.com/etablissement-lycee_professionnel_prive_saint_louis-5723
Lycée professionnel Raymond Cortat,Non trouvé,Lycée professionnel,Aurillac,Non trouvé,Non trouvé,,,,https://diplomeo.com/etablissement-lycee_professionnel_raymond_cortat-5724
Lycée professionnel privé Saint-Vincent de Paul,Non trouvé,Lycée professionnel,Rouen,Non trouvé,Non trouvé,,,,https://diplomeo.com/etablissement-lycee_professionnel_prive_saint_vincent_de_paul-5727
Lycée professionnel privé Saint-Jean,Non trouvé,Lycée professionnel,Colmar,Non trouvé,Non trouvé,,,,https://diplomeo.com/etablissement-lycee_professionnel_prive_saint_jean-5729
Lycée professionnel privé Sainte-Thérèse,Non trouvé,Lycée professionnel,Rouen,Non trouvé,Non trouvé,,,,https://diplomeo.com/etablissement-lycee_professionnel_prive_sainte_therese-5730
Lycée professionnel privé Saint-Jacques,Non trouvé,Lycée professionnel,Auxerre,Non trouvé,Non trouvé,,,,https://diplomeo.com/etablissement-lycee_professionnel_prive_saint_jacques-5731
Lycée professionnel privé Notre-Dame du Sacré-Coeur,Non trouvé,Lycée professionnel,Lille,Non trouvé,Non trouvé,,,,https://diplomeo.com/etablissement-lycee_professionnel_prive_notre_dame_du_sacre_coeur-5732
Lycée professionnel privé Le Masle,Non trouvé,Lycée professionnel,Nantes,Non trouvé,Non trouvé,,,,https://diplomeo.com/etablissement-lycee_professionnel_prive_le_masle-5733
Lycée professionnel privé de la Côte d'Argent,Non trouvé,Lycée professionnel,Bordeaux,Non trouvé,Non trouvé,,,,https://diplomeo.com/etablissement-lycee_professionnel_prive_de_la_cote_d_argent-5735
Lycée professionnel Pierre Vernotte,Non trouvé,Lycée professionnel,Lons-le-Saunier,Non trouvé,Non trouvé,,,,https://diplomeo.com/etablissement-lycee_professionnel_pierre_vernotte-5736
Lycée professionnel privé de l'aéronautique AIRBUS,Non trouvé,Lycée professionnel,Toulouse,Non trouvé,Non trouvé,,,,https://diplomeo.com/etablissement-lycee_professionnel_prive_de_l_aeronautique_airbus-5737
Lycée professionnel Portes des Alpes,Non trouvé,Lycée professionnel,Annecy,Non trouvé,Non trouvé,,,,https://diplomeo.com/etablissement-lycee_professionnel_portes_des_alpes-5738
Lycée professionnel privé Sainte-Marie,Non trouvé,Lycée professionnel,Lille,Non trouvé,Non trouvé,,,,https://diplomeo.com/etablissement-lycee_professionnel_prive_sainte_marie-5739
LP EPID - Lycée professionnel privé EPID,Non trouvé,Lycée professionnel,Lille,Non trouvé,Non trouvé,,,,https://diplomeo.com/etablissement-lp_epid_lycee_professionnel_prive_epid-5740
Lycée professionnel Pierre-Adrien Pâris,Non trouvé,Lycée professionnel,Besançon,Non trouvé,Non trouvé,,,,https://diplomeo.com/etablissement-lycee_professionnel_pierre_adrien_paris-5743
Lycée professionnel Pierre Latécoère,Non trouvé,Lycée professionnel,Aix-en-Provence,Non trouvé,Non trouvé,,,,https://diplomeo.com/etablissement-lycee_professionnel_pierre_latecoere-5745
Lycée professionnel Paul Bert,Non trouvé,Lycée professionnel,Créteil,Non trouvé,Non trouvé,,,,https://diplomeo.com/etablissement-lycee_professionnel_paul_bert-5747
Lycée professionnel Michel Servet,Non trouvé,Lycée professionnel,Lille,Non trouvé,Non trouvé,,,,https://diplomeo.com/etablissement-lycee_professionnel_michel_servet-5750
Lycée professionnel Olivier Guichard,Non trouvé,Lycée professionnel,Nantes,Non trouvé,Non trouvé,,,,https://diplomeo.com/etablissement-lycee_professionnel_olivier_guichard-5751
Lycée professionnel Pierre et Marie Curie,Non trouvé,Lycée professionnel,Nice,Non trouvé,Non trouvé,,,,https://diplomeo.com/etablissement-lycee_professionnel_pierre_et_marie_curie-5752
Lycée professionnel Paul Mathou,Non trouvé,Lycée professionnel,Toulouse,Non trouvé,Non trouvé,,,,https://diplomeo.com/etablissement-lycee_professionnel_paul_mathou-5755
Lycée professionnel Mendès France,Non trouvé,Lycée professionnel,Montpellier,Non trouvé,Non trouvé,,,,https://diplomeo.com/etablissement-lycee_professionnel_mendes_france-5759
Lycée professionnel Martin Nadaud,Non trouvé,Lycée professionnel,Saint-Pierre-des-Corps,Non trouvé,Non trouvé,,,,https://diplomeo.com/etablissement-lycee_professionnel_martin_nadaud-5763
Lycée professionnel Marcel Barbanceys,Non trouvé,Lycée professionnel,Tulle,Non trouvé,Non trouvé,,,,https://diplomeo.com/etablissement-lycee_professionnel_marcel_barbanceys-5765
Lycée professionnel Lucien René Duchesne,Non trouvé,Lycée professionnel,Versailles,Non trouvé,Non trouvé,,,,https://diplomeo.com/etablissement-lycee_professionnel_lucien_rene_duchesne-5766
Lycée professionnel Louis-Jacques Goussier,Non trouvé,Lycée professionnel,Nantes,Non trouvé,Non trouvé,,,,https://diplomeo.com/etablissement-lycee_professionnel_louis_jacques_goussier-5768
LPM - Lycée professionnel maritime,Non trouvé,Lycée professionnel,Rennes,Non trouvé,Non trouvé,,,,https://diplomeo.com/etablissement-lpm_lycee_professionnel_maritime-5769
Lycée professionnel Louis Lumière,Non trouvé,Lycée professionnel,Melun,Non trouvé,Non trouvé,,,,https://diplomeo.com/etablissement-lycee_professionnel_louis_lumiere-5770
Lycée professionnel les Huisselets,Non trouvé,Lycée professionnel,Besançon,Non trouvé,Non trouvé,,,,https://diplomeo.com/etablissement-lycee_professionnel_les_huisselets-5772
Lycée professionnel Louise Michel,Non trouvé,Lycée professionnel,Angoulême,Non trouvé,Non trouvé,,,,https://diplomeo.com/etablissement-lycee_professionnel_louise_michel-5773
Lycée professionnel Louis Delage,Non trouvé,Lycée professionnel,Angoulême,Non trouvé,Non trouvé,,,,https://diplomeo.com/etablissement-lycee_professionnel_louis_delage-5776
Lycée professionnel Louise Michel,Non trouvé,Lycée professionnel,Bobigny,Non trouvé,Non trouvé,,,,https://diplomeo.com/etablissement-lycee_professionnel_louise_michel-5777
Lycée professionnel le Likès,Non trouvé,Lycée professionnel,Quimper,Non trouvé,Non trouvé,,,,https://diplomeo.com/etablissement-lycee_professionnel_le_likes-5780
Lycée Professionnel Régional Parc Saint Jean,Non trouvé,Lycée professionnel,Toulon,Non trouvé,Non trouvé,,,,https://diplomeo.com/etablissement-lycee_professionnel_regional_parc_saint_jean-5781
Lycée professionnel le Mas Jambost,Non trouvé,Lycée professionnel,Limoges,Non trouvé,Non trouvé,,,,https://diplomeo.com/etablissement-lycee_professionnel_le_mas_jambost-5782
Lycée professionnel les Palmiers,Non trouvé,Lycée professionnel,Nice,Non trouvé,Non trouvé,,,,https://diplomeo.com/etablissement-lycee_professionnel_les_palmiers-5783
Lycée professionnel Léonard de Vinci,Non trouvé,Lycée professionnel,Laval,Non trouvé,Non trouvé,,,,https://diplomeo.com/etablissement-lycee_professionnel_leonard_de_vinci-5784
Lycée professionnel Leau,Non trouvé,Lycée professionnel,Marseille,Non trouvé,Non trouvé,,,,https://diplomeo.com/etablissement-lycee_professionnel_leau-5785
Lycée professionnel Le Corbusier,Non trouvé,Lycée professionnel,Laon,Non trouvé,Non trouvé,,,,https://diplomeo.com/etablissement-lycee_professionnel_le_corbusier-5786
Lycée professionnel la Calade,Non trouvé,Lycée professionnel,Marseille,Non trouvé,Non trouvé,,,,https://diplomeo.com/etablissement-lycee_professionnel_la_calade-5787
Lycée professionnel la Floride,Non trouvé,Lycée professionnel,Marseille,Non trouvé,Non trouvé,,,,https://diplomeo.com/etablissement-lycee_professionnel_la_floride-5790
Lycée professionnel KERSA LASALLE,Non trouvé,Lycée professionnel,Saint-Brieuc,Non trouvé,Non trouvé,,,,https://diplomeo.com/etablissement-lycee_professionnel_kersa_lasalle-5791
Groupe La Salle Saint Joseph,Non trouvé,Lycée professionnel,Troyes,Non trouvé,Non trouvé,,,,https://diplomeo.com/etablissement-groupe_la_salle_saint_joseph-5792
Lycée professionnel Jules Ferry (La colline),Non trouvé,Lycée professionnel,Montpellier,Non trouvé,Non trouvé,,,,https://diplomeo.com/etablissement-lycee_professionnel_jules_ferry_la_colline-5793
Lycée professionnel Joliot Curie,Non trouvé,Lycée professionnel,Montpellier,Non trouvé,Non trouvé,,,,https://diplomeo.com/etablissement-lycee_professionnel_joliot_curie-5794
Lycée professionnel Jeanne d'Arc,Non trouvé,Lycée professionnel,Cergy,Non trouvé,Non trouvé,,,,https://diplomeo.com/etablissement-lycee_professionnel_jeanne_d_arc-5796
Lycée professionnel Jean Nicoli,Non trouvé,Lycée professionnel,Bastia,Non trouvé,Non trouvé,,,,https://diplomeo.com/etablissement-lycee_professionnel_jean_nicoli-5799
Lycée professionnel Jean-Victor Poncelet,Non trouvé,Lycée professionnel,Metz,Non trouvé,Non trouvé,,,,https://diplomeo.com/etablissement-lycee_professionnel_jean_victor_poncelet-5800
Lycée professionnel J et E de Montgolfier,Non trouvé,Lycée professionnel,Privas,Non trouvé,Non trouvé,,,,https://diplomeo.com/etablissement-lycee_professionnel_j_et_e_de_montgolfier-5801
Lycée professionnel Joliot-Curie,Non trouvé,Lycée professionnel,Reims,Non trouvé,Non trouvé,,,,https://diplomeo.com/etablissement-lycee_professionnel_joliot_curie-5802
Lycée professionnel Jean Monnet,Non trouvé,Lycée professionnel,Nanterre,Non trouvé,Non trouvé,,,,https://diplomeo.com/etablissement-lycee_professionnel_jean_monnet-5805
Lycée professionnel Jean Moulin avec section d'enseignement agricole,Non trouvé,Lycée professionnel,Saint-Brieuc,Non trouvé,Non trouvé,,,,https://diplomeo.com/etablissement-lycee_professionnel_jean_moulin_avec_section_d_enseignement_agricole-5806
Lycée professionnel JC Aubry,Non trouvé,Lycée professionnel,Grenoble,Non trouvé,Non trouvé,,,,https://diplomeo.com/etablissement-lycee_professionnel_jc_aubry-5810
Lycée professionnel Jean Guéhenno,Non trouvé,Lycée professionnel,Saint-Amand-Montrond,Non trouvé,Non trouvé,,,,https://diplomeo.com/etablissement-lycee_professionnel_jean_guehenno-5814
Lycée professionnel Jean-Baptiste Clément,Non trouvé,Lycée professionnel,Charleville-Mézières,Non trouvé,Non trouvé,,,,https://diplomeo.com/etablissement-lycee_professionnel_jean_baptiste_clement-5815
Lycée professionnel Jean Albert Grégoire,Non trouvé,Lycée professionnel,Angoulême,Non trouvé,Non trouvé,,,,https://diplomeo.com/etablissement-lycee_professionnel_jean_albert_gregoire-5816
Lycée professionnel Jean Chaptal,Non trouvé,Lycée professionnel,Tours,Non trouvé,Non trouvé,,,,https://diplomeo.com/etablissement-lycee_professionnel_jean_chaptal-5817
Lycée professionnel Jacques Prévert,Non trouvé,Lycée professionnel,Melun,Non trouvé,Non trouvé,,,,https://diplomeo.com/etablissement-lycee_professionnel_jacques_prevert-5818
Lycée professionnel Jacques le Caron,Non trouvé,Lycée professionnel,Arras,Non trouvé,Non trouvé,,,,https://diplomeo.com/etablissement-lycee_professionnel_jacques_le_caron-5819
Lycée professionnel Jacques Brel,Non trouvé,Lycée professionnel,Créteil,Non trouvé,Non trouvé,,,,https://diplomeo.com/etablissement-lycee_professionnel_jacques_brel-5823
Lycée professionnel industriel et hôtelier Jean Monnet,Non trouvé,Lycée professionnel,Bordeaux,Non trouvé,Non trouvé,,,,https://diplomeo.com/etablissement-lycee_professionnel_industriel_et_hotelier_jean_monnet-5824
ESTIC - Lycée professionnel Immaculée Conception,Non trouvé,Lycée professionnel,Chaumont,Non trouvé,Non trouvé,,,,https://diplomeo.com/etablissement-estic_lycee_professionnel_immaculee_conception-5829
Lycée professionnel Henri Senez,Non trouvé,Lycée professionnel,Arras,Non trouvé,Non trouvé,,,,https://diplomeo.com/etablissement-lycee_professionnel_henri_senez-5836
Lycée professionnel Gustave Eiffel,Non trouvé,Lycée professionnel,Évry-Courcouronnes,Non trouvé,Non trouvé,,,,https://diplomeo.com/etablissement-lycee_professionnel_gustave_eiffel-5839
Lycée professionnel Guy Debeyre,Non trouvé,Lycée professionnel,Lille,Non trouvé,Non trouvé,,,,https://diplomeo.com/etablissement-lycee_professionnel_guy_debeyre-5841
Lycée professionnel Henri Gaudier-Brzeska,Non trouvé,Lycée professionnel,Saint-Jean-de-Braye,Non trouvé,Non trouvé,,,,https://diplomeo.com/etablissement-lycee_professionnel_henri_gaudier_brzeska-5844
Lycée professionnel Gourdou Leseurre,Non trouvé,Lycée professionnel,Créteil,Non trouvé,Non trouvé,,,,https://diplomeo.com/etablissement-lycee_professionnel_gourdou_leseurre-5845
Lycée professionnel Frédéric Mistral,Non trouvé,Lycée professionnel,Marseille,Non trouvé,Non trouvé,,,,https://diplomeo.com/etablissement-lycee_professionnel_frederic_mistral-5846
Lycée professionnel Funay-Hélène Boucher,Non trouvé,Lycée professionnel,Le Mans,Non trouvé,Non trouvé,,,,https://diplomeo.com/etablissement-lycee_professionnel_funay_helene_boucher-5848
Lycée professionnel François Mitterrand,Non trouvé,Lycée professionnel,Nevers,Non trouvé,Non trouvé,,,,https://diplomeo.com/etablissement-lycee_professionnel_francois_mitterrand-5849
Lycée professionnel Général Ferrié,Non trouvé,Lycée professionnel,Chambéry,Non trouvé,Non trouvé,,,,https://diplomeo.com/etablissement-lycee_professionnel_general_ferrie-5850
Lycée professionnel Gambetta,Non trouvé,Lycée professionnel,Aix-en-Provence,Non trouvé,Non trouvé,,,,https://diplomeo.com/etablissement-lycee_professionnel_gambetta-5851
Lycée professionnel Gilles Jamain,Non trouvé,Lycée professionnel,La Rochelle,Non trouvé,Non trouvé,,,,https://diplomeo.com/etablissement-lycee_professionnel_gilles_jamain-5852
Lycée professionnel François Arago,Non trouvé,Lycée professionnel,Nantes,Non trouvé,Non trouvé,,,,https://diplomeo.com/etablissement-lycee_professionnel_francois_arago-5853
Lycée professionnel Etion,Non trouvé,Lycée professionnel,Charleville-Mézières,Non trouvé,Non trouvé,,,,https://diplomeo.com/etablissement-lycee_professionnel_etion-5855
Lycée professionnel Europe,Non trouvé,Lycée professionnel,Reims,Non trouvé,Non trouvé,,,,https://diplomeo.com/etablissement-lycee_professionnel_europe-5856
Lycée professionnel et EPLEFPA Kyoto,Non trouvé,Lycée professionnel,Poitiers,Non trouvé,Non trouvé,,,,https://diplomeo.com/etablissement-lycee_professionnel_et_eplefpa_kyoto-5857
Lycée professionnel et SGT Coëtlogon,Non trouvé,Lycée professionnel,Rennes,Non trouvé,Non trouvé,,,,https://diplomeo.com/etablissement-lycee_professionnel_et_sgt_coetlogon-5858
Lycée professionnel Françoise Cabrini,Non trouvé,Lycée professionnel,Bobigny,Non trouvé,Non trouvé,,,,https://diplomeo.com/etablissement-lycee_professionnel_francoise_cabrini-5860
Lycée professionnel du Val Moré,Non trouvé,Lycée professionnel,Troyes,Non trouvé,Non trouvé,,,,https://diplomeo.com/etablissement-lycee_professionnel_du_val_more-5863
Lycée professionnel du Premier Film,Non trouvé,Lycée professionnel,Lyon,Non trouvé,Non trouvé,,,,https://diplomeo.com/etablissement-lycee_professionnel_du_premier_film-5866
Lycée professionnel Etienne Oehmichen,Non trouvé,Lycée professionnel,Reims,Non trouvé,Non trouvé,,,,https://diplomeo.com/etablissement-lycee_professionnel_etienne_oehmichen-5869
Lycée professionnel du Pays d'Aunis,Non trouvé,Lycée professionnel,La Rochelle,Non trouvé,Non trouvé,,,,https://diplomeo.com/etablissement-lycee_professionnel_du_pays_d_aunis-5872
Lycée professionnel du Mirail,Non trouvé,Lycée professionnel,Toulouse,Non trouvé,Non trouvé,,,,https://diplomeo.com/etablissement-lycee_professionnel_du_mirail-5874
Lycée professionnel du Nivolet,Non trouvé,Lycée professionnel,Chambéry,Non trouvé,Non trouvé,,,,https://diplomeo.com/etablissement-lycee_professionnel_du_nivolet-5875
Lycée professionnel du Hainaut,Non trouvé,Lycée professionnel,Lille,Non trouvé,Non trouvé,,,,https://diplomeo.com/etablissement-lycee_professionnel_du_hainaut-5878
Lycée professionnel du bâtiment Sillac,Non trouvé,Lycée professionnel,Angoulême,Non trouvé,Non trouvé,,,,https://diplomeo.com/etablissement-lycee_professionnel_du_batiment_sillac-5880
Lycée professionnel Docteur Philippe Tissié,Non trouvé,Lycée professionnel,Foix,Non trouvé,Non trouvé,,,,https://diplomeo.com/etablissement-lycee_professionnel_docteur_philippe_tissie-5881
Lycée professionnel Dinah Derycke,Non trouvé,Lycée professionnel,Lille,Non trouvé,Non trouvé,,,,https://diplomeo.com/etablissement-lycee_professionnel_dinah_derycke-5883
Lycée professionnel des travaux publics,Non trouvé,Lycée professionnel,Arras,Non trouvé,Non trouvé,,,,https://diplomeo.com/etablissement-lycee_professionnel_des_travaux_publics-5885
Lycée professionnel des métiers Saint-Vincent de Paul,Non trouvé,Lycée professionnel,Nice,Non trouvé,Non trouvé,,,,https://diplomeo.com/etablissement-lycee_professionnel_des_metiers_saint_vincent_de_paul-5886
Lycée professionnel Denis Diderot,Non trouvé,Lycée professionnel,Troyes,Non trouvé,Non trouvé,,,,https://diplomeo.com/etablissement-lycee_professionnel_denis_diderot-5888
Lycée professionnel des Monts de Flandre,Non trouvé,Lycée professionnel,Lille,Non trouvé,Non trouvé,,,,https://diplomeo.com/etablissement-lycee_professionnel_des_monts_de_flandre-5889
Lycée professionnel des métiers de la maintenance industrielle et industries graphiques Don Bosco,Non trouvé,Lycée professionnel,Nice,Non trouvé,Non trouvé,,,,https://diplomeo.com/etablissement-lycee_professionnel_des_metiers_de_la_maintenance_industrielle_et_industries_graphiques_don_bosco-5890
Lycée professionnel des métiers de l'habitat et des travaux publics,Non trouvé,Lycée professionnel,Bordeaux,Non trouvé,Non trouvé,,,,https://diplomeo.com/etablissement-lycee_professionnel_des_metiers_de_l_habitat_et_des_travaux_publics-5891
Lycée professionnel de Narcé,Non trouvé,Lycée professionnel,Angers,Non trouvé,Non trouvé,,,,https://diplomeo.com/etablissement-lycee_professionnel_de_narce-5892
Lycée professionnel des métiers de l'ameublement,Non trouvé,Lycée professionnel,Laon,Non trouvé,Non trouvé,,,,https://diplomeo.com/etablissement-lycee_professionnel_des_metiers_de_l_ameublement-5893
Lycée professionnel des Monts du Lyonnais,Non trouvé,Lycée professionnel,Saint-Étienne,Non trouvé,Non trouvé,,,,https://diplomeo.com/etablissement-lycee_professionnel_des_monts_du_lyonnais-5894
Lycée professionnel de la carrosserie Gaston Barré,Non trouvé,Lycée professionnel,Niort,Non trouvé,Non trouvé,,,,https://diplomeo.com/etablissement-lycee_professionnel_de_la_carrosserie_gaston_barre-5897
Lycée professionnel de la SEPR,Non trouvé,Lycée professionnel,Lyon,Non trouvé,Non trouvé,,,,https://diplomeo.com/etablissement-lycee_professionnel_de_la_sepr-5898
Lycée professionnel Denis Diderot,Non trouvé,Lycée professionnel,Belfort,Non trouvé,Non trouvé,,,,https://diplomeo.com/etablissement-lycee_professionnel_denis_diderot-5899
Lycée professionnel Descartes,Non trouvé,Lycée professionnel,Rouen,Non trouvé,Non trouvé,,,,https://diplomeo.com/etablissement-lycee_professionnel_descartes-5900
Lycée professionnel de l'Atlantique,Non trouvé,Lycée professionnel,La Rochelle,Non trouvé,Non trouvé,,,,https://diplomeo.com/etablissement-lycee_professionnel_de_l_atlantique-5901
Lycée professionnel de l'ameublement Plaine de Laudot,Non trouvé,Lycée professionnel,Toulouse,Non trouvé,Non trouvé,,,,https://diplomeo.com/etablissement-lycee_professionnel_de_l_ameublement_plaine_de_laudot-5902
Lycée professionnel d'Audincourt,Non trouvé,Lycée professionnel,Besançon,Non trouvé,Non trouvé,,,,https://diplomeo.com/etablissement-lycee_professionnel_d_audincourt-5903
Lycée professionnel Clément Ader,Non trouvé,Lycée professionnel,Auch,Non trouvé,Non trouvé,,,,https://diplomeo.com/etablissement-lycee_professionnel_clement_ader-5912
Lycée professionnel Colbert,Non trouvé,Lycée professionnel,Versailles,Non trouvé,Non trouvé,,,,https://diplomeo.com/etablissement-lycee_professionnel_colbert-5914
Lycée professionnel Condorcet,Non trouvé,Lycée professionnel,Bordeaux,Non trouvé,Non trouvé,,,,https://diplomeo.com/etablissement-lycee_professionnel_condorcet-5917
Lycée professionnel Châteauneuf,Non trouvé,Lycée professionnel,Tours,Non trouvé,Non trouvé,,,,https://diplomeo.com/etablissement-lycee_professionnel_chateauneuf-5918
Lycée professionnel Bernard Chochoy,Non trouvé,Lycée professionnel,Arras,Non trouvé,Non trouvé,,,,https://diplomeo.com/etablissement-lycee_professionnel_bernard_chochoy-5923
Lycée professionnel Charles Alliès,Non trouvé,Lycée professionnel,Montpellier,Non trouvé,Non trouvé,,,,https://diplomeo.com/etablissement-lycee_professionnel_charles_allies-5924
Lycée professionnel CE 3P,Non trouvé,Lycée professionnel,Créteil,Non trouvé,Non trouvé,,,,https://diplomeo.com/etablissement-lycee_professionnel_ce_3p-5925
Lycée professionnel Blaise Pascal,Non trouvé,Lycée professionnel,La Rochelle,Non trouvé,Non trouvé,,,,https://diplomeo.com/etablissement-lycee_professionnel_blaise_pascal-5926
Lycée professionnel Blaise Pascal,Non trouvé,Lycée professionnel,Chaumont,Non trouvé,Non trouvé,,,,https://diplomeo.com/etablissement-lycee_professionnel_blaise_pascal-5927
Lycée professionnel Automobile Alfred Mongy,Non trouvé,Lycée professionnel,Lille,Non trouvé,Non trouvé,,,,https://diplomeo.com/etablissement-lycee_professionnel_automobile_alfred_mongy-5928
Lycée professionnel Auguste Béhal,Non trouvé,Lycée professionnel,Arras,Non trouvé,Non trouvé,,,,https://diplomeo.com/etablissement-lycee_professionnel_auguste_behal-5931
Lycée professionnel Alain Savary,Non trouvé,Lycée professionnel,Arras,Non trouvé,Non trouvé,,,,https://diplomeo.com/etablissement-lycee_professionnel_alain_savary-5937
Lycée professionnel Ampère,Non trouvé,Lycée professionnel,Orléans,Non trouvé,Non trouvé,,,,https://diplomeo.com/etablissement-lycee_professionnel_ampere-5938
Lycée professionnel Anne Veaute,Non trouvé,Lycée professionnel,Albi,Non trouvé,Non trouvé,,,,https://diplomeo.com/etablissement-lycee_professionnel_anne_veaute-5942
Lycée professionnel Alexandre Bérard,Non trouvé,Lycée professionnel,Bourg-en-Bresse,Non trouvé,Non trouvé,,,,https://diplomeo.com/etablissement-lycee_professionnel_alexandre_berard-5943
CSTP - Centre supérieur technique privé - ECT diététique esthétique optique,Non trouvé,Lycée professionnel,La Rochelle,Non trouvé,Non trouvé,,,,https://diplomeo.com/etablissement-cstp_centre_superieur_technique_prive_ect_dietetique_esthetique_optique-6809
CFI Gambetta - Centre des formations industrielles site Paris CCIP,Non trouvé,Lycée professionnel,Paris,Non trouvé,Non trouvé,,,,https://diplomeo.com/etablissement-cfi_gambetta_centre_des_formations_industrielles_site_paris_ccip-6927
CFCN - Centre de formation du Chamois Niortais Football Club,Non trouvé,Lycée professionnel,Niort,Non trouvé,Non trouvé,,,,https://diplomeo.com/etablissement-cfcn_centre_de_formation_du_chamois_niortais_football_club-7000
Aliénor Esthétique,Non trouvé,Lycée professionnel,Bordeaux,Non trouvé,Non trouvé,,,,https://diplomeo.com/etablissement-alienor_esthetique-7242
