name,email,sector,city,phone,website,address,formations,description,url
Lycée Saint-Clair - Site de Derval,Non trouvé,Lycée agricole,Nantes,Non trouvé,Non trouvé,,,,https://diplomeo.com/etablissement-lycee_saint_clair_site_de_derval-152
Lycée des Etablières,Non trouvé,Lycée agricole,La Roche-sur-Yon,Non trouvé,Non trouvé,,,,https://diplomeo.com/etablissement-lycee_des_etablieres-177
CPFPH Le Grand Blottereau,Non trouvé,Lycée agricole,Nantes,Non trouvé,Non trouvé,,,,https://diplomeo.com/etablissement-cpfph_le_grand_blottereau-248
ENILV-CFPPA - CFPPA de La Roche sur Foron - ENILV,Non trouvé,Lycée agricole,Annecy,Non trouvé,Non trouvé,,,,https://diplomeo.com/etablissement-enilv_cfppa_cfppa_de_la_roche_sur_foron_enilv-466
CFPPA de La Côte-Saint-André,Non trouvé,Lycée agricole,Grenoble,Non trouvé,Non trouvé,,,,https://diplomeo.com/etablissement-cfppa_de_la_cote_saint_andre-471
CFPPA de Savoie - Reinach Formations - La Motte-Servolex,Non trouvé,Lycée agricole,Chambéry,Non trouvé,Non trouvé,,,,https://diplomeo.com/etablissement-cfppa_de_savoie_reinach_formations_la_motte_servolex-472
CFPPA - CFPPA de Grenoble-Saint-Ismier,Non trouvé,Lycée agricole,Grenoble,Non trouvé,Non trouvé,,,,https://diplomeo.com/etablissement-cfppa_cfppa_de_grenoble_saint_ismier-481
Lycée viticole LEGTA,Non trouvé,Lycée agricole,Dijon,Non trouvé,Non trouvé,,,,https://diplomeo.com/etablissement-lycee_viticole_legta-1000
ISVT - Institut des sciences de la vie et de la terre,Non trouvé,Lycée agricole,Le Puy-en-Velay,Non trouvé,Non trouvé,,,,https://diplomeo.com/etablissement-isvt_institut_des_sciences_de_la_vie_et_de_la_terre-1168
Institut de Genech,Non trouvé,Lycée agricole,Lille,Non trouvé,Non trouvé,,,,https://diplomeo.com/etablissement-institut_de_genech-1278
EPLEFPA - Etablissement public local d'enseignement et de formation professionnels agricoles - Site de Lomme,Non trouvé,Lycée agricole,Lille,Non trouvé,Non trouvé,,,,https://diplomeo.com/etablissement-eplefpa_etablissement_public_local_d_enseignement_et_de_formation_professionnels_agricoles_site_de_lomme-1615
LPA - Etablissement agro-environnemental du Tarn - Site de Lavaur Flamarens,Non trouvé,Lycée agricole,Albi,Non trouvé,Non trouvé,,,,https://diplomeo.com/etablissement-lpa_etablissement_agro_environnemental_du_tarn_site_de_lavaur_flamarens-1619
LGTA - Etablissement agro-environnemental du Tarn - Site d'Albi Fonlabour,Non trouvé,Lycée agricole,Albi,Non trouvé,Non trouvé,,,,https://diplomeo.com/etablissement-lgta_etablissement_agro_environnemental_du_tarn_site_d_albi_fonlabour-1628
Ecole Supérieure La Raque,Non trouvé,Lycée agricole,Carcassonne,Non trouvé,Non trouvé,,,,https://diplomeo.com/etablissement-ecole_superieure_la_raque-2014
LPA ENSMIC - Ecole nationale supérieure de meunerie et des industries céréalières,Non trouvé,Lycée agricole,La Rochelle,Non trouvé,Non trouvé,,,,https://diplomeo.com/etablissement-lpa_ensmic_ecole_nationale_superieure_de_meunerie_et_des_industries_cerealieres-2159
Lycée horticole de la ville de Paris - Ecole du Breuil,Non trouvé,Lycée agricole,Paris,Non trouvé,Non trouvé,,,,https://diplomeo.com/etablissement-lycee_horticole_de_la_ville_de_paris_ecole_du_breuil-5263
Lycée horticole,Non trouvé,Lycée agricole,Compiègne,Non trouvé,Non trouvé,,,,https://diplomeo.com/etablissement-lycee_horticole-5267
LEGTA - Lycée horticole de Grenoble Saint-Ismier,Non trouvé,Lycée agricole,Grenoble,Non trouvé,Non trouvé,,,,https://diplomeo.com/etablissement-legta_lycee_horticole_de_grenoble_saint_ismier-5268
Lycée horticole,Non trouvé,Lycée agricole,Évreux,Non trouvé,Non trouvé,,,,https://diplomeo.com/etablissement-lycee_horticole-5269
Lycée horticole de Lyon Dardilly,Non trouvé,Lycée agricole,Lyon,Non trouvé,Non trouvé,,,,https://diplomeo.com/etablissement-lycee_horticole_de_lyon_dardilly-5270
Lycée technique privé les Mandailles,Non trouvé,Lycée agricole,Valence,Non trouvé,Non trouvé,,,,https://diplomeo.com/etablissement-lycee_technique_prive_les_mandailles-5528
LEGHTP - Lycée Saint-Ilan,Non trouvé,Lycée agricole,Saint-Brieuc,Non trouvé,Non trouvé,,,,https://diplomeo.com/etablissement-leghtp_lycee_saint_ilan-5616
Lycée professionnel viticole,Non trouvé,Lycée agricole,Avignon,Non trouvé,Non trouvé,,,,https://diplomeo.com/etablissement-lycee_professionnel_viticole-5685
Lycée professionnel Orion,Non trouvé,Lycée agricole,Laval,Non trouvé,Non trouvé,,,,https://diplomeo.com/etablissement-lycee_professionnel_orion-5749
Lycée professionnel et technologique,Non trouvé,Lycée agricole,Reims,Non trouvé,Non trouvé,,,,https://diplomeo.com/etablissement-lycee_professionnel_et_technologique-5870
Lycée agro-viticole Bel Air,Non trouvé,Lycée agricole,Lyon,Non trouvé,Non trouvé,,,,https://diplomeo.com/etablissement-lycee_agro_viticole_bel_air-6322
Lycée agricole U Rizzanese,Non trouvé,Lycée agricole,Sartène,Non trouvé,Non trouvé,,,,https://diplomeo.com/etablissement-lycee_agricole_u_rizzanese-6325
LEGTA - Lycée AGROTEC de Vienne - Seyssuel,Non trouvé,Lycée agricole,Grenoble,Non trouvé,Non trouvé,,,,https://diplomeo.com/etablissement-legta_lycee_agrotec_de_vienne_seyssuel-6326
Lycée agricole Théodore Monod,Non trouvé,Lycée agricole,Le Rheu,Non trouvé,Non trouvé,,,,https://diplomeo.com/etablissement-lycee_agricole_theodore_monod-6328
Lycée agricole Xavier Bernard - Venours,Non trouvé,Lycée agricole,Poitiers,Non trouvé,Non trouvé,,,,https://diplomeo.com/etablissement-lycee_agricole_xavier_bernard_venours-6329
Lycée agricole technologique privé Lasalle,Non trouvé,Lycée agricole,Besançon,Non trouvé,Non trouvé,,,,https://diplomeo.com/etablissement-lycee_agricole_technologique_prive_lasalle-6330
Lycée agricole privé Sully,Non trouvé,Lycée agricole,Versailles,Non trouvé,Non trouvé,,,,https://diplomeo.com/etablissement-lycee_agricole_prive_sully-6331
Lycée agricole privé Robert Schuman - site de Chauny,Non trouvé,Lycée agricole,Laon,Non trouvé,Non trouvé,,,,https://diplomeo.com/etablissement-lycee_agricole_prive_robert_schuman_site_de_chauny-6332
LEAP - Lycée agrotechnologique privé d'Annonay,Non trouvé,Lycée agricole,Privas,Non trouvé,Non trouvé,,,,https://diplomeo.com/etablissement-leap_lycee_agrotechnologique_prive_d_annonay-6333
Lycée agrotechnologique privé François-Xavier,Non trouvé,Lycée agricole,Besançon,Non trouvé,Non trouvé,,,,https://diplomeo.com/etablissement-lycee_agrotechnologique_prive_francois_xavier-6334
Lycée agro-environnemental privé Saint-Joseph,Non trouvé,Lycée agricole,Clermont-Ferrand,Non trouvé,Non trouvé,,,,https://diplomeo.com/etablissement-lycee_agro_environnemental_prive_saint_joseph-6335
Lycée agricole Saint-Lô Thère,Non trouvé,Lycée agricole,Saint-Lô,Non trouvé,Non trouvé,,,,https://diplomeo.com/etablissement-lycee_agricole_saint_lo_there-6336
Lycée agricole privé Saint-Christophe,Non trouvé,Lycée agricole,Pau,Non trouvé,Non trouvé,,,,https://diplomeo.com/etablissement-lycee_agricole_prive_saint_christophe-6337
Lycée agricole privé F Marty (antenne de Villefranche de Rouergue),Non trouvé,Lycée agricole,Rodez,Non trouvé,Non trouvé,,,,https://diplomeo.com/etablissement-lycee_agricole_prive_f_marty_antenne_de_villefranche_de_rouergue-6339
LGTA - Lycée agricole privé La Cadène (Fondation d'Auteuil),Non trouvé,Lycée agricole,Toulouse,Non trouvé,Non trouvé,,,,https://diplomeo.com/etablissement-lgta_lycee_agricole_prive_la_cadene_fondation_d_auteuil-6340
LAP - Lycée agricole privé de Poisy Chavanod - site de Poisy,Non trouvé,Lycée agricole,Annecy,Non trouvé,Non trouvé,,,,https://diplomeo.com/etablissement-lap_lycee_agricole_prive_de_poisy_chavanod_site_de_poisy-6341
LGTA - Lycée agricole privé de Touscayrats,Non trouvé,Lycée agricole,Albi,Non trouvé,Non trouvé,,,,https://diplomeo.com/etablissement-lgta_lycee_agricole_prive_de_touscayrats-6342
Lycée Lasalle Reims-Thillois,Non trouvé,Lycée agricole,Reims,Non trouvé,Non trouvé,,,,https://diplomeo.com/etablissement-lycee_lasalle_reims_thillois-6343
Lycée agricole privé Costa de Beauregard - site Chambéry Le Bocage,Non trouvé,Lycée agricole,Chambéry,Non trouvé,Non trouvé,,,,https://diplomeo.com/etablissement-lycee_agricole_prive_costa_de_beauregard_site_chambery_le_bocage-6344
Lycée agricole privé Armand David,Non trouvé,Lycée agricole,Pau,Non trouvé,Non trouvé,,,,https://diplomeo.com/etablissement-lycee_agricole_prive_armand_david-6345
Lycée agricole privé,Non trouvé,Lycée agricole,Évreux,Non trouvé,Non trouvé,,,,https://diplomeo.com/etablissement-lycee_agricole_prive-6346
"Lycée agricole, pôle d'enseignement agricole public Edgard Pisani",Non trouvé,Lycée agricole,Chaumont,Non trouvé,Non trouvé,,,,https://diplomeo.com/etablissement-lycee_agricole_pole_d_enseignement_agricole_public_edgard_pisani-6347
Lycée agricole Le Robillard,Non trouvé,Lycée agricole,Caen,Non trouvé,Non trouvé,,,,https://diplomeo.com/etablissement-lycee_agricole_le_robillard-6348
LEAP - Lycée agricole le Nivot,Non trouvé,Lycée agricole,Quimper,Non trouvé,Non trouvé,,,,https://diplomeo.com/etablissement-leap_lycee_agricole_le_nivot-6349
Lycée agricole Les Sardières,Non trouvé,Lycée agricole,Bourg-en-Bresse,Non trouvé,Non trouvé,,,,https://diplomeo.com/etablissement-lycee_agricole_les_sardieres-6350
LEGTA - Lycée agricole Kernilien,Non trouvé,Lycée agricole,Saint-Brieuc,Non trouvé,Non trouvé,,,,https://diplomeo.com/etablissement-legta_lycee_agricole_kernilien-6351
Lycée agricole Lemonnier,Non trouvé,Lycée agricole,Caen,Non trouvé,Non trouvé,,,,https://diplomeo.com/etablissement-lycee_agricole_lemonnier-6352
LEAP - Lycée agricole la Touche,Non trouvé,Lycée agricole,Vannes,Non trouvé,Non trouvé,,,,https://diplomeo.com/etablissement-leap_lycee_agricole_la_touche-6353
LEGTA - Lycée agricole Olivier de Serres,Non trouvé,Lycée agricole,Privas,Non trouvé,Non trouvé,,,,https://diplomeo.com/etablissement-legta_lycee_agricole_olivier_de_serres-6354
Lycée agricole Jacques Bujault,Non trouvé,Lycée agricole,Niort,Non trouvé,Non trouvé,,,,https://diplomeo.com/etablissement-lycee_agricole_jacques_bujault-6355
Lycée agricole Le Valentin,Non trouvé,Lycée agricole,Valence,Non trouvé,Non trouvé,,,,https://diplomeo.com/etablissement-lycee_agricole_le_valentin-6356
LAHP - Lycée agricole Kerplouz,Non trouvé,Lycée agricole,Vannes,Non trouvé,Non trouvé,,,,https://diplomeo.com/etablissement-lahp_lycee_agricole_kerplouz-6357
Lycée agricole Georges Desclaude,Non trouvé,Lycée agricole,La Rochelle,Non trouvé,Non trouvé,,,,https://diplomeo.com/etablissement-lycee_agricole_georges_desclaude-6358
Lycée agricole et viticole,Non trouvé,Lycée agricole,Laon,Non trouvé,Non trouvé,,,,https://diplomeo.com/etablissement-lycee_agricole_et_viticole-6359
LGTA - Lycée agricole et horticole privé,Non trouvé,Lycée agricole,Rodez,Non trouvé,Non trouvé,,,,https://diplomeo.com/etablissement-lgta_lycee_agricole_et_horticole_prive-6360
Lycée agricole et horticole,Non trouvé,Lycée agricole,Versailles,Non trouvé,Non trouvé,,,,https://diplomeo.com/etablissement-lycee_agricole_et_horticole-6361
Lycée Antoine de Saint-Exupéry,Non trouvé,Lycée agricole,Rennes,Non trouvé,Non trouvé,,,,https://diplomeo.com/etablissement-lycee_antoine_de_saint_exupery-6362
Lycée agricole Etienne Gautier,Non trouvé,Lycée agricole,Saint-Étienne,Non trouvé,Non trouvé,,,,https://diplomeo.com/etablissement-lycee_agricole_etienne_gautier-6363
Lycée agricole et horticole,Non trouvé,Lycée agricole,Metz,Non trouvé,Non trouvé,,,,https://diplomeo.com/etablissement-lycee_agricole_et_horticole-6364
Lycée agricole et agroalimentaire,Non trouvé,Lycée agricole,Lyon,Non trouvé,Non trouvé,,,,https://diplomeo.com/etablissement-lycee_agricole_et_agroalimentaire-6365
Lycée agricole et agroalimentaire Yvetot,Non trouvé,Lycée agricole,Rouen,Non trouvé,Non trouvé,,,,https://diplomeo.com/etablissement-lycee_agricole_et_agroalimentaire_yvetot-6366
LEGTA - Lycée agricole et forestier des Vosges,Non trouvé,Lycée agricole,Mirecourt,Non trouvé,Non trouvé,,,,https://diplomeo.com/etablissement-legta_lycee_agricole_et_forestier_des_vosges-6367
Lycée agricole du Pflixbourg,Non trouvé,Lycée agricole,Colmar,Non trouvé,Non trouvé,,,,https://diplomeo.com/etablissement-lycee_agricole_du_pflixbourg-6368
Lycée agricole Edouard de Chambray,Non trouvé,Lycée agricole,Évreux,Non trouvé,Non trouvé,,,,https://diplomeo.com/etablissement-lycee_agricole_edouard_de_chambray-6370
Lycée agricole d'Obernai,Non trouvé,Lycée agricole,Strasbourg,Non trouvé,Non trouvé,,,,https://diplomeo.com/etablissement-lycee_agricole_d_obernai-6371
Lycée agricole de Vire,Non trouvé,Lycée agricole,Caen,Non trouvé,Non trouvé,,,,https://diplomeo.com/etablissement-lycee_agricole_de_vire-6372
Lycée agricole de Vesoul Etienne Munier,Non trouvé,Lycée agricole,Vesoul,Non trouvé,Non trouvé,,,,https://diplomeo.com/etablissement-lycee_agricole_de_vesoul_etienne_munier-6373
Lycée agricole de St Hilaire du Harcouët,Non trouvé,Lycée agricole,Saint-Lô,Non trouvé,Non trouvé,,,,https://diplomeo.com/etablissement-lycee_agricole_de_st_hilaire_du_harcouet-6374
Lycée agricole du Val de Seille,Non trouvé,Lycée agricole,Metz,Non trouvé,Non trouvé,,,,https://diplomeo.com/etablissement-lycee_agricole_du_val_de_seille-6376
Lycée agricole Edouard Herriot,Non trouvé,Lycée agricole,Bourg-en-Bresse,Non trouvé,Non trouvé,,,,https://diplomeo.com/etablissement-lycee_agricole_edouard_herriot-6377
Lycée agricole de Valdoie Lucien Quelet,Non trouvé,Lycée agricole,Belfort,Non trouvé,Non trouvé,,,,https://diplomeo.com/etablissement-lycee_agricole_de_valdoie_lucien_quelet-6378
Lycée agricole de Montbrison Précieux,Non trouvé,Lycée agricole,Saint-Étienne,Non trouvé,Non trouvé,,,,https://diplomeo.com/etablissement-lycee_agricole_de_montbrison_precieux-6379
Lycée agricole de Meurthe-et-Moselle,Non trouvé,Lycée agricole,Nancy,Non trouvé,Non trouvé,,,,https://diplomeo.com/etablissement-lycee_agricole_de_meurthe_et_moselle-6380
Lycée agricole du Balcon des Ardennes,Non trouvé,Lycée agricole,Charleville-Mézières,Non trouvé,Non trouvé,,,,https://diplomeo.com/etablissement-lycee_agricole_du_balcon_des_ardennes-6381
Lycée agricole de Roanne-Chervé,Non trouvé,Lycée agricole,Saint-Étienne,Non trouvé,Non trouvé,,,,https://diplomeo.com/etablissement-lycee_agricole_de_roanne_cherve-6382
Lycée agricole de Lons le Saunier Mancy,Non trouvé,Lycée agricole,Lons-le-Saunier,Non trouvé,Non trouvé,,,,https://diplomeo.com/etablissement-lycee_agricole_de_lons_le_saunier_mancy-6383
Lycée agricole de Lons le Saunier Edgar Faure,Non trouvé,Lycée agricole,Lons-le-Saunier,Non trouvé,Non trouvé,,,,https://diplomeo.com/etablissement-lycee_agricole_de_lons_le_saunier_edgar_faure-6384
Lycée agricole de la Meuse (site de Bar-le-Duc),Non trouvé,Lycée agricole,Nancy,Non trouvé,Non trouvé,,,,https://diplomeo.com/etablissement-lycee_agricole_de_la_meuse_site_de_bar_le_duc-6385
Lycée agricole de la Thiérache,Non trouvé,Lycée agricole,Laon,Non trouvé,Non trouvé,,,,https://diplomeo.com/etablissement-lycee_agricole_de_la_thierache-6386
Lycée agricole de la Lozère - Site Louis Pasteur,Non trouvé,Lycée agricole,Mende,Non trouvé,Non trouvé,,,,https://diplomeo.com/etablissement-lycee_agricole_de_la_lozere_site_louis_pasteur-6387
Lycée agricole de Coutances,Non trouvé,Lycée agricole,Saint-Lô,Non trouvé,Non trouvé,,,,https://diplomeo.com/etablissement-lycee_agricole_de_coutances-6388
Lycée agricole Granvelle,Non trouvé,Lycée agricole,Dannemarie-sur-Crète,Non trouvé,Non trouvé,,,,https://diplomeo.com/etablissement-lycee_agricole_granvelle-6389
LEGTA - Lycée agricole de Bréhoulou,Non trouvé,Lycée agricole,Quimper,Non trouvé,Non trouvé,,,,https://diplomeo.com/etablissement-legta_lycee_agricole_de_brehoulou-6390
Lycée agricole de Rouffach,Non trouvé,Lycée agricole,Colmar,Non trouvé,Non trouvé,,,,https://diplomeo.com/etablissement-lycee_agricole_de_rouffach-6391
Lycée agricole de Châlons-en-Champagne,Non trouvé,Lycée agricole,Reims,Non trouvé,Non trouvé,,,,https://diplomeo.com/etablissement-lycee_agricole_de_chalons_en_champagne-6392
LEGTA - LPA - Lycée agricole de la Côte Saint André,Non trouvé,Lycée agricole,Grenoble,Non trouvé,Non trouvé,,,,https://diplomeo.com/etablissement-legta_lpa_lycee_agricole_de_la_cote_saint_andre-6393
Lycée agricole Auguste Loutreuil,Non trouvé,Lycée agricole,Alençon,Non trouvé,Non trouvé,,,,https://diplomeo.com/etablissement-lycee_agricole_auguste_loutreuil-6394
Lycée agricole Charles Baltet,Non trouvé,Lycée agricole,Troyes,Non trouvé,Non trouvé,,,,https://diplomeo.com/etablissement-lycee_agricole_charles_baltet-6395
Lycée agricole de Rethel,Non trouvé,Lycée agricole,Charleville-Mézières,Non trouvé,Non trouvé,,,,https://diplomeo.com/etablissement-lycee_agricole_de_rethel-6396
Lycée agricole,Non trouvé,Lycée agricole,Clermont-Ferrand,Non trouvé,Non trouvé,,,,https://diplomeo.com/etablissement-lycee_agricole-6397
Lycée Pommerit,Non trouvé,Lycée agricole,Saint-Brieuc,Non trouvé,Non trouvé,,,,https://diplomeo.com/etablissement-lycee_pommerit-6398
LEGTA - Lycée agricole,Non trouvé,Lycée agricole,Saint-Brieuc,Non trouvé,Non trouvé,,,,https://diplomeo.com/etablissement-legta_lycee_agricole-6399
Lycée Agricampus,Non trouvé,Lycée agricole,Toulon,Non trouvé,Non trouvé,,,,https://diplomeo.com/etablissement-lycee_agricampus-6401
LP Les Horizons,Non trouvé,Lycée agricole,Le Mans,Non trouvé,Non trouvé,,,,https://diplomeo.com/etablissement-lp_les_horizons-6419
LGTA - LEGTPA - Site de Montauban,Non trouvé,Lycée agricole,Montauban,Non trouvé,Non trouvé,,,,https://diplomeo.com/etablissement-lgta_legtpa_site_de_montauban-6461
Lycée Forestier de Meymac - EPL de Haute-Correze,Non trouvé,Lycée agricole,Tulle,Non trouvé,Non trouvé,,,,https://diplomeo.com/etablissement-lycee_forestier_de_meymac_epl_de_haute_correze-6463
ISSAT - LEGTP des Pays de Vilaine,Non trouvé,Lycée agricole,Vannes,Non trouvé,Non trouvé,,,,https://diplomeo.com/etablissement-issat_legtp_des_pays_de_vilaine-6464
LEGTPA Alphonse Defumade,Non trouvé,Lycée agricole,Guéret,Non trouvé,Non trouvé,,,,https://diplomeo.com/etablissement-legtpa_alphonse_defumade-6465
LEGTA Étienne Restat,Non trouvé,Lycée agricole,Agen,Non trouvé,Non trouvé,,,,https://diplomeo.com/etablissement-legta_etienne_restat-6466
LEGTPA Henri Bassaler,Non trouvé,Lycée agricole,Tulle,Non trouvé,Non trouvé,,,,https://diplomeo.com/etablissement-legtpa_henri_bassaler-6467
LEGTPA Henri Queuille,Non trouvé,Lycée agricole,Tulle,Non trouvé,Non trouvé,,,,https://diplomeo.com/etablissement-legtpa_henri_queuille-6468
LEGTPA Limoges les Vaseix,Non trouvé,Lycée agricole,Limoges,Non trouvé,Non trouvé,,,,https://diplomeo.com/etablissement-legtpa_limoges_les_vaseix-6469
Lycée Agricole Olivier de Serres,Non trouvé,Lycée agricole,Quetigny,Non trouvé,Non trouvé,,,,https://diplomeo.com/etablissement-lycee_agricole_olivier_de_serres-6470
LEGTA - LEGTA Quetigny-Plombières les Dijon site Plombières,Non trouvé,Lycée agricole,Dijon,Non trouvé,Non trouvé,,,,https://diplomeo.com/etablissement-legta_legta_quetigny_plombieres_les_dijon_site_plombieres-6471
LEGTPA Edgard Pisani,Non trouvé,Lycée agricole,Tulle,Non trouvé,Non trouvé,,,,https://diplomeo.com/etablissement-legtpa_edgard_pisani-6472
LEGTPA,Non trouvé,Lycée agricole,Limoges,Non trouvé,Non trouvé,,,,https://diplomeo.com/etablissement-legtpa-6473
LEGTAP Rochefeuille,Non trouvé,Lycée agricole,Laval,Non trouvé,Non trouvé,,,,https://diplomeo.com/etablissement-legtap_rochefeuille-6474
LEGTPA Nature,Non trouvé,Lycée agricole,La Roche-sur-Yon,Non trouvé,Non trouvé,,,,https://diplomeo.com/etablissement-legtpa_nature-6475
LEGTAP Briacé,Non trouvé,Lycée agricole,Nantes,Non trouvé,Non trouvé,,,,https://diplomeo.com/etablissement-legtap_briace-6477
LEGTA - LEGTA - lycée agricole et agroalimentaire Campus des Sicaudières,Non trouvé,Lycée agricole,Niort,Non trouvé,Non trouvé,,,,https://diplomeo.com/etablissement-legta_legta_lycee_agricole_et_agroalimentaire_campus_des_sicaudieres-6478
LEGTA - LEGTA - lycée agricole l'Oisellerie d'Angoulême,Non trouvé,Lycée agricole,Angoulême,Non trouvé,Non trouvé,,,,https://diplomeo.com/etablissement-legta_legta_lycee_agricole_l_oisellerie_d_angouleme-6479
LEGTA Lucie Aubrac,Non trouvé,Lycée agricole,Mâcon,Non trouvé,Non trouvé,,,,https://diplomeo.com/etablissement-legta_lucie_aubrac-6480
LEGTA Luçon Pétré,Non trouvé,Lycée agricole,La Roche-sur-Yon,Non trouvé,Non trouvé,,,,https://diplomeo.com/etablissement-legta_lucon_petre-6481
LEGTA Le Fresne,Non trouvé,Lycée agricole,Angers,Non trouvé,Non trouvé,,,,https://diplomeo.com/etablissement-legta_le_fresne-6482
LEGTA - LEGTA Le Gros Chêne,Non trouvé,Lycée agricole,Vannes,Non trouvé,Non trouvé,,,,https://diplomeo.com/etablissement-legta_legta_le_gros_chene-6483
LEGTA La Peyrouse,Non trouvé,Lycée agricole,Périgueux,Non trouvé,Non trouvé,,,,https://diplomeo.com/etablissement-legta_la_peyrouse-6484
LEGTA - LEGTA Garcia Lorca,Non trouvé,Lycée agricole,Perpignan,Non trouvé,Non trouvé,,,,https://diplomeo.com/etablissement-legta_legta_garcia_lorca-6485
ENILV - LEGTA-ENILV Georges Pompidou,Non trouvé,Lycée agricole,Aurillac,Non trouvé,Non trouvé,,,,https://diplomeo.com/etablissement-enilv_legta_enilv_georges_pompidou-6486
LEGTA - Lycée Agricole du Bourbonnais,Non trouvé,Lycée agricole,Moulins,Non trouvé,Non trouvé,,,,https://diplomeo.com/etablissement-legta_lycee_agricole_du_bourbonnais-6489
LEGTA - LEGTA de Pau-Montardon,Non trouvé,Lycée agricole,Pau,Non trouvé,Non trouvé,,,,https://diplomeo.com/etablissement-legta_legta_de_pau_montardon-6490
LEGTA de Nevers-Cosne - Site de Challuy,Non trouvé,Lycée agricole,Nevers,Non trouvé,Non trouvé,,,,https://diplomeo.com/etablissement-legta_de_nevers_cosne_site_de_challuy-6491
LEGTA du Morvan,Non trouvé,Lycée agricole,Nevers,Non trouvé,Non trouvé,,,,https://diplomeo.com/etablissement-legta_du_morvan-6492
LEGTA de l'Oise antenne d'Airion,Non trouvé,Lycée agricole,Compiègne,Non trouvé,Non trouvé,,,,https://diplomeo.com/etablissement-legta_de_l_oise_antenne_d_airion-6493
LEGTA de Laval,Non trouvé,Lycée agricole,Laval,Non trouvé,Non trouvé,,,,https://diplomeo.com/etablissement-legta_de_laval-6494
LEGTA de l'Aulne,Non trouvé,Lycée agricole,Quimper,Non trouvé,Non trouvé,,,,https://diplomeo.com/etablissement-legta_de_l_aulne-6495
LEGTA - LEGTA de la Lozère site Rabelais,Non trouvé,Lycée agricole,Mende,Non trouvé,Non trouvé,,,,https://diplomeo.com/etablissement-legta_legta_de_la_lozere_site_rabelais-6496
LEGTA du Pas de Calais - Site d'Arras,Non trouvé,Lycée agricole,Arras,Non trouvé,Non trouvé,,,,https://diplomeo.com/etablissement-legta_du_pas_de_calais_site_d_arras-6497
LEGTA de Brioude Bonnefont,Non trouvé,Lycée agricole,Le Puy-en-Velay,Non trouvé,Non trouvé,,,,https://diplomeo.com/etablissement-legta_de_brioude_bonnefont-6498
LEGTA de Blanquefort,Non trouvé,Lycée agricole,Blanquefort,Non trouvé,Non trouvé,,,,https://diplomeo.com/etablissement-legta_de_blanquefort-6499
LEGTA du Nord-Site de Douai,Non trouvé,Lycée agricole,Lille,Non trouvé,Non trouvé,,,,https://diplomeo.com/etablissement-legta_du_nord_site_de_douai-6500
LEGTA La Germinière,Non trouvé,Lycée agricole,Le Mans,Non trouvé,Non trouvé,,,,https://diplomeo.com/etablissement-legta_la_germiniere-6501
LEGTA de Bazas,Non trouvé,Lycée agricole,Bordeaux,Non trouvé,Non trouvé,,,,https://diplomeo.com/etablissement-legta_de_bazas-6502
LEGTA d'Amiens Le Paraclet,Non trouvé,Lycée agricole,Cottenchy,Non trouvé,Non trouvé,,,,https://diplomeo.com/etablissement-legta_d_amiens_le_paraclet-6503
LEGTA - LEGTA Hector Serres,Non trouvé,Lycée agricole,Mont-de-Marsan,Non trouvé,Non trouvé,,,,https://diplomeo.com/etablissement-legta_legta_hector_serres-6504
LEGTA d'Auxerre-la Brosse,Non trouvé,Lycée agricole,Auxerre,Non trouvé,Non trouvé,,,,https://diplomeo.com/etablissement-legta_d_auxerre_la_brosse-6505
"LPA - LEGTA d'auch, Beaulieu et Lavacant - site de Lavacant",Non trouvé,Lycée agricole,Auch,Non trouvé,Non trouvé,,,,https://diplomeo.com/etablissement-lpa_legta_d_auch_beaulieu_et_lavacant_site_de_lavacant-6506
"LGTA - LEGTA d'auch, Beaulieu et Lavacant - site de Beaulieu",Non trouvé,Lycée agricole,Auch,Non trouvé,Non trouvé,,,,https://diplomeo.com/etablissement-lgta_legta_d_auch_beaulieu_et_lavacant_site_de_beaulieu-6507
LEGTA Louis Pasteur,Non trouvé,Lycée agricole,Lempdes,Non trouvé,Non trouvé,,,,https://diplomeo.com/etablissement-legta_louis_pasteur-6508
LEGTA Armand Fallières,Non trouvé,Lycée agricole,Agen,Non trouvé,Non trouvé,,,,https://diplomeo.com/etablissement-legta_armand_fallieres-6509
LEGTA - LEGTA Bel Air,Non trouvé,Lycée agricole,La Roche-sur-Yon,Non trouvé,Non trouvé,,,,https://diplomeo.com/etablissement-legta_legta_bel_air-6510
LEGTA - LEGTA agro-viticole de Libourne-Montagne,Non trouvé,Lycée agricole,Bordeaux,Non trouvé,Non trouvé,,,,https://diplomeo.com/etablissement-legta_legta_agro_viticole_de_libourne_montagne-6513
LEGTA,Non trouvé,Lycée agricole,Mâcon,Non trouvé,Non trouvé,,,,https://diplomeo.com/etablissement-legta-6520
LEAP Gabriel Deshayes,Non trouvé,Lycée agricole,Nantes,Non trouvé,Non trouvé,,,,https://diplomeo.com/etablissement-leap_gabriel_deshayes-6521
ESAS - LEAP Val de Sarthe,Non trouvé,Lycée agricole,Le Mans,Non trouvé,Non trouvé,,,,https://diplomeo.com/etablissement-esas_leap_val_de_sarthe-6523
LEGTA,Non trouvé,Lycée agricole,Le Puy-en-Velay,Non trouvé,Non trouvé,,,,https://diplomeo.com/etablissement-legta-6527
LEAP - LEAP Kerlebost,Non trouvé,Lycée agricole,Vannes,Non trouvé,Non trouvé,,,,https://diplomeo.com/etablissement-leap_leap_kerlebost-6530
LEAP Anne de Bretagne,Non trouvé,Lycée agricole,Vannes,Non trouvé,Non trouvé,,,,https://diplomeo.com/etablissement-leap_anne_de_bretagne-6532
LEGTA Jules Rieffel,Non trouvé,Lycée agricole,Nantes,Non trouvé,Non trouvé,,,,https://diplomeo.com/etablissement-legta_jules_rieffel-6547
Centre Horticole d'Enseignement et de Promotion,Non trouvé,Lycée agricole,Versailles,Non trouvé,Non trouvé,,,,https://diplomeo.com/etablissement-centre_horticole_d_enseignement_et_de_promotion-6891
CEFA - Centre d'études forestières et agricoles,Non trouvé,Lycée agricole,Valence,Non trouvé,Non trouvé,,,,https://diplomeo.com/etablissement-cefa_centre_d_etudes_forestieres_et_agricoles-6911
Centre d'élevage de Poisy (Lucien Biset),Non trouvé,Lycée agricole,Annecy,Non trouvé,Non trouvé,,,,https://diplomeo.com/etablissement-centre_d_elevage_de_poisy_lucien_biset-6919
Centre de formation Vivarais Formation,Non trouvé,Lycée agricole,Privas,Non trouvé,Non trouvé,,,,https://diplomeo.com/etablissement-centre_de_formation_vivarais_formation-6953
Campus de Pouillé-Angers,Non trouvé,Lycée agricole,Angers,Non trouvé,Non trouvé,,,,https://diplomeo.com/etablissement-campus_de_pouille_angers-7094
Antenne du lycée agricole de Montbrison Précieux,Non trouvé,Lycée agricole,Saint-Étienne,Non trouvé,Non trouvé,,,,https://diplomeo.com/etablissement-antenne_du_lycee_agricole_de_montbrison_precieux-7219
