name,email,sector,city,phone,website,address,formations,description,url
CFTA de l'abbaye,Non trouvé,Maison familiale et rurale,Rennes,Non trouvé,Non trouvé,,,,https://diplomeo.com/etablissement-cfta_de_l_abbaye-467
IMAA - Institut de mécanique aéronautique et automobile,Non trouvé,Maison familiale et rurale,Annecy,Non trouvé,Non trouvé,,,,https://diplomeo.com/etablissement-imaa_institut_de_mecanique_aeronautique_et_automobile-1249
Maison familiale rurale de Saint-Etienne,Non trouvé,Maison familiale et rurale,Saint-Étienne,Non trouvé,Non trouvé,,,,https://diplomeo.com/etablissement-maison_familiale_rurale_de_saint_etienne-5232
MFREO - Maison familiale rurale de Pontarlier,Non trouvé,Maison familiale et rurale,Besançon,Non trouvé,Non trouvé,,,,https://diplomeo.com/etablissement-mfreo_maison_familiale_rurale_de_pontarlier-5234
MFREO - Maison familiale rurale du Pays de Montbéliard,Non trouvé,Maison familiale et rurale,Besançon,Non trouvé,Non trouvé,,,,https://diplomeo.com/etablissement-mfreo_maison_familiale_rurale_du_pays_de_montbeliard-5236
MFR - Maison familiale rurale de Châteauneuf sur Isère,Non trouvé,Maison familiale et rurale,Valence,Non trouvé,Non trouvé,,,,https://diplomeo.com/etablissement-mfr_maison_familiale_rurale_de_chateauneuf_sur_isere-5238
MFR - Maison familiale rurale d'éducation et d'orientation Val Rance,Non trouvé,Maison familiale et rurale,Rodez,Non trouvé,Non trouvé,,,,https://diplomeo.com/etablissement-mfr_maison_familiale_rurale_d_education_et_d_orientation_val_rance-5239
Maison familiale rurale de l'Orléanais,Non trouvé,Maison familiale et rurale,Orléans,Non trouvé,Non trouvé,,,,https://diplomeo.com/etablissement-maison_familiale_rurale_de_l_orleanais-5240
Maison familiale rurale de Mondy,Non trouvé,Maison familiale et rurale,Valence,Non trouvé,Non trouvé,,,,https://diplomeo.com/etablissement-maison_familiale_rurale_de_mondy-5241
Maison familiale rurale de Fougerolles,Non trouvé,Maison familiale et rurale,Vesoul,Non trouvé,Non trouvé,,,,https://diplomeo.com/etablissement-maison_familiale_rurale_de_fougerolles-5242
MFREO - Maison familiale rurale de Chargey Les Gray,Non trouvé,Maison familiale et rurale,Vesoul,Non trouvé,Non trouvé,,,,https://diplomeo.com/etablissement-mfreo_maison_familiale_rurale_de_chargey_les_gray-5244
MFR Escurolles - Maison familiale rurale d'Escurolles,Non trouvé,Maison familiale et rurale,Moulins,Non trouvé,Non trouvé,,,,https://diplomeo.com/etablissement-mfr_escurolles_maison_familiale_rurale_d_escurolles-5245
Maison familiale rurale,Non trouvé,Maison familiale et rurale,Lyon,Non trouvé,Non trouvé,,,,https://diplomeo.com/etablissement-maison_familiale_rurale-5246
MFR - Maison familiale rurale d'Anneyron,Non trouvé,Maison familiale et rurale,Valence,Non trouvé,Non trouvé,,,,https://diplomeo.com/etablissement-mfr_maison_familiale_rurale_d_anneyron-5247
Maison familiale rurale,Non trouvé,Maison familiale et rurale,Aix-en-Provence,Non trouvé,Non trouvé,,,,https://diplomeo.com/etablissement-maison_familiale_rurale-5248
MFREO - Maison familiale rurale d'éducation et d'orientation,Non trouvé,Maison familiale et rurale,Dijon,Non trouvé,Non trouvé,,,,https://diplomeo.com/etablissement-mfreo_maison_familiale_rurale_d_education_et_d_orientation-5249
MFREO - Maison familiale rurale,Non trouvé,Maison familiale et rurale,Aurillac,Non trouvé,Non trouvé,,,,https://diplomeo.com/etablissement-mfreo_maison_familiale_rurale-5250
Maison familiale rurale,Non trouvé,Maison familiale et rurale,Nancy,Non trouvé,Non trouvé,,,,https://diplomeo.com/etablissement-maison_familiale_rurale-5251
Maison familiale rurale,Non trouvé,Maison familiale et rurale,Lyon,Non trouvé,Non trouvé,,,,https://diplomeo.com/etablissement-maison_familiale_rurale-5252
Maison familiale rurale,Non trouvé,Maison familiale et rurale,Saint-Lô,Non trouvé,Non trouvé,,,,https://diplomeo.com/etablissement-maison_familiale_rurale-5253
MFR - Maison Familiale et Rurale de la Saintonge et de l'Aunis,Non trouvé,Maison familiale et rurale,La Rochelle,Non trouvé,Non trouvé,,,,https://diplomeo.com/etablissement-mfr_maison_familiale_et_rurale_de_la_saintonge_et_de_l_aunis-5254
Maison familiale rurale,Non trouvé,Maison familiale et rurale,Agen,Non trouvé,Non trouvé,,,,https://diplomeo.com/etablissement-maison_familiale_rurale-5255
Maison familiale rurale,Non trouvé,Maison familiale et rurale,Nancy,Non trouvé,Non trouvé,,,,https://diplomeo.com/etablissement-maison_familiale_rurale-5256
MFR - Maison Familiale et Rurale de Périgueux,Non trouvé,Maison familiale et rurale,Périgueux,Non trouvé,Non trouvé,,,,https://diplomeo.com/etablissement-mfr_maison_familiale_et_rurale_de_perigueux-5257
Maison familiale et rurale de Saint-Egrève,Non trouvé,Maison familiale et rurale,Grenoble,Non trouvé,Non trouvé,,,,https://diplomeo.com/etablissement-maison_familiale_et_rurale_de_saint_egreve-5258
MFR - Maison Familiale et Rurale de Chauvigny,Non trouvé,Maison familiale et rurale,Poitiers,Non trouvé,Non trouvé,,,,https://diplomeo.com/etablissement-mfr_maison_familiale_et_rurale_de_chauvigny-5259
MFR - Maison Familiale et Rurale de Brioux sur Boutonne,Non trouvé,Maison familiale et rurale,Niort,Non trouvé,Non trouvé,,,,https://diplomeo.com/etablissement-mfr_maison_familiale_et_rurale_de_brioux_sur_boutonne-5260
MFR - Maison Familiale et Rurale de Cherves Richemont,Non trouvé,Maison familiale et rurale,Angoulême,Non trouvé,Non trouvé,,,,https://diplomeo.com/etablissement-mfr_maison_familiale_et_rurale_de_cherves_richemont-5261
Maison familiale rurale,Non trouvé,Maison familiale et rurale,Bourg-en-Bresse,Non trouvé,Non trouvé,,,,https://diplomeo.com/etablissement-maison_familiale_rurale-5262
MFREO - Maison familiale et rurale Chaumont Eyzin Pinet,Non trouvé,Maison familiale et rurale,Grenoble,Non trouvé,Non trouvé,,,,https://diplomeo.com/etablissement-mfreo_maison_familiale_et_rurale_chaumont_eyzin_pinet-5265
MFR - Maison familiale et rurale d'Annecy Le Vieux,Non trouvé,Maison familiale et rurale,Annecy,Non trouvé,Non trouvé,,,,https://diplomeo.com/etablissement-mfr_maison_familiale_et_rurale_d_annecy_le_vieux-5266
MFR - Maison Familiale et Rurale de Moirans,Non trouvé,Maison familiale et rurale,Grenoble,Non trouvé,Non trouvé,,,,https://diplomeo.com/etablissement-mfr_maison_familiale_et_rurale_de_moirans-5272
Maison familiale de la forêt et de l'environnement,Non trouvé,Maison familiale et rurale,Vannes,Non trouvé,Non trouvé,,,,https://diplomeo.com/etablissement-maison_familiale_de_la_foret_et_de_l_environnement-5295
MFR - Maison familiale et rurale Castelnau,Non trouvé,Maison familiale et rurale,Mont-de-Marsan,Non trouvé,Non trouvé,,,,https://diplomeo.com/etablissement-mfr_maison_familiale_et_rurale_castelnau-5296
MFREO - Maison familiale d'éducation et d'orientation de Javols,Non trouvé,Maison familiale et rurale,Mende,Non trouvé,Non trouvé,,,,https://diplomeo.com/etablissement-mfreo_maison_familiale_d_education_et_d_orientation_de_javols-5298
Maison familiale d'éducation et d'orientation,Non trouvé,Maison familiale et rurale,Saint-Brieuc,Non trouvé,Non trouvé,,,,https://diplomeo.com/etablissement-maison_familiale_d_education_et_d_orientation-5301
MFREO - Maison familiale d'éducation et d'orientation,Non trouvé,Maison familiale et rurale,Auxerre,Non trouvé,Non trouvé,,,,https://diplomeo.com/etablissement-mfreo_maison_familiale_d_education_et_d_orientation-5312
MFREO - Maison familiale d'éducation et d'orientation,Non trouvé,Maison familiale et rurale,Dijon,Non trouvé,Non trouvé,,,,https://diplomeo.com/etablissement-mfreo_maison_familiale_d_education_et_d_orientation-5314
CFTA - Centre de formation de techniciens agricoles,Non trouvé,Maison familiale et rurale,Alençon,Non trouvé,Non trouvé,,,,https://diplomeo.com/etablissement-cfta_centre_de_formation_de_techniciens_agricoles-6997
Centre de Formation aux Métiers de la Montagne,Non trouvé,Maison familiale et rurale,Annecy,Non trouvé,Non trouvé,,,,https://diplomeo.com/etablissement-centre_de_formation_aux_metiers_de_la_montagne-7059
