name,email,sector,city,phone,website,address,formations,description,url
"Centre universitaire de Troyes, Université de Reims Champagne-Ardenne",Non trouvé,Unité de formation et de recherche,Troyes,Non trouvé,Non trouvé,,,,https://diplomeo.com/etablissement-centre_universitaire_de_troyes_universite_de_reims_champagne_ardenne-1
EJCM - Ecole de journalisme et de communication d'Aix-Marseille,Non trouvé,Unité de formation et de recherche,Marseille,Non trouvé,Non trouvé,,,,https://diplomeo.com/etablissement-ejcm_ecole_de_journalisme_et_de_communication_d_aix_marseille-53
"LEM - Ecole de délégués médicaux Lille 2, Université de Lille 2",Non trouvé,Unité de formation et de recherche,Lille,Non trouvé,Non trouvé,,,,https://diplomeo.com/etablissement-lem_ecole_de_delegues_medicaux_lille_2_universite_de_lille_2-79
"DUSA - Département universitaire des sciences d'Agen, Université Bordeaux I",Non trouvé,Unité de formation et de recherche,Agen,Non trouvé,Non trouvé,,,,https://diplomeo.com/etablissement-dusa_departement_universitaire_des_sciences_d_agen_universite_bordeaux_i-159
Département STAPS (CUFR Jean-François Champollion),Non trouvé,Unité de formation et de recherche,Rodez,Non trouvé,Non trouvé,,,,https://diplomeo.com/etablissement-departement_staps_cufr_jean_francois_champollion-160
"SATIS - Département sciences, Arts et Techniques de l'image et du son, Université Aix-Marseille I",Non trouvé,Unité de formation et de recherche,Aix-en-Provence,Non trouvé,Non trouvé,,,,https://diplomeo.com/etablissement-satis_departement_sciences_arts_et_techniques_de_l_image_et_du_son_universite_aix_marseille_i-161
"INALCO - Département Russie (INALCO), Institut national des langues et civilisations orientales",Non trouvé,Unité de formation et de recherche,Nanterre,Non trouvé,Non trouvé,,,,https://diplomeo.com/etablissement-inalco_departement_russie_inalco_institut_national_des_langues_et_civilisations_orientales-162
"Département licence, Université Bordeaux I",Non trouvé,Unité de formation et de recherche,Bordeaux,Non trouvé,Non trouvé,,,,https://diplomeo.com/etablissement-departement_licence_universite_bordeaux_i-164
Département sciences humaines et sociales (CUFR Jean-François Champollion),Non trouvé,Unité de formation et de recherche,Albi,Non trouvé,Non trouvé,,,,https://diplomeo.com/etablissement-departement_sciences_humaines_et_sociales_cufr_jean_francois_champollion-166
"INALCO - Département études arabes, Institut national des langues et civilisations orientales",Non trouvé,Unité de formation et de recherche,Nanterre,Non trouvé,Non trouvé,,,,https://diplomeo.com/etablissement-inalco_departement_etudes_arabes_institut_national_des_langues_et_civilisations_orientales-169
"Département LSO (licence sciences des organisations), Université Paris-Dauphine",Non trouvé,Unité de formation et de recherche,Paris,Non trouvé,Non trouvé,,,,https://diplomeo.com/etablissement-departement_lso_licence_sciences_des_organisations_universite_paris_dauphine-170
"Département mathématiques et informatique de la décision et des organisations (MIDO), Université Paris-Dauphine",Non trouvé,Unité de formation et de recherche,Paris,Non trouvé,Non trouvé,,,,https://diplomeo.com/etablissement-departement_mathematiques_et_informatique_de_la_decision_et_des_organisations_mido_universite_paris_dauphine-171
"INALCO - Département langues et civilisations hébraïques et juives, Institut national des langues et civilisations orientales",Non trouvé,Unité de formation et de recherche,Nanterre,Non trouvé,Non trouvé,,,,https://diplomeo.com/etablissement-inalco_departement_langues_et_civilisations_hebraiques_et_juives_institut_national_des_langues_et_civilisations_orientales-172
Département lettres langues et art (CUFR Jean-François Champollion),Non trouvé,Unité de formation et de recherche,Albi,Non trouvé,Non trouvé,,,,https://diplomeo.com/etablissement-departement_lettres_langues_et_art_cufr_jean_francois_champollion-173
"Département MSO (master des sciences des organisations), Université Paris-Dauphine",Non trouvé,Unité de formation et de recherche,Paris,Non trouvé,Non trouvé,,,,https://diplomeo.com/etablissement-departement_mso_master_des_sciences_des_organisations_universite_paris_dauphine-174
"Département Génie Civil d'Egletons, Université de Limoges",Non trouvé,Unité de formation et de recherche,Tulle,Non trouvé,Non trouvé,,,,https://diplomeo.com/etablissement-departement_genie_civil_d_egletons_universite_de_limoges-175
"INALCO - Département langue et civilisation du Japon, Institut national des langues et civilisations orientales",Non trouvé,Unité de formation et de recherche,Paris,Non trouvé,Non trouvé,,,,https://diplomeo.com/etablissement-inalco_departement_langue_et_civilisation_du_japon_institut_national_des_langues_et_civilisations_orientales-178
"INALCO - Département Eurasie (INALCO), Institut national des langues et civilisations orientales",Non trouvé,Unité de formation et de recherche,Nanterre,Non trouvé,Non trouvé,,,,https://diplomeo.com/etablissement-inalco_departement_eurasie_inalco_institut_national_des_langues_et_civilisations_orientales-179
"DEFLE - Département d'études de français langue étrangère, Université Bordeaux III",Non trouvé,Unité de formation et de recherche,Bordeaux,Non trouvé,Non trouvé,,,,https://diplomeo.com/etablissement-defle_departement_d_etudes_de_francais_langue_etrangere_universite_bordeaux_iii-180
"INALCO - Département Europe centrale et orientale (INALCO), Institut national des langues et civilisations orientales",Non trouvé,Unité de formation et de recherche,Nanterre,Non trouvé,Non trouvé,,,,https://diplomeo.com/etablissement-inalco_departement_europe_centrale_et_orientale_inalco_institut_national_des_langues_et_civilisations_orientales-181
"Département d'études territoriales, Université de Strasbourg",Non trouvé,Unité de formation et de recherche,Strasbourg,Non trouvé,Non trouvé,,,,https://diplomeo.com/etablissement-departement_d_etudes_territoriales_universite_de_strasbourg-183
"Département de sciences et arts, Université de Nîmes",Non trouvé,Unité de formation et de recherche,Nîmes,Non trouvé,Non trouvé,,,,https://diplomeo.com/etablissement-departement_de_sciences_et_arts_universite_de_nimes-184
"UFR arts, lettres, langues, sciences humaines - antenne de Lambesc, Université d'Aix-Marseille",Non trouvé,Unité de formation et de recherche,Lambesc,Non trouvé,Non trouvé,,,,https://diplomeo.com/etablissement-ufr_arts_lettres_langues_sciences_humaines_antenne_de_lambesc_universite_d_aix_marseille-185
"Dpt EEA - Département EEA (Electronique, Electrotechnique et Automatique) de l'UFR des sciences, Université Picardie Jules Verne Amiens",Non trouvé,Unité de formation et de recherche,Amiens,Non trouvé,Non trouvé,,,,https://diplomeo.com/etablissement-dpt_eea_departement_eea_electronique_electrotechnique_et_automatique_de_l_ufr_des_sciences_universite_picardie_jules_verne_amiens-186
"Département d'études arabes et hébraïques, Université Paris-Sorbonne Paris IV",Non trouvé,Unité de formation et de recherche,Paris,Non trouvé,Non trouvé,,,,https://diplomeo.com/etablissement-departement_d_etudes_arabes_et_hebraiques_universite_paris_sorbonne_paris_iv-187
"DENTES - Département environnement, technologies et société, Université Aix-Marseille I",Non trouvé,Unité de formation et de recherche,Marseille,Non trouvé,Non trouvé,,,,https://diplomeo.com/etablissement-dentes_departement_environnement_technologies_et_societe_universite_aix_marseille_i-188
"Département de médiation culturelle, Université de la Sorbonne Nouvelle",Non trouvé,Unité de formation et de recherche,Paris,Non trouvé,Non trouvé,,,,https://diplomeo.com/etablissement-departement_de_mediation_culturelle_universite_de_la_sorbonne_nouvelle-189
"Département de l'enseignement du Français à l'International, Université Lille 3",Non trouvé,Unité de formation et de recherche,Lille,Non trouvé,Non trouvé,,,,https://diplomeo.com/etablissement-departement_de_l_enseignement_du_francais_a_l_international_universite_lille_3-190
Département de droit et économie - Institut National Universitaire Jean-François Champollion,Non trouvé,Unité de formation et de recherche,Albi,Non trouvé,Non trouvé,,,,https://diplomeo.com/etablissement-departement_de_droit_et_economie_institut_national_universitaire_jean_francois_champollion-191
"INALCO - Département Asie du sud, Institut national des langues et civilisations orientales",Non trouvé,Unité de formation et de recherche,Paris,Non trouvé,Non trouvé,,,,https://diplomeo.com/etablissement-inalco_departement_asie_du_sud_institut_national_des_langues_et_civilisations_orientales-193
"INALCO - Département Asie du Sud Est Haute Asie Pacifique, Institut national des langues et civilisations orientales",Non trouvé,Unité de formation et de recherche,Paris,Non trouvé,Non trouvé,,,,https://diplomeo.com/etablissement-inalco_departement_asie_du_sud_est_haute_asie_pacifique_institut_national_des_langues_et_civilisations_orientales-194
"Département arts - musique, Université d'Evry-Val-d'Essonne",Non trouvé,Unité de formation et de recherche,Évry,Non trouvé,Non trouvé,,,,https://diplomeo.com/etablissement-departement_arts_musique_universite_d_evry_val_d_essonne-195
"Département de droit, économie et gestion, Université de Nîmes",Non trouvé,Unité de formation et de recherche,Nîmes,Non trouvé,Non trouvé,,,,https://diplomeo.com/etablissement-departement_de_droit_economie_et_gestion_universite_de_nimes-196
"INALCO - Département Chine, Institut national des langues et civilisations orientales",Non trouvé,Unité de formation et de recherche,Paris,Non trouvé,Non trouvé,,,,https://diplomeo.com/etablissement-inalco_departement_chine_institut_national_des_langues_et_civilisations_orientales-198
"Département des langues, Université d'Evry-Val-d'Essonne",Non trouvé,Unité de formation et de recherche,Évry-Courcouronnes,Non trouvé,Non trouvé,,,,https://diplomeo.com/etablissement-departement_des_langues_universite_d_evry_val_d_essonne-199
"LEA UM3 - Département de langues étrangères appliquées, Université Montpellier III",Non trouvé,Unité de formation et de recherche,Montpellier,Non trouvé,Non trouvé,,,,https://diplomeo.com/etablissement-lea_um3_departement_de_langues_etrangeres_appliquees_universite_montpellier_iii-200
"DLVP - Département de langues vivantes pratiques, Université Bordeaux II",Non trouvé,Unité de formation et de recherche,Bordeaux,Non trouvé,Non trouvé,,,,https://diplomeo.com/etablissement-dlvp_departement_de_langues_vivantes_pratiques_universite_bordeaux_ii-201
Département de sciences (CUFR Jean-François Champollion),Non trouvé,Unité de formation et de recherche,Albi,Non trouvé,Non trouvé,,,,https://diplomeo.com/etablissement-departement_de_sciences_cufr_jean_francois_champollion-202
"Département de psychologie, lettres, langues et histoire, Université de Nîmes",Non trouvé,Unité de formation et de recherche,Nîmes,Non trouvé,Non trouvé,,,,https://diplomeo.com/etablissement-departement_de_psychologie_lettres_langues_et_histoire_universite_de_nimes-203
Domaine universitaire choletais de l'université d'Angers,Non trouvé,Unité de formation et de recherche,Angers,Non trouvé,Non trouvé,,,,https://diplomeo.com/etablissement-domaine_universitaire_choletais_de_l_universite_d_angers-205
"INALCO - Département Afrique, Institut national des langues et civilisations orientales",Non trouvé,Unité de formation et de recherche,Paris,Non trouvé,Non trouvé,,,,https://diplomeo.com/etablissement-inalco_departement_afrique_institut_national_des_langues_et_civilisations_orientales-206
CPP Lorraine - Cycle préparatoire polytechique de l'INP de Lorraine,Non trouvé,Unité de formation et de recherche,Nancy,Non trouvé,Non trouvé,,,,https://diplomeo.com/etablissement-cpp_lorraine_cycle_preparatoire_polytechique_de_l_inp_de_lorraine-221
CNAM Entreprises - Conservatoire national des arts et métiers,Non trouvé,Unité de formation et de recherche,Paris,Non trouvé,Non trouvé,,,,https://diplomeo.com/etablissement-cnam_entreprises_conservatoire_national_des_arts_et_metiers-434
"CFMI - Centre de formation de musiciens intervenant à l'école de l'université de Poitiers, Université de Poitiers",Non trouvé,Unité de formation et de recherche,Poitiers,Non trouvé,Non trouvé,,,,https://diplomeo.com/etablissement-cfmi_centre_de_formation_de_musiciens_intervenant_a_l_ecole_de_l_universite_de_poitiers_universite_de_poitiers-479
"CEPE - IAE UFR - CEPE - Centre européen des produits de l'enfant IAE annexe de Poitiers, Université de Poitiers",Non trouvé,Unité de formation et de recherche,Angoulême,Non trouvé,Non trouvé,,,,https://diplomeo.com/etablissement-cepe_iae_ufr_cepe_centre_europeen_des_produits_de_l_enfant_iae_annexe_de_poitiers_universite_de_poitiers-975
"CUR - Centre universitaire roannais, Université Jean Monnet Saint-Etienne",Non trouvé,Unité de formation et de recherche,Saint-Étienne,Non trouvé,Non trouvé,,,,https://diplomeo.com/etablissement-cur_centre_universitaire_roannais_universite_jean_monnet_saint_etienne-976
"CUEEP - Centre université économie d'éducation permanente, Université Lille 1",Non trouvé,Unité de formation et de recherche,Lille,Non trouvé,Non trouvé,,,,https://diplomeo.com/etablissement-cueep_centre_universite_economie_d_education_permanente_universite_lille_1-978
"Centre universitaire Toulouse I, Université Toulouse I Capitole",Non trouvé,Unité de formation et de recherche,Montauban,Non trouvé,Non trouvé,,,,https://diplomeo.com/etablissement-centre_universitaire_toulouse_i_universite_toulouse_i_capitole-979
"ULCO - Centre universitaire du musée, Université du Littoral - Côte d'Opale",Non trouvé,Unité de formation et de recherche,Arras,Non trouvé,Non trouvé,,,,https://diplomeo.com/etablissement-ulco_centre_universitaire_du_musee_universite_du_littoral_cote_d_opale-981
"Centre universitaire départemental - antenne de l'université de Nantes, Université de Nantes",Non trouvé,Unité de formation et de recherche,La Roche-sur-Yon,Non trouvé,Non trouvé,,,,https://diplomeo.com/etablissement-centre_universitaire_departemental_antenne_de_l_universite_de_nantes_universite_de_nantes-982
"ULCO - Centre universitaire Lamartine, Université du Littoral - Côte d'Opale",Non trouvé,Unité de formation et de recherche,Lille,Non trouvé,Non trouvé,,,,https://diplomeo.com/etablissement-ulco_centre_universitaire_lamartine_universite_du_littoral_cote_d_opale-984
"Centre universitaire UFR de physique chimie automatique, Université Toulouse III",Non trouvé,Unité de formation et de recherche,Tarbes,Non trouvé,Non trouvé,,,,https://diplomeo.com/etablissement-centre_universitaire_ufr_de_physique_chimie_automatique_universite_toulouse_iii-985
Centre universitaire La forêt - Université de Valenciennes,Non trouvé,Unité de formation et de recherche,Lille,Non trouvé,Non trouvé,,,,https://diplomeo.com/etablissement-centre_universitaire_la_foret_universite_de_valenciennes-987
Centre universitaire La forêt - Université de Lille 2,Non trouvé,Unité de formation et de recherche,Lille,Non trouvé,Non trouvé,,,,https://diplomeo.com/etablissement-centre_universitaire_la_foret_universite_de_lille_2-988
"Faculté de Droit, d'Economie et de Gestion (Centre universitaire d'études juridiques de Bourges) - site de Bourges, Université d'Orléans",Non trouvé,Unité de formation et de recherche,Bourges,Non trouvé,Non trouvé,,,,https://diplomeo.com/etablissement-faculte_de_droit_d_economie_et_de_gestion_centre_universitaire_d_etudes_juridiques_de_bourges_site_de_bourges_universite_d_orleans-989
"IUP management du sport, Université de Nice - Sophia Antipolis",Non trouvé,Unité de formation et de recherche,Nice,Non trouvé,Non trouvé,,,,https://diplomeo.com/etablissement-iup_management_du_sport_universite_de_nice_sophia_antipolis-990
"IUPIIA - IUP innovation en industries alimentaires, Université de Bretagne Occidentale",Non trouvé,Unité de formation et de recherche,Quimper,Non trouvé,Non trouvé,,,,https://diplomeo.com/etablissement-iupiia_iup_innovation_en_industries_alimentaires_universite_de_bretagne_occidentale-991
"IUP IS - IUP ingénierie de la santé, Université Picardie Jules Verne Amiens",Non trouvé,Unité de formation et de recherche,Amiens,Non trouvé,Non trouvé,,,,https://diplomeo.com/etablissement-iup_is_iup_ingenierie_de_la_sante_universite_picardie_jules_verne_amiens-992
"IUP banque et assurance, Université de Caen Basse-Normandie",Non trouvé,Unité de formation et de recherche,Caen,Non trouvé,Non trouvé,,,,https://diplomeo.com/etablissement-iup_banque_et_assurance_universite_de_caen_basse_normandie-993
"IUP Droit de l'urbanisme et de l'immobilier, Université de Perpignan Via Domitia",Non trouvé,Unité de formation et de recherche,Carcassonne,Non trouvé,Non trouvé,,,,https://diplomeo.com/etablissement-iup_droit_de_l_urbanisme_et_de_l_immobilier_universite_de_perpignan_via_domitia-994
"UFR Sciences de l'Homme et de la Société, Université de Rouen",Non trouvé,Unité de formation et de recherche,Mont-Saint-Aignan,Non trouvé,Non trouvé,,,,https://diplomeo.com/etablissement-ufr_sciences_de_l_homme_et_de_la_societe_universite_de_rouen-995
"IECA - Institut européen de cinéma et d'audiovisuel, Nancy-Université - Nancy 2",Non trouvé,Unité de formation et de recherche,Nancy,Non trouvé,Non trouvé,,,,https://diplomeo.com/etablissement-ieca_institut_europeen_de_cinema_et_d_audiovisuel_nancy_universite_nancy_2-1026
"Institut du thermalisme, Université Bordeaux II",Non trouvé,Unité de formation et de recherche,Mont-de-Marsan,Non trouvé,Non trouvé,,,,https://diplomeo.com/etablissement-institut_du_thermalisme_universite_bordeaux_ii-1031
"IUG - Institut d'urbanisme de Grenoble, Université Pierre Mendès France - Grenoble 2",Non trouvé,Unité de formation et de recherche,Grenoble,Non trouvé,Non trouvé,,,,https://diplomeo.com/etablissement-iug_institut_d_urbanisme_de_grenoble_universite_pierre_mendes_france_grenoble_2-1032
"IUL - Institut d'urbanisme de Lyon, Université Lumière - Lyon 2",Non trouvé,Unité de formation et de recherche,Lyon,Non trouvé,Non trouvé,,,,https://diplomeo.com/etablissement-iul_institut_d_urbanisme_de_lyon_universite_lumiere_lyon_2-1033
"IMMD - Institut du marketing et du management de la distribution, Université de Lille 2",Non trouvé,Unité de formation et de recherche,Lille,Non trouvé,Non trouvé,,,,https://diplomeo.com/etablissement-immd_institut_du_marketing_et_du_management_de_la_distribution_universite_de_lille_2-1038
"Institut du droit de la paix et du développement, Université de Nice - Sophia Antipolis",Non trouvé,Unité de formation et de recherche,Nice,Non trouvé,Non trouvé,,,,https://diplomeo.com/etablissement-institut_du_droit_de_la_paix_et_du_developpement_universite_de_nice_sophia_antipolis-1041
"IEP - Institut d'études politiques (Sciences Po Grenoble), Université Grenoble Alpes (COMUE)",Non trouvé,Unité de formation et de recherche,Grenoble,Non trouvé,Non trouvé,,,,https://diplomeo.com/etablissement-iep_institut_d_etudes_politiques_sciences_po_grenoble_universite_grenoble_alpes_comue-1044
"Institut d'urbanisme de Paris, Université Paris-Est Créteil Val-de-Marne",Non trouvé,Unité de formation et de recherche,Créteil,Non trouvé,Non trouvé,,,,https://diplomeo.com/etablissement-institut_d_urbanisme_de_paris_universite_paris_est_creteil_val_de_marne-1045
"IEJ - Institut d'études judiciaires, Université Picardie Jules Verne Amiens",Non trouvé,Unité de formation et de recherche,Amiens,Non trouvé,Non trouvé,,,,https://diplomeo.com/etablissement-iej_institut_d_etudes_judiciaires_universite_picardie_jules_verne_amiens-1059
"DEJEP - Département d'études juridiques et économiques de Périgueux, Université de Bordeaux",Non trouvé,Unité de formation et de recherche,Périgueux,Non trouvé,Non trouvé,,,,https://diplomeo.com/etablissement-dejep_departement_d_etudes_juridiques_et_economiques_de_perigueux_universite_de_bordeaux-1060
"IEJ - Institut d'études judiciaires, Université Grenoble Alpes (COMUE)",Non trouvé,Unité de formation et de recherche,Grenoble,Non trouvé,Non trouvé,,,,https://diplomeo.com/etablissement-iej_institut_d_etudes_judiciaires_universite_grenoble_alpes_comue-1061
"IEJ - Institut d'études judiciaires, Université Pau et Pays de l'Adour",Non trouvé,Unité de formation et de recherche,Pau,Non trouvé,Non trouvé,,,,https://diplomeo.com/etablissement-iej_institut_d_etudes_judiciaires_universite_pau_et_pays_de_l_adour-1063
"IEJ - Institut d'études judiciaires, Université Rennes 1",Non trouvé,Unité de formation et de recherche,Rennes,Non trouvé,Non trouvé,,,,https://diplomeo.com/etablissement-iej_institut_d_etudes_judiciaires_universite_rennes_1-1065
"IEJ - Institut d'études judiciaires, Université Jean Moulin - Lyon 3",Non trouvé,Unité de formation et de recherche,Lyon,Non trouvé,Non trouvé,,,,https://diplomeo.com/etablissement-iej_institut_d_etudes_judiciaires_universite_jean_moulin_lyon_3-1066
"IEJ - Institut d'études judiciaires, Université Panthéon-Assas",Non trouvé,Unité de formation et de recherche,Paris,Non trouvé,Non trouvé,,,,https://diplomeo.com/etablissement-iej_institut_d_etudes_judiciaires_universite_pantheon_assas-1067
"IEJ - Institut d'études judiciaires, Université Panthéon-Sorbonne",Non trouvé,Unité de formation et de recherche,Paris,Non trouvé,Non trouvé,,,,https://diplomeo.com/etablissement-iej_institut_d_etudes_judiciaires_universite_pantheon_sorbonne-1068
"IEJ - Institut d'études judiciaires, Université de Valenciennes et du Hainaut Cambrésis",Non trouvé,Unité de formation et de recherche,Lille,Non trouvé,Non trouvé,,,,https://diplomeo.com/etablissement-iej_institut_d_etudes_judiciaires_universite_de_valenciennes_et_du_hainaut_cambresis-1069
"IEJ - Institut d'études judiciaires, Université d'Evry-Val-d'Essonne",Non trouvé,Unité de formation et de recherche,Évry-Courcouronnes,Non trouvé,Non trouvé,,,,https://diplomeo.com/etablissement-iej_institut_d_etudes_judiciaires_universite_d_evry_val_d_essonne-1070
"IEJ - Institut d'études judiciaires, Université de Nantes",Non trouvé,Unité de formation et de recherche,Nantes,Non trouvé,Non trouvé,,,,https://diplomeo.com/etablissement-iej_institut_d_etudes_judiciaires_universite_de_nantes-1072
"IEJ - Institut d'études judiciaires, Université de Limoges",Non trouvé,Unité de formation et de recherche,Limoges,Non trouvé,Non trouvé,,,,https://diplomeo.com/etablissement-iej_institut_d_etudes_judiciaires_universite_de_limoges-1073
"IEJ - Institut d'études judiciaires, Université de Cergy-Pontoise",Non trouvé,Unité de formation et de recherche,Cergy,Non trouvé,Non trouvé,,,,https://diplomeo.com/etablissement-iej_institut_d_etudes_judiciaires_universite_de_cergy_pontoise-1075
"IEJ - Institut d'études judiciaires, Université de Caen Basse-Normandie",Non trouvé,Unité de formation et de recherche,Caen,Non trouvé,Non trouvé,,,,https://diplomeo.com/etablissement-iej_institut_d_etudes_judiciaires_universite_de_caen_basse_normandie-1076
"IEJ - Institut d'études judiciaires, Université Bordeaux",Non trouvé,Unité de formation et de recherche,Bordeaux,Non trouvé,Non trouvé,,,,https://diplomeo.com/etablissement-iej_institut_d_etudes_judiciaires_universite_bordeaux-1077
"IEJ - Institut d'études judiciaires - UFR de Droit de Toulon, Université de Toulon",Non trouvé,Unité de formation et de recherche,Toulon,Non trouvé,Non trouvé,,,,https://diplomeo.com/etablissement-iej_institut_d_etudes_judiciaires_ufr_de_droit_de_toulon_universite_de_toulon-1079
"IEJ - Institut d'études judiciaires - Faculté sciences juridiques politiques, Université de Lille 2",Non trouvé,Unité de formation et de recherche,Lille,Non trouvé,Non trouvé,,,,https://diplomeo.com/etablissement-iej_institut_d_etudes_judiciaires_faculte_sciences_juridiques_politiques_universite_de_lille_2-1080
"IEJ - Institut d'études judiciaires, Université de Reims Champagne-Ardenne",Non trouvé,Unité de formation et de recherche,Reims,Non trouvé,Non trouvé,,,,https://diplomeo.com/etablissement-iej_institut_d_etudes_judiciaires_universite_de_reims_champagne_ardenne-1081
"IEJ - Institut d'études judiciaires, Université de Rouen",Non trouvé,Unité de formation et de recherche,Rouen,Non trouvé,Non trouvé,,,,https://diplomeo.com/etablissement-iej_institut_d_etudes_judiciaires_universite_de_rouen-1082
"Institut d'études judiciaires - Faculté de Droit, sciences politiques, économie et gestion, Université de Nice - Sophia Antipolis",Non trouvé,Unité de formation et de recherche,Nice,Non trouvé,Non trouvé,,,,https://diplomeo.com/etablissement-institut_d_etudes_judiciaires_faculte_de_droit_sciences_politiques_economie_et_gestion_universite_de_nice_sophia_antipolis-1083
"IEJ - Institut d'études judiciaires, Université de Lorraine",Non trouvé,Unité de formation et de recherche,Nancy,Non trouvé,Non trouvé,,,,https://diplomeo.com/etablissement-iej_institut_d_etudes_judiciaires_universite_de_lorraine-1085
"Institut d'études européennes, Université Vincennes-Saint-Denis",Non trouvé,Unité de formation et de recherche,Bobigny,Non trouvé,Non trouvé,,,,https://diplomeo.com/etablissement-institut_d_etudes_europeennes_universite_vincennes_saint_denis-1086
"IEJ - Institut d'études judiciaires, Université Paris-Sud",Non trouvé,Unité de formation et de recherche,Nanterre,Non trouvé,Non trouvé,,,,https://diplomeo.com/etablissement-iej_institut_d_etudes_judiciaires_universite_paris_sud-1087
"Institut d'études judiciaires Henri Motulsky, Université Paris Ouest Nanterre La Défense",Non trouvé,Unité de formation et de recherche,Nanterre,Non trouvé,Non trouvé,,,,https://diplomeo.com/etablissement-institut_d_etudes_judiciaires_henri_motulsky_universite_paris_ouest_nanterre_la_defense-1089
"IEJ - Institut d'études judiciaires UFR droit et science politique, Université d'Auvergne",Non trouvé,Unité de formation et de recherche,Clermont-Ferrand,Non trouvé,Non trouvé,,,,https://diplomeo.com/etablissement-iej_institut_d_etudes_judiciaires_ufr_droit_et_science_politique_universite_d_auvergne-1090
"IETL - Institut d'études du travail de Lyon, Université Lumière - Lyon 2",Non trouvé,Unité de formation et de recherche,Lyon,Non trouvé,Non trouvé,,,,https://diplomeo.com/etablissement-ietl_institut_d_etudes_du_travail_de_lyon_universite_lumiere_lyon_2-1091
Université de Versailles-Saint-Quentin-en-Yvelines - Institut d'études culturelles,Non trouvé,Unité de formation et de recherche,Versailles,Non trouvé,Non trouvé,,,,https://diplomeo.com/etablissement-universite_de_versailles_saint_quentin_en_yvelines_institut_d_etudes_culturelles-1093
"Institut d'études françaises pour étudiants étrangers, Université Paul Cézanne - Aix-Marseille III",Non trouvé,Unité de formation et de recherche,Aix-en-Provence,Non trouvé,Non trouvé,,,,https://diplomeo.com/etablissement-institut_d_etudes_francaises_pour_etudiants_etrangers_universite_paul_cezanne_aix_marseille_iii-1095
"Institut d'électronique et d'informatique Gaspard Monge, Université Paris-Est Marne-La-Vallée",Non trouvé,Unité de formation et de recherche,Melun,Non trouvé,Non trouvé,,,,https://diplomeo.com/etablissement-institut_d_electronique_et_d_informatique_gaspard_monge_universite_paris_est_marne_la_vallee-1108
"ITIRI - Institut de traducteurs d'interprètes et de relations internationales, Université de Strasbourg",Non trouvé,Unité de formation et de recherche,Strasbourg,Non trouvé,Non trouvé,,,,https://diplomeo.com/etablissement-itiri_institut_de_traducteurs_d_interpretes_et_de_relations_internationales_universite_de_strasbourg-1110
"ITIC UM3 - Institut des Technosciences de l'Information et de la Communication, Université Montpellier III",Non trouvé,Unité de formation et de recherche,Montpellier,Non trouvé,Non trouvé,,,,https://diplomeo.com/etablissement-itic_um3_institut_des_technosciences_de_l_information_et_de_la_communication_universite_montpellier_iii-1116
"ISUP - Institut de statistique de l'Université Pierre et Marie Curie, Université Pierre et Marie Curie - UPMC",Non trouvé,Unité de formation et de recherche,Paris,Non trouvé,Non trouvé,,,,https://diplomeo.com/etablissement-isup_institut_de_statistique_de_l_universite_pierre_et_marie_curie_universite_pierre_et_marie_curie_upmc-1131
"Institut des sciences pharmaceutiques et biologiques, Université Claude Bernard - Lyon 1",Non trouvé,Unité de formation et de recherche,Lyon,Non trouvé,Non trouvé,,,,https://diplomeo.com/etablissement-institut_des_sciences_pharmaceutiques_et_biologiques_universite_claude_bernard_lyon_1-1132
"ISTV - Institut des sciences et techniques université de Valenciennes, Université de Valenciennes",Non trouvé,Unité de formation et de recherche,Lille,Non trouvé,Non trouvé,,,,https://diplomeo.com/etablissement-istv_institut_des_sciences_et_techniques_universite_de_valenciennes_universite_de_valenciennes-1135
"IST - Institut des sciences du travail, Université de Lille 2",Non trouvé,Unité de formation et de recherche,Lille,Non trouvé,Non trouvé,,,,https://diplomeo.com/etablissement-ist_institut_des_sciences_du_travail_universite_de_lille_2-1140
"ISPEF - Institut des sciences et pratiques d'éducation et de formation, Université Lumière - Lyon 2",Non trouvé,Unité de formation et de recherche,Lyon,Non trouvé,Non trouvé,,,,https://diplomeo.com/etablissement-ispef_institut_des_sciences_et_pratiques_d_education_et_de_formation_universite_lumiere_lyon_2-1143
"ISTR - Institut des sciences et techniques de la réadaptation, Université Claude Bernard - Lyon 1",Non trouvé,Unité de formation et de recherche,Lyon,Non trouvé,Non trouvé,,,,https://diplomeo.com/etablissement-istr_institut_des_sciences_et_techniques_de_la_readaptation_universite_claude_bernard_lyon_1-1144
Montpellier Management,Non trouvé,Unité de formation et de recherche,Montpellier,Non trouvé,Non trouvé,,,,https://diplomeo.com/etablissement-montpellier_management-1150
"ISF - Institut des sciences de la famille, Université catholique de Lyon",Non trouvé,Unité de formation et de recherche,Lyon,Non trouvé,Non trouvé,,,,https://diplomeo.com/etablissement-isf_institut_des_sciences_de_la_famille_universite_catholique_de_lyon-1153
Université de Versailles-Saint-Quentin-en-Yvelines - Institut des langues et des études internationales,Non trouvé,Unité de formation et de recherche,Versailles,Non trouvé,Non trouvé,,,,https://diplomeo.com/etablissement-universite_de_versailles_saint_quentin_en_yvelines_institut_des_langues_et_des_etudes_internationales-1171
"IHEI - Institut des hautes études internationales, Université Panthéon-Assas",Non trouvé,Unité de formation et de recherche,Paris,Non trouvé,Non trouvé,,,,https://diplomeo.com/etablissement-ihei_institut_des_hautes_etudes_internationales_universite_pantheon_assas-1173
"IHEE - Institut des hautes études européennes, Université de Strasbourg",Non trouvé,Unité de formation et de recherche,Strasbourg,Non trouvé,Non trouvé,,,,https://diplomeo.com/etablissement-ihee_institut_des_hautes_etudes_europeennes_universite_de_strasbourg-1174
"IHEAL - Institut des hautes études d'Amérique latine, Université de la Sorbonne Nouvelle",Non trouvé,Unité de formation et de recherche,Paris,Non trouvé,Non trouvé,,,,https://diplomeo.com/etablissement-iheal_institut_des_hautes_etudes_d_amerique_latine_universite_de_la_sorbonne_nouvelle-1175
"IDHL - Institut des droits de l'Homme, Université catholique de Lyon",Non trouvé,Unité de formation et de recherche,Lyon,Non trouvé,Non trouvé,,,,https://diplomeo.com/etablissement-idhl_institut_des_droits_de_l_homme_universite_catholique_de_lyon-1178
"ISPED - Institut de santé publique, d'épidémiologie et de développement, Université Bordeaux II",Non trouvé,Unité de formation et de recherche,Bordeaux,Non trouvé,Non trouvé,,,,https://diplomeo.com/etablissement-isped_institut_de_sante_publique_d_epidemiologie_et_de_developpement_universite_bordeaux_ii-1183
"Institut des assurances de Lyon, Université Jean Moulin - Lyon 3",Non trouvé,Unité de formation et de recherche,Lyon,Non trouvé,Non trouvé,,,,https://diplomeo.com/etablissement-institut_des_assurances_de_lyon_universite_jean_moulin_lyon_3-1185
"Institut de psychologie, Université Lumière - Lyon 2",Non trouvé,Unité de formation et de recherche,Lyon,Non trouvé,Non trouvé,,,,https://diplomeo.com/etablissement-institut_de_psychologie_universite_lumiere_lyon_2-1195
"IPAG - Institut de préparation à l'administration générale, Université Rennes 1",Non trouvé,Unité de formation et de recherche,Rennes,Non trouvé,Non trouvé,,,,https://diplomeo.com/etablissement-ipag_institut_de_preparation_a_l_administration_generale_universite_rennes_1-1202
"IPAG - Institut de préparation à l'administration générale de la Faculté Jean-Monnet, Université Paris Sud",Non trouvé,Unité de formation et de recherche,Sceaux,Non trouvé,Non trouvé,,,,https://diplomeo.com/etablissement-ipag_institut_de_preparation_a_l_administration_generale_de_la_faculte_jean_monnet_universite_paris_sud-1203
"IPAG - Institut de préparation à l'administration générale, Université Picardie Jules Verne Amiens",Non trouvé,Unité de formation et de recherche,Amiens,Non trouvé,Non trouvé,,,,https://diplomeo.com/etablissement-ipag_institut_de_preparation_a_l_administration_generale_universite_picardie_jules_verne_amiens-1204
"IPAG UM - Institut de préparation à l'administration générale, Université de Montpellier",Non trouvé,Unité de formation et de recherche,Montpellier,Non trouvé,Non trouvé,,,,https://diplomeo.com/etablissement-ipag_um_institut_de_preparation_a_l_administration_generale_universite_de_montpellier-1205
"IPAG - Institut de préparation à l'administration générale, Université Paris-Est Créteil Val-de-Marne",Non trouvé,Unité de formation et de recherche,Créteil,Non trouvé,Non trouvé,,,,https://diplomeo.com/etablissement-ipag_institut_de_preparation_a_l_administration_generale_universite_paris_est_creteil_val_de_marne-1206
Institut de préparation à l'administration générale - Université de Rouen,Non trouvé,Unité de formation et de recherche,Rouen,Non trouvé,Non trouvé,,,,https://diplomeo.com/etablissement-institut_de_preparation_a_l_administration_generale_universite_de_rouen-1208
"IPAG - Institut de préparation à l'administration générale, Université Panthéon-Assas",Non trouvé,Unité de formation et de recherche,Paris,Non trouvé,Non trouvé,,,,https://diplomeo.com/etablissement-ipag_institut_de_preparation_a_l_administration_generale_universite_pantheon_assas-1209
"IPAG - Institut de préparation à l'administration générale, Université de Poitiers",Non trouvé,Unité de formation et de recherche,Poitiers,Non trouvé,Non trouvé,,,,https://diplomeo.com/etablissement-ipag_institut_de_preparation_a_l_administration_generale_universite_de_poitiers-1211
"IPAG - Institut de préparation à l'administration générale, Université de Nantes",Non trouvé,Unité de formation et de recherche,Nantes,Non trouvé,Non trouvé,,,,https://diplomeo.com/etablissement-ipag_institut_de_preparation_a_l_administration_generale_universite_de_nantes-1212
"IPAG - Institut de préparation à l'administration générale, Université de Lille 2",Non trouvé,Unité de formation et de recherche,Lille,Non trouvé,Non trouvé,,,,https://diplomeo.com/etablissement-ipag_institut_de_preparation_a_l_administration_generale_universite_de_lille_2-1213
"IPAG - Institut de préparation à l'administration générale, Université de Limoges",Non trouvé,Unité de formation et de recherche,Limoges,Non trouvé,Non trouvé,,,,https://diplomeo.com/etablissement-ipag_institut_de_preparation_a_l_administration_generale_universite_de_limoges-1214
"IPAG - Institut de préparation à l'administration générale, Université de Valenciennes et du Hainaut Cambrésis",Non trouvé,Unité de formation et de recherche,Lille,Non trouvé,Non trouvé,,,,https://diplomeo.com/etablissement-ipag_institut_de_preparation_a_l_administration_generale_universite_de_valenciennes_et_du_hainaut_cambresis-1217
"IPAG - Institut de préparation à l'administration générale, Université de Franche-Comté",Non trouvé,Unité de formation et de recherche,Besançon,Non trouvé,Non trouvé,,,,https://diplomeo.com/etablissement-ipag_institut_de_preparation_a_l_administration_generale_universite_de_franche_comte-1218
"IPAG - Institut de préparation à l'administration générale, Université Paris Ouest Nanterre La Défense",Non trouvé,Unité de formation et de recherche,Nanterre,Non trouvé,Non trouvé,,,,https://diplomeo.com/etablissement-ipag_institut_de_preparation_a_l_administration_generale_universite_paris_ouest_nanterre_la_defense-1219
"IPAG - Institut de préparation à l'administration générale, Université Clermont-Ferrand I",Non trouvé,Unité de formation et de recherche,Clermont-Ferrand,Non trouvé,Non trouvé,,,,https://diplomeo.com/etablissement-ipag_institut_de_preparation_a_l_administration_generale_universite_clermont_ferrand_i-1220
"Institut de préparation à l'administration générale, Université de Cergy-Pontoise",Non trouvé,Unité de formation et de recherche,Cergy,Non trouvé,Non trouvé,,,,https://diplomeo.com/etablissement-institut_de_preparation_a_l_administration_generale_universite_de_cergy_pontoise-1221
"IPAG - Institut de préparation à l'administration générale, Université de Bretagne Occidentale",Non trouvé,Unité de formation et de recherche,Quimper,Non trouvé,Non trouvé,,,,https://diplomeo.com/etablissement-ipag_institut_de_preparation_a_l_administration_generale_universite_de_bretagne_occidentale-1223
"IPAG - Institut de préparation à l'administration générale, Université de Lorraine",Non trouvé,Unité de formation et de recherche,Nancy,Non trouvé,Non trouvé,,,,https://diplomeo.com/etablissement-ipag_institut_de_preparation_a_l_administration_generale_universite_de_lorraine-1224
"IPAG - Institut de préparation à l'administration générale, Université de Bourgogne",Non trouvé,Unité de formation et de recherche,Dijon,Non trouvé,Non trouvé,,,,https://diplomeo.com/etablissement-ipag_institut_de_preparation_a_l_administration_generale_universite_de_bourgogne-1225
"IPROB - Institut de professionnalisation en biologie, Université catholique de Lyon",Non trouvé,Unité de formation et de recherche,Lyon,Non trouvé,Non trouvé,,,,https://diplomeo.com/etablissement-iprob_institut_de_professionnalisation_en_biologie_universite_catholique_de_lyon-1228
IPGP - Institut de physique du globe de Paris,Non trouvé,Unité de formation et de recherche,Paris,Non trouvé,Non trouvé,,,,https://diplomeo.com/etablissement-ipgp_institut_de_physique_du_globe_de_paris-1230
"IMPGT - Institut de management public et de gouvernance territoriale-Aix, Université d'Aix-Marseille",Non trouvé,Unité de formation et de recherche,Aix-en-Provence,Non trouvé,Non trouvé,,,,https://diplomeo.com/etablissement-impgt_institut_de_management_public_et_de_gouvernance_territoriale_aix_universite_d_aix_marseille-1235
"IMPGT - Institut de management public et de gouvernance territoriale-Marseille, Université Paul Cézanne - Aix-Marseille III",Non trouvé,Unité de formation et de recherche,Marseille,Non trouvé,Non trouvé,,,,https://diplomeo.com/etablissement-impgt_institut_de_management_public_et_de_gouvernance_territoriale_marseille_universite_paul_cezanne_aix_marseille_iii-1237
"IM2 - Institut de mécanique de Marseille, Université Aix-Marseille I, Université Aix-Marseille II",Non trouvé,Unité de formation et de recherche,Marseille,Non trouvé,Non trouvé,,,,https://diplomeo.com/etablissement-im2_institut_de_mecanique_de_marseille_universite_aix_marseille_i_universite_aix_marseille_ii-1238
"IAE - Institut d'administration des entreprises Savoie Mont-Blanc (Chambéry), Université Savoie Mont Blanc",Non trouvé,Unité de formation et de recherche,Chambéry,Non trouvé,Non trouvé,,,,https://diplomeo.com/etablissement-iae_institut_d_administration_des_entreprises_savoie_mont_blanc_chambery_universite_savoie_mont_blanc-1242
"ILCF - Institut de langue et culture françaises, Université catholique de Lyon",Non trouvé,Unité de formation et de recherche,Lyon,Non trouvé,Non trouvé,,,,https://diplomeo.com/etablissement-ilcf_institut_de_langue_et_culture_francaises_universite_catholique_de_lyon-1248
"IJBA - Institut de journalisme de Bordeaux Aquitaine, Université Bordeaux III",Non trouvé,Unité de formation et de recherche,Bordeaux,Non trouvé,Non trouvé,,,,https://diplomeo.com/etablissement-ijba_institut_de_journalisme_de_bordeaux_aquitaine_universite_bordeaux_iii-1251
"Institut de géographie et aménagement régional, Université de Nantes",Non trouvé,Unité de formation et de recherche,Nantes,Non trouvé,Non trouvé,,,,https://diplomeo.com/etablissement-institut_de_geographie_et_amenagement_regional_universite_de_nantes-1253
"Institut de la communication, Université Lumière - Lyon 2",Non trouvé,Unité de formation et de recherche,Lyon,Non trouvé,Non trouvé,,,,https://diplomeo.com/etablissement-institut_de_la_communication_universite_lumiere_lyon_2-1257
"ICM - Institut de la communication et des médias, Université Stendhal - Grenoble 3",Non trouvé,Unité de formation et de recherche,Grenoble,Non trouvé,Non trouvé,,,,https://diplomeo.com/etablissement-icm_institut_de_la_communication_et_des_medias_universite_stendhal_grenoble_3-1259
"IFTS - Institut de formation technique supérieur, Université de Reims Champagne-Ardenne",Non trouvé,Unité de formation et de recherche,Charleville-Mézières,Non trouvé,Non trouvé,,,,https://diplomeo.com/etablissement-ifts_institut_de_formation_technique_superieur_universite_de_reims_champagne_ardenne-1265
"Faculté de théologie institut catholique de Toulouse, Institut catholique de Toulouse",Non trouvé,Unité de formation et de recherche,Toulouse,Non trouvé,Non trouvé,,,,https://diplomeo.com/etablissement-faculte_de_theologie_institut_catholique_de_toulouse_institut_catholique_de_toulouse-1289
"Faculté de théologie protestante, Université de Strasbourg",Non trouvé,Unité de formation et de recherche,Strasbourg,Non trouvé,Non trouvé,,,,https://diplomeo.com/etablissement-faculte_de_theologie_protestante_universite_de_strasbourg-1292
"Faculté des sciences juridiques, politiques et sociales, Université de Lille 2",Non trouvé,Unité de formation et de recherche,Lille,Non trouvé,Non trouvé,,,,https://diplomeo.com/etablissement-faculte_des_sciences_juridiques_politiques_et_sociales_universite_de_lille_2-1295
"Faculté des sciences pharmaceutiques, Université Toulouse III",Non trouvé,Unité de formation et de recherche,Toulouse,Non trouvé,Non trouvé,,,,https://diplomeo.com/etablissement-faculte_des_sciences_pharmaceutiques_universite_toulouse_iii-1296
"Faculté de théologie catholique, Université de Strasbourg",Non trouvé,Unité de formation et de recherche,Strasbourg,Non trouvé,Non trouvé,,,,https://diplomeo.com/etablissement-faculte_de_theologie_catholique_universite_de_strasbourg-1297
"Faculté des sciences juridiques et politiques Alexis de Tocqueville, Université d'Artois",Non trouvé,Unité de formation et de recherche,Lille,Non trouvé,Non trouvé,,,,https://diplomeo.com/etablissement-faculte_des_sciences_juridiques_et_politiques_alexis_de_tocqueville_universite_d_artois-1298
"Faculté des sciences, Université d'Orléans",Non trouvé,Unité de formation et de recherche,Orléans,Non trouvé,Non trouvé,,,,https://diplomeo.com/etablissement-faculte_des_sciences_universite_d_orleans-1301
"UFR STAPS - Faculté des sports et de l'éducation physique - Artois, Université d'Artois",Non trouvé,Unité de formation et de recherche,Arras,Non trouvé,Non trouvé,,,,https://diplomeo.com/etablissement-ufr_staps_faculte_des_sports_et_de_l_education_physique_artois_universite_d_artois-1302
"Faculté des sciences et technologies - Département informatique, Université Claude Bernard - Lyon 1",Non trouvé,Unité de formation et de recherche,Lyon,Non trouvé,Non trouvé,,,,https://diplomeo.com/etablissement-faculte_des_sciences_et_technologies_departement_informatique_universite_claude_bernard_lyon_1-1303
"Faculté des sciences et technologies - Département mécanique, Université Claude Bernard - Lyon 1",Non trouvé,Unité de formation et de recherche,Lyon,Non trouvé,Non trouvé,,,,https://diplomeo.com/etablissement-faculte_des_sciences_et_technologies_departement_mecanique_universite_claude_bernard_lyon_1-1304
"Faculté des sciences et technologies - Département de physique, Université Claude Bernard - Lyon 1",Non trouvé,Unité de formation et de recherche,Lyon,Non trouvé,Non trouvé,,,,https://diplomeo.com/etablissement-faculte_des_sciences_et_technologies_departement_de_physique_universite_claude_bernard_lyon_1-1305
"FST - Faculté des sciences et technologies, Nancy-Université - Université Henri Poincaré",Non trouvé,Unité de formation et de recherche,Nancy,Non trouvé,Non trouvé,,,,https://diplomeo.com/etablissement-fst_faculte_des_sciences_et_technologies_nancy_universite_universite_henri_poincare-1306
"Faculté des sciences et technologies - Département génie électrique et des procédés, Université Claude Bernard - Lyon 1",Non trouvé,Unité de formation et de recherche,Lyon,Non trouvé,Non trouvé,,,,https://diplomeo.com/etablissement-faculte_des_sciences_et_technologies_departement_genie_electrique_et_des_procedes_universite_claude_bernard_lyon_1-1307
"Faculté des sciences et technologies - Département mathématiques, Université Claude Bernard - Lyon 1",Non trouvé,Unité de formation et de recherche,Lyon,Non trouvé,Non trouvé,,,,https://diplomeo.com/etablissement-faculte_des_sciences_et_technologies_departement_mathematiques_universite_claude_bernard_lyon_1-1308
"Faculté des sciences et technologies - Département sciences de la terre, Université Claude Bernard - Lyon 1",Non trouvé,Unité de formation et de recherche,Lyon,Non trouvé,Non trouvé,,,,https://diplomeo.com/etablissement-faculte_des_sciences_et_technologies_departement_sciences_de_la_terre_universite_claude_bernard_lyon_1-1309
"Faculté des sciences Jean Perrin, Université d'Artois",Non trouvé,Unité de formation et de recherche,Arras,Non trouvé,Non trouvé,,,,https://diplomeo.com/etablissement-faculte_des_sciences_jean_perrin_universite_d_artois-1310
"Faculté des sciences et technologies - Département chimie biochimie, Université Claude Bernard - Lyon 1",Non trouvé,Unité de formation et de recherche,Lyon,Non trouvé,Non trouvé,,,,https://diplomeo.com/etablissement-faculte_des_sciences_et_technologies_departement_chimie_biochimie_universite_claude_bernard_lyon_1-1311
"Faculté des sciences et technologies - Département biologie, Université Claude Bernard - Lyon 1",Non trouvé,Unité de formation et de recherche,Lyon,Non trouvé,Non trouvé,,,,https://diplomeo.com/etablissement-faculte_des_sciences_et_technologies_departement_biologie_universite_claude_bernard_lyon_1-1312
"Faculté des sciences et techniques, Université de Haute Alsace Mulhouse",Non trouvé,Unité de formation et de recherche,Colmar,Non trouvé,Non trouvé,,,,https://diplomeo.com/etablissement-faculte_des_sciences_et_techniques_universite_de_haute_alsace_mulhouse-1341
"Faculté des sciences et techniques de Saint-Jérôme, Université Paul Cézanne - Aix-Marseille III",Non trouvé,Unité de formation et de recherche,Marseille,Non trouvé,Non trouvé,,,,https://diplomeo.com/etablissement-faculte_des_sciences_et_techniques_de_saint_jerome_universite_paul_cezanne_aix_marseille_iii-1342
"Faculté des sciences et techniques, Université de Limoges",Non trouvé,Unité de formation et de recherche,Limoges,Non trouvé,Non trouvé,,,,https://diplomeo.com/etablissement-faculte_des_sciences_et_techniques_universite_de_limoges-1346
"Faculté des sciences et sciences de l'ingénieur, Université Bretagne Sud",Non trouvé,Unité de formation et de recherche,Vannes,Non trouvé,Non trouvé,,,,https://diplomeo.com/etablissement-faculte_des_sciences_et_sciences_de_l_ingenieur_universite_bretagne_sud-1350
"Faculté des sciences du sport, Université Aix-Marseille II",Non trouvé,Unité de formation et de recherche,Marseille,Non trouvé,Non trouvé,,,,https://diplomeo.com/etablissement-faculte_des_sciences_du_sport_universite_aix_marseille_ii-1351
"Faculté des sciences et sciences de l'ingénieur, Université Bretagne Sud",Non trouvé,Unité de formation et de recherche,Lorient,Non trouvé,Non trouvé,,,,https://diplomeo.com/etablissement-faculte_des_sciences_et_sciences_de_l_ingenieur_universite_bretagne_sud-1352
"Faculté des sciences du sport, Université de Poitiers",Non trouvé,Unité de formation et de recherche,Poitiers,Non trouvé,Non trouvé,,,,https://diplomeo.com/etablissement-faculte_des_sciences_du_sport_universite_de_poitiers-1353
"Faculté des sciences du sport, Université Picardie Jules Verne Amiens",Non trouvé,Unité de formation et de recherche,Amiens,Non trouvé,Non trouvé,,,,https://diplomeo.com/etablissement-faculte_des_sciences_du_sport_universite_picardie_jules_verne_amiens-1354
"Faculté des sciences du sport, Université de Poitiers",Non trouvé,Unité de formation et de recherche,Angoulême,Non trouvé,Non trouvé,,,,https://diplomeo.com/etablissement-faculte_des_sciences_du_sport_universite_de_poitiers-1355
"Faculté des sciences de la vie, Université de Strasbourg",Non trouvé,Unité de formation et de recherche,Strasbourg,Non trouvé,Non trouvé,,,,https://diplomeo.com/etablissement-faculte_des_sciences_de_la_vie_universite_de_strasbourg-1356
"FSMS - Faculté des sciences et des métiers du sport, Université de Valenciennes",Non trouvé,Unité de formation et de recherche,Lille,Non trouvé,Non trouvé,,,,https://diplomeo.com/etablissement-fsms_faculte_des_sciences_et_des_metiers_du_sport_universite_de_valenciennes-1357
"STAPS - Faculté des sciences du sport, Université de Strasbourg",Non trouvé,Unité de formation et de recherche,Strasbourg,Non trouvé,Non trouvé,,,,https://diplomeo.com/etablissement-staps_faculte_des_sciences_du_sport_universite_de_strasbourg-1358
"Faculté des sciences économiques et de gestion, Université de Strasbourg",Non trouvé,Unité de formation et de recherche,Strasbourg,Non trouvé,Non trouvé,,,,https://diplomeo.com/etablissement-faculte_des_sciences_economiques_et_de_gestion_universite_de_strasbourg-1359
"Faculté des sciences économiques et de gestion - département ingénierie économique et financière, Université Lumière - Lyon 2",Non trouvé,Unité de formation et de recherche,Lyon,Non trouvé,Non trouvé,,,,https://diplomeo.com/etablissement-faculte_des_sciences_economiques_et_de_gestion_departement_ingenierie_economique_et_financiere_universite_lumiere_lyon_2-1360
"Faculté des sciences appliquées, Université d'Artois",Non trouvé,Unité de formation et de recherche,Arras,Non trouvé,Non trouvé,,,,https://diplomeo.com/etablissement-faculte_des_sciences_appliquees_universite_d_artois-1361
"Faculté des sciences économiques et de gestion - Aix-en-Provence, Université Aix-Marseille II",Non trouvé,Unité de formation et de recherche,Aix-en-Provence,Non trouvé,Non trouvé,,,,https://diplomeo.com/etablissement-faculte_des_sciences_economiques_et_de_gestion_aix_en_provence_universite_aix_marseille_ii-1362
"Faculté de sport de Nancy - Antenne d'Epinal, Nancy-Université - Université Henri Poincaré",Non trouvé,Unité de formation et de recherche,Nancy,Non trouvé,Non trouvé,,,,https://diplomeo.com/etablissement-faculte_de_sport_de_nancy_antenne_d_epinal_nancy_universite_universite_henri_poincare-1363
"LESLA - Faculté des lettres, sciences du langage et arts, Université Lumière - Lyon 2",Non trouvé,Unité de formation et de recherche,Lyon,Non trouvé,Non trouvé,,,,https://diplomeo.com/etablissement-lesla_faculte_des_lettres_sciences_du_langage_et_arts_universite_lumiere_lyon_2-1364
"Faculté des sciences économiques et sociales, Université Lille 1",Non trouvé,Unité de formation et de recherche,Villeneuve-d'Ascq,Non trouvé,Non trouvé,,,,https://diplomeo.com/etablissement-faculte_des_sciences_economiques_et_sociales_universite_lille_1-1365
"Faculté des lettres, Université Picardie Jules Verne Amiens",Non trouvé,Unité de formation et de recherche,Amiens,Non trouvé,Non trouvé,,,,https://diplomeo.com/etablissement-faculte_des_lettres_universite_picardie_jules_verne_amiens-1366
"FSESJ - Faculté des sciences économiques sociales et juridiques, Université de Haute Alsace Mulhouse",Non trouvé,Unité de formation et de recherche,Colmar,Non trouvé,Non trouvé,,,,https://diplomeo.com/etablissement-fsesj_faculte_des_sciences_economiques_sociales_et_juridiques_universite_de_haute_alsace_mulhouse-1367
"FAC STAPS Lille - Faculté des sciences du sport et de l'éducation physique Lille 2, Université de Lille 2",Non trouvé,Unité de formation et de recherche,Lille,Non trouvé,Non trouvé,,,,https://diplomeo.com/etablissement-fac_staps_lille_faculte_des_sciences_du_sport_et_de_l_education_physique_lille_2_universite_de_lille_2-1368
"FLSH - Faculté des lettres langues et sciences humaines, Université de Haute Alsace Mulhouse",Non trouvé,Unité de formation et de recherche,Mulhouse,Non trouvé,Non trouvé,,,,https://diplomeo.com/etablissement-flsh_faculte_des_lettres_langues_et_sciences_humaines_universite_de_haute_alsace_mulhouse-1369
"Faculté des sciences de l'éducation, Université de Strasbourg",Non trouvé,Unité de formation et de recherche,Strasbourg,Non trouvé,Non trouvé,,,,https://diplomeo.com/etablissement-faculte_des_sciences_de_l_education_universite_de_strasbourg-1370
"LESLA - Faculté des lettres, sciences du langage et arts, Université Lumière - Lyon 2",Non trouvé,Unité de formation et de recherche,Lyon,Non trouvé,Non trouvé,,,,https://diplomeo.com/etablissement-lesla_faculte_des_lettres_sciences_du_langage_et_arts_universite_lumiere_lyon_2-1372
"Faculté des lettres et civilisations, Université Jean Moulin - Lyon 3",Non trouvé,Unité de formation et de recherche,Lyon,Non trouvé,Non trouvé,,,,https://diplomeo.com/etablissement-faculte_des_lettres_et_civilisations_universite_jean_moulin_lyon_3-1374
"FLLASH - Faculté des lettres langues arts et sciences humaines, Université de Valenciennes",Non trouvé,Unité de formation et de recherche,Lille,Non trouvé,Non trouvé,,,,https://diplomeo.com/etablissement-fllash_faculte_des_lettres_langues_arts_et_sciences_humaines_universite_de_valenciennes-1376
"Faculté des lettres et sciences humaines, Université de Limoges",Non trouvé,Unité de formation et de recherche,Limoges,Non trouvé,Non trouvé,,,,https://diplomeo.com/etablissement-faculte_des_lettres_et_sciences_humaines_universite_de_limoges-1377
"Faculté des lettres - Départements Lettres, Histoire, Langues, Histoire de l'Art et Prépas, Institut catholique de Paris",Non trouvé,Unité de formation et de recherche,Paris,Non trouvé,Non trouvé,,,,https://diplomeo.com/etablissement-faculte_des_lettres_departements_lettres_histoire_langues_histoire_de_l_art_et_prepas_institut_catholique_de_paris-1378
"Faculté de sciences humaines et sociales, Université Jean Monnet Saint-Etienne",Non trouvé,Unité de formation et de recherche,Saint-Étienne,Non trouvé,Non trouvé,,,,https://diplomeo.com/etablissement-faculte_de_sciences_humaines_et_sociales_universite_jean_monnet_saint_etienne-1406
"Faculté de sciences et techniques, Université Jean Monnet de Saint-Etienne",Non trouvé,Unité de formation et de recherche,Saint-Étienne,Non trouvé,Non trouvé,,,,https://diplomeo.com/etablissement-faculte_de_sciences_et_techniques_universite_jean_monnet_de_saint_etienne-1407
"Faculté des langues, Université Jean Moulin - Lyon 3",Non trouvé,Unité de formation et de recherche,Lyon,Non trouvé,Non trouvé,,,,https://diplomeo.com/etablissement-faculte_des_langues_universite_jean_moulin_lyon_3-1409
"Faculté des langues, Université Lumière - Lyon 2",Non trouvé,Unité de formation et de recherche,Lyon,Non trouvé,Non trouvé,,,,https://diplomeo.com/etablissement-faculte_des_langues_universite_lumiere_lyon_2-1410
"FASSE - Faculté de sciences sociales et économiques, Institut catholique de Paris",Non trouvé,Unité de formation et de recherche,Paris,Non trouvé,Non trouvé,,,,https://diplomeo.com/etablissement-fasse_faculte_de_sciences_sociales_et_economiques_institut_catholique_de_paris-1411
"Faculté des langues, Université Lumière - Lyon 2",Non trouvé,Unité de formation et de recherche,Lyon,Non trouvé,Non trouvé,,,,https://diplomeo.com/etablissement-faculte_des_langues_universite_lumiere_lyon_2-1412
"Faculté de sciences économiques, Université Rennes 1",Non trouvé,Unité de formation et de recherche,Rennes,Non trouvé,Non trouvé,,,,https://diplomeo.com/etablissement-faculte_de_sciences_economiques_universite_rennes_1-1413
"Faculté de physique, Université Pierre et Marie Curie - UPMC",Non trouvé,Unité de formation et de recherche,Paris,Non trouvé,Non trouvé,,,,https://diplomeo.com/etablissement-faculte_de_physique_universite_pierre_et_marie_curie_upmc-1414
"Faculté de psychologie, Université de Nantes",Non trouvé,Unité de formation et de recherche,Nantes,Non trouvé,Non trouvé,,,,https://diplomeo.com/etablissement-faculte_de_psychologie_universite_de_nantes-1416
"Faculté des affaires internationales de l'université du Havre, Université du Havre",Non trouvé,Unité de formation et de recherche,Le Havre,Non trouvé,Non trouvé,,,,https://diplomeo.com/etablissement-faculte_des_affaires_internationales_de_l_universite_du_havre_universite_du_havre-1417
"Faculté de psychologie, Université de Strasbourg",Non trouvé,Unité de formation et de recherche,Strasbourg,Non trouvé,Non trouvé,,,,https://diplomeo.com/etablissement-faculte_de_psychologie_universite_de_strasbourg-1418
"Faculté de philosophie, Université Jean Moulin - Lyon 3",Non trouvé,Unité de formation et de recherche,Lyon,Non trouvé,Non trouvé,,,,https://diplomeo.com/etablissement-faculte_de_philosophie_universite_jean_moulin_lyon_3-1419
"UFR des arts, Université Picardie Jules Verne Amiens",Non trouvé,Unité de formation et de recherche,Amiens,Non trouvé,Non trouvé,,,,https://diplomeo.com/etablissement-ufr_des_arts_universite_picardie_jules_verne_amiens-1420
"UFR de sciences économiques et de gestion, Université Lumière - Lyon 2",Non trouvé,Unité de formation et de recherche,Lyon,Non trouvé,Non trouvé,,,,https://diplomeo.com/etablissement-ufr_de_sciences_economiques_et_de_gestion_universite_lumiere_lyon_2-1421
"Faculté de sciences économiques et de gestion - Marseille, Université Aix-Marseille II",Non trouvé,Unité de formation et de recherche,Marseille,Non trouvé,Non trouvé,,,,https://diplomeo.com/etablissement-faculte_de_sciences_economiques_et_de_gestion_marseille_universite_aix_marseille_ii-1422
"UFR sciences humaines, sociales et philosophie, Université Picardie Jules Verne Amiens",Non trouvé,Unité de formation et de recherche,Amiens,Non trouvé,Non trouvé,,,,https://diplomeo.com/etablissement-ufr_sciences_humaines_sociales_et_philosophie_universite_picardie_jules_verne_amiens-1423
"Faculté de philosophie et de sciences humaines, Université catholique de Lyon",Non trouvé,Unité de formation et de recherche,Lyon,Non trouvé,Non trouvé,,,,https://diplomeo.com/etablissement-faculte_de_philosophie_et_de_sciences_humaines_universite_catholique_de_lyon-1424
"Faculté de philosophie, Institut catholique de Paris",Non trouvé,Unité de formation et de recherche,Paris,Non trouvé,Non trouvé,,,,https://diplomeo.com/etablissement-faculte_de_philosophie_institut_catholique_de_paris-1425
"Faculté de philosophie, Institut catholique de Toulouse",Non trouvé,Unité de formation et de recherche,Toulouse,Non trouvé,Non trouvé,,,,https://diplomeo.com/etablissement-faculte_de_philosophie_institut_catholique_de_toulouse-1426
"Faculté de pharmacie, Université Rennes 1",Non trouvé,Unité de formation et de recherche,Rennes,Non trouvé,Non trouvé,,,,https://diplomeo.com/etablissement-faculte_de_pharmacie_universite_rennes_1-1427
"Faculté de pharmacie, Université de Limoges",Non trouvé,Unité de formation et de recherche,Limoges,Non trouvé,Non trouvé,,,,https://diplomeo.com/etablissement-faculte_de_pharmacie_universite_de_limoges-1428
"Faculté de pharmacie, Université de Strasbourg",Non trouvé,Unité de formation et de recherche,Strasbourg,Non trouvé,Non trouvé,,,,https://diplomeo.com/etablissement-faculte_de_pharmacie_universite_de_strasbourg-1429
"Faculté de pharmacie, Université Picardie Jules Verne Amiens",Non trouvé,Unité de formation et de recherche,Amiens,Non trouvé,Non trouvé,,,,https://diplomeo.com/etablissement-faculte_de_pharmacie_universite_picardie_jules_verne_amiens-1430
"Faculté de médecine, Université Picardie Jules Verne Amiens",Non trouvé,Unité de formation et de recherche,Amiens,Non trouvé,Non trouvé,,,,https://diplomeo.com/etablissement-faculte_de_medecine_universite_picardie_jules_verne_amiens-1431
"Faculté de médecine, Université Rennes 1",Non trouvé,Unité de formation et de recherche,Rennes,Non trouvé,Non trouvé,,,,https://diplomeo.com/etablissement-faculte_de_medecine_universite_rennes_1-1432
"Faculté de sciences de Luminy, Université Aix-Marseille II",Non trouvé,Unité de formation et de recherche,Marseille,Non trouvé,Non trouvé,,,,https://diplomeo.com/etablissement-faculte_de_sciences_de_luminy_universite_aix_marseille_ii-1433
"Faculté de pharmacie, Université Aix-Marseille II",Non trouvé,Unité de formation et de recherche,Marseille,Non trouvé,Non trouvé,,,,https://diplomeo.com/etablissement-faculte_de_pharmacie_universite_aix_marseille_ii-1434
"Faculté de médecine, Université de Strasbourg",Non trouvé,Unité de formation et de recherche,Strasbourg,Non trouvé,Non trouvé,,,,https://diplomeo.com/etablissement-faculte_de_medecine_universite_de_strasbourg-1435
"Faculté de médecine, Université de Limoges",Non trouvé,Unité de formation et de recherche,Limoges,Non trouvé,Non trouvé,,,,https://diplomeo.com/etablissement-faculte_de_medecine_universite_de_limoges-1436
"Faculté de médecine Toulouse Purpan, Université Toulouse III",Non trouvé,Unité de formation et de recherche,Toulouse,Non trouvé,Non trouvé,,,,https://diplomeo.com/etablissement-faculte_de_medecine_toulouse_purpan_universite_toulouse_iii-1437
"Faculté de médecine Toulouse Rangueil, Université Toulouse III",Non trouvé,Unité de formation et de recherche,Toulouse,Non trouvé,Non trouvé,,,,https://diplomeo.com/etablissement-faculte_de_medecine_toulouse_rangueil_universite_toulouse_iii-1445
"Faculté de médecine, Université Aix-Marseille II",Non trouvé,Unité de formation et de recherche,Marseille,Non trouvé,Non trouvé,,,,https://diplomeo.com/etablissement-faculte_de_medecine_universite_aix_marseille_ii-1449
"Faculté de médecine Lyon-Sud - Charles Mérieux, Université Claude Bernard - Lyon 1",Non trouvé,Unité de formation et de recherche,Lyon,Non trouvé,Non trouvé,,,,https://diplomeo.com/etablissement-faculte_de_medecine_lyon_sud_charles_merieux_universite_claude_bernard_lyon_1-1469
"Faculté de médecine Henri Warembourg université de Lille 2, Université de Lille 2",Non trouvé,Unité de formation et de recherche,Lille,Non trouvé,Non trouvé,,,,https://diplomeo.com/etablissement-faculte_de_medecine_henri_warembourg_universite_de_lille_2_universite_de_lille_2-1470
"Faculté de médecine Pierre et Marie Curie - Site Pitié-Salpêtrière, Université Pierre et Marie Curie - UPMC",Non trouvé,Unité de formation et de recherche,Paris,Non trouvé,Non trouvé,,,,https://diplomeo.com/etablissement-faculte_de_medecine_pierre_et_marie_curie_site_pitie_salpetriere_universite_pierre_et_marie_curie_upmc-1471
"Faculté de médecine Lyon-Est - Claude Bernard, Université Claude Bernard - Lyon 1",Non trouvé,Unité de formation et de recherche,Lyon,Non trouvé,Non trouvé,,,,https://diplomeo.com/etablissement-faculte_de_medecine_lyon_est_claude_bernard_universite_claude_bernard_lyon_1-1472
"Faculté de médecine Jacques Lisfranc, Université Jean Monnet de Saint-Etienne",Non trouvé,Unité de formation et de recherche,Saint-Étienne,Non trouvé,Non trouvé,,,,https://diplomeo.com/etablissement-faculte_de_medecine_jacques_lisfranc_universite_jean_monnet_de_saint_etienne-1475
"Faculté de lettres et langues, Université catholique de Lyon",Non trouvé,Unité de formation et de recherche,Lyon,Non trouvé,Non trouvé,,,,https://diplomeo.com/etablissement-faculte_de_lettres_et_langues_universite_catholique_de_lyon-1477
"GHHAT - Faculté de géographie, histoire, histoire de l'art et tourisme, Université Lumière - Lyon 2",Non trouvé,Unité de formation et de recherche,Lyon,Non trouvé,Non trouvé,,,,https://diplomeo.com/etablissement-ghhat_faculte_de_geographie_histoire_histoire_de_l_art_et_tourisme_universite_lumiere_lyon_2-1478
"Faculté de géographie et d'aménagement, Université de Strasbourg",Non trouvé,Unité de formation et de recherche,Strasbourg,Non trouvé,Non trouvé,,,,https://diplomeo.com/etablissement-faculte_de_geographie_et_d_amenagement_universite_de_strasbourg-1479
"Faculté de droit - site de Valence, Université Grenoble Alpes",Non trouvé,Unité de formation et de recherche,Valence,Non trouvé,Non trouvé,,,,https://diplomeo.com/etablissement-faculte_de_droit_site_de_valence_universite_grenoble_alpes-1480
"GHHAT - Faculté de géographie, histoire, histoire de l'art et tourisme, Université Lumière - Lyon 2",Non trouvé,Unité de formation et de recherche,Lyon,Non trouvé,Non trouvé,,,,https://diplomeo.com/etablissement-ghhat_faculte_de_geographie_histoire_histoire_de_l_art_et_tourisme_universite_lumiere_lyon_2-1481
Faculté de droit - Université Grenoble Alpes (COMUE),Non trouvé,Unité de formation et de recherche,Saint-Martin-d'Hères,Non trouvé,Non trouvé,,,,https://diplomeo.com/etablissement-faculte_de_droit_universite_grenoble_alpes_comue-1482
"Faculté de lettres langues et sciences humaines, Université d'Orléans",Non trouvé,Unité de formation et de recherche,Orléans,Non trouvé,Non trouvé,,,,https://diplomeo.com/etablissement-faculte_de_lettres_langues_et_sciences_humaines_universite_d_orleans-1483
"Faculté de langues et cultures étrangères, Université Picardie Jules Verne Amiens",Non trouvé,Unité de formation et de recherche,Amiens,Non trouvé,Non trouvé,,,,https://diplomeo.com/etablissement-faculte_de_langues_et_cultures_etrangeres_universite_picardie_jules_verne_amiens-1484
"Faculté de mathématiques, Université Pierre et Marie Curie - UPMC",Non trouvé,Unité de formation et de recherche,Paris,Non trouvé,Non trouvé,,,,https://diplomeo.com/etablissement-faculte_de_mathematiques_universite_pierre_et_marie_curie_upmc-1485
"Faculté de droit et science politique, Université Toulouse I Capitole",Non trouvé,Unité de formation et de recherche,Toulouse,Non trouvé,Non trouvé,,,,https://diplomeo.com/etablissement-faculte_de_droit_et_science_politique_universite_toulouse_i_capitole-1489
"Faculté de droit et de sciences politiques, Université de Nice - Sophia Antipolis",Non trouvé,Unité de formation et de recherche,Nice,Non trouvé,Non trouvé,,,,https://diplomeo.com/etablissement-faculte_de_droit_et_de_sciences_politiques_universite_de_nice_sophia_antipolis-1491
"Faculté de droit et des sciences économiques - site de Limoges, Université de Limoges",Non trouvé,Unité de formation et de recherche,Limoges,Non trouvé,Non trouvé,,,,https://diplomeo.com/etablissement-faculte_de_droit_et_des_sciences_economiques_site_de_limoges_universite_de_limoges-1492
"Faculté de droit, Institut catholique de Lyon",Non trouvé,Unité de formation et de recherche,Lyon,Non trouvé,Non trouvé,,,,https://diplomeo.com/etablissement-faculte_de_droit_institut_catholique_de_lyon-1493
"UFR Droit, sciences économique et politique - antenne de Nevers, université de Bourgogne",Non trouvé,Unité de formation et de recherche,Nevers,Non trouvé,Non trouvé,,,,https://diplomeo.com/etablissement-ufr_droit_sciences_economique_et_politique_antenne_de_nevers_universite_de_bourgogne-1495
"Faculté de droit et science politique, Université Lumière - Lyon 2",Non trouvé,Unité de formation et de recherche,Lyon,Non trouvé,Non trouvé,,,,https://diplomeo.com/etablissement-faculte_de_droit_et_science_politique_universite_lumiere_lyon_2-1496
"UFR de droit, Université Jean Monnet Saint-Etienne",Non trouvé,Unité de formation et de recherche,Saint-Étienne,Non trouvé,Non trouvé,,,,https://diplomeo.com/etablissement-ufr_de_droit_universite_jean_monnet_saint_etienne-1497
"Faculté de droit, Université Jean Moulin - Lyon 3",Non trouvé,Unité de formation et de recherche,Lyon,Non trouvé,Non trouvé,,,,https://diplomeo.com/etablissement-faculte_de_droit_universite_jean_moulin_lyon_3-1498
"Faculté de droit et de science politique, Université Rennes 1",Non trouvé,Unité de formation et de recherche,Rennes,Non trouvé,Non trouvé,,,,https://diplomeo.com/etablissement-faculte_de_droit_et_de_science_politique_universite_rennes_1-1499
"UFR Droit et de science politique, Université d'Aix-Marseille",Non trouvé,Unité de formation et de recherche,Aix-en-Provence,Non trouvé,Non trouvé,,,,https://diplomeo.com/etablissement-ufr_droit_et_de_science_politique_universite_d_aix_marseille-1525
"UFR de droit et de science politique, Université Picardie Jules Verne Amiens",Non trouvé,Unité de formation et de recherche,Amiens,Non trouvé,Non trouvé,,,,https://diplomeo.com/etablissement-ufr_de_droit_et_de_science_politique_universite_picardie_jules_verne_amiens-1526
"Faculté de droit de sciences politiques et de gestion, Université de Strasbourg",Non trouvé,Unité de formation et de recherche,Strasbourg,Non trouvé,Non trouvé,,,,https://diplomeo.com/etablissement-faculte_de_droit_de_sciences_politiques_et_de_gestion_universite_de_strasbourg-1533
Faculté libre de droit de l'Institut Catholique de Toulouse,Non trouvé,Unité de formation et de recherche,Toulouse,Non trouvé,Non trouvé,,,,https://diplomeo.com/etablissement-faculte_libre_de_droit_de_l_institut_catholique_de_toulouse-1534
"Faculté de droit et de science politique - Antenne de Saint Brieuc, Université Rennes 1",Non trouvé,Unité de formation et de recherche,Saint-Brieuc,Non trouvé,Non trouvé,,,,https://diplomeo.com/etablissement-faculte_de_droit_et_de_science_politique_antenne_de_saint_brieuc_universite_rennes_1-1535
"UFR Collegium droit, économie, gestion - Université d'Orléans",Non trouvé,Unité de formation et de recherche,Orléans,Non trouvé,Non trouvé,,,,https://diplomeo.com/etablissement-ufr_collegium_droit_economie_gestion_universite_d_orleans-1536
"Faculté de droit, de sciences économiques et de gestion, Université Bretagne Sud",Non trouvé,Unité de formation et de recherche,Rennes,Non trouvé,Non trouvé,,,,https://diplomeo.com/etablissement-faculte_de_droit_de_sciences_economiques_et_de_gestion_universite_bretagne_sud-1537
"Faculté de droit canonique, Institut catholique de Paris",Non trouvé,Unité de formation et de recherche,Paris,Non trouvé,Non trouvé,,,,https://diplomeo.com/etablissement-faculte_de_droit_canonique_institut_catholique_de_paris-1538
"Faculté de chirurgie dentaire, Université Rennes 1",Non trouvé,Unité de formation et de recherche,Rennes,Non trouvé,Non trouvé,,,,https://diplomeo.com/etablissement-faculte_de_chirurgie_dentaire_universite_rennes_1-1539
"FDEG - Faculté de droit, d'économie et de gestion, Université de Valenciennes",Non trouvé,Unité de formation et de recherche,Valenciennes,Non trouvé,Non trouvé,,,,https://diplomeo.com/etablissement-fdeg_faculte_de_droit_d_economie_et_de_gestion_universite_de_valenciennes-1540
"Faculté de chimie, Université de Strasbourg",Non trouvé,Unité de formation et de recherche,Strasbourg,Non trouvé,Non trouvé,,,,https://diplomeo.com/etablissement-faculte_de_chimie_universite_de_strasbourg-1541
"Faculté de droit et de science politique, Université de Versailles Saint-Quentin-en-Yvelines",Non trouvé,Unité de formation et de recherche,Guyancourt,Non trouvé,Non trouvé,,,,https://diplomeo.com/etablissement-faculte_de_droit_et_de_science_politique_universite_de_versailles_saint_quentin_en_yvelines-1542
"Faculté d'administration et de communication, Université Toulouse I Capitole",Non trouvé,Unité de formation et de recherche,Toulouse,Non trouvé,Non trouvé,,,,https://diplomeo.com/etablissement-faculte_d_administration_et_de_communication_universite_toulouse_i_capitole-1543
"Faculté de chirurgie dentaire, Université de Strasbourg",Non trouvé,Unité de formation et de recherche,Strasbourg,Non trouvé,Non trouvé,,,,https://diplomeo.com/etablissement-faculte_de_chirurgie_dentaire_universite_de_strasbourg-1544
"UFR d'économie et de gestion, Université Picardie Jules Verne Amiens",Non trouvé,Unité de formation et de recherche,Amiens,Non trouvé,Non trouvé,,,,https://diplomeo.com/etablissement-ufr_d_economie_et_de_gestion_universite_picardie_jules_verne_amiens-1545
"Faculté de chirurgie dentaire université de Lille 2, Université de Lille 2",Non trouvé,Unité de formation et de recherche,Lille,Non trouvé,Non trouvé,,,,https://diplomeo.com/etablissement-faculte_de_chirurgie_dentaire_universite_de_lille_2_universite_de_lille_2-1546
"UFR anthropologie, sociologie, science politique, Université Lumière - Lyon 2",Non trouvé,Unité de formation et de recherche,Lyon,Non trouvé,Non trouvé,,,,https://diplomeo.com/etablissement-ufr_anthropologie_sociologie_science_politique_universite_lumiere_lyon_2-1547
"Faculté d'arts, lettres et langues, Université Jean Monnet de Saint-Etienne",Non trouvé,Unité de formation et de recherche,Saint-Étienne,Non trouvé,Non trouvé,,,,https://diplomeo.com/etablissement-faculte_d_arts_lettres_et_langues_universite_jean_monnet_de_saint_etienne-1548
"Faculté de chirurgie dentaire, Université Toulouse III",Non trouvé,Unité de formation et de recherche,Toulouse,Non trouvé,Non trouvé,,,,https://diplomeo.com/etablissement-faculte_de_chirurgie_dentaire_universite_toulouse_iii-1559
"EURIA - Euro-institut d'actuariat, Université de Bretagne Occidentale",Non trouvé,Unité de formation et de recherche,Quimper,Non trouvé,Non trouvé,,,,https://diplomeo.com/etablissement-euria_euro_institut_d_actuariat_universite_de_bretagne_occidentale-1593
"ERUDI - ERUDI - Etudes et ressources universitaires à distance, Nancy-Université - Nancy 2",Non trouvé,Unité de formation et de recherche,Nancy,Non trouvé,Non trouvé,,,,https://diplomeo.com/etablissement-erudi_erudi_etudes_et_ressources_universitaires_a_distance_nancy_universite_nancy_2-1676
"Ensemble universitaire de Gavy - antenne universitaire Nantes, Université de Nantes",Non trouvé,Unité de formation et de recherche,Nantes,Non trouvé,Non trouvé,,,,https://diplomeo.com/etablissement-ensemble_universitaire_de_gavy_antenne_universitaire_nantes_universite_de_nantes-1721
"ESIT - Ecole supérieure d'interprètes et de traducteurs, Université de la Sorbonne Nouvelle",Non trouvé,Unité de formation et de recherche,Paris,Non trouvé,Non trouvé,,,,https://diplomeo.com/etablissement-esit_ecole_superieure_d_interpretes_et_de_traducteurs_universite_de_la_sorbonne_nouvelle-1840
"ESAV - Ecole supérieure d'audiovisuel, Université Toulouse II",Non trouvé,Unité de formation et de recherche,Toulouse,Non trouvé,Non trouvé,,,,https://diplomeo.com/etablissement-esav_ecole_superieure_d_audiovisuel_universite_toulouse_ii-1959
"Université de la mode, Université Lumière - Lyon 2",Non trouvé,Unité de formation et de recherche,Lyon,Non trouvé,Non trouvé,,,,https://diplomeo.com/etablissement-universite_de_la_mode_universite_lumiere_lyon_2-5946
Université Paris Ouest Nanterre La Défense - UFR Systèmes Industriels et Techniques de Communication,Non trouvé,Unité de formation et de recherche,Nanterre,Non trouvé,Non trouvé,,,,https://diplomeo.com/etablissement-universite_paris_ouest_nanterre_la_defense_ufr_systemes_industriels_et_techniques_de_communication-5952
"UFR STHI - département STAPS Font-Romeu, Université de Perpignan Via Domitia",Non trouvé,Unité de formation et de recherche,Perpignan,Non trouvé,Non trouvé,,,,https://diplomeo.com/etablissement-ufr_sthi_departement_staps_font_romeu_universite_de_perpignan_via_domitia-5954
"UFR Terre, environnement, biodiversité, Université Pierre et Marie Curie - UPMC",Non trouvé,Unité de formation et de recherche,Paris,Non trouvé,Non trouvé,,,,https://diplomeo.com/etablissement-ufr_terre_environnement_biodiversite_universite_pierre_et_marie_curie_upmc-5955
"UFR STHI - département de Mende : tourisme et multimédia, Université de Perpignan Via Domitia",Non trouvé,Unité de formation et de recherche,Mende,Non trouvé,Non trouvé,,,,https://diplomeo.com/etablissement-ufr_sthi_departement_de_mende_tourisme_et_multimedia_universite_de_perpignan_via_domitia-5957
Université Paris I Panthéon-Sorbonne - UFR 12 Travail et études sociales AES et droit social,Non trouvé,Unité de formation et de recherche,Paris,Non trouvé,Non trouvé,,,,https://diplomeo.com/etablissement-universite_paris_i_pantheon_sorbonne_ufr_12_travail_et_etudes_sociales_aes_et_droit_social-5958
"UFR TES - UFR Territoires, environnements, sociétés, Université Vincennes-Saint-Denis",Non trouvé,Unité de formation et de recherche,Bobigny,Non trouvé,Non trouvé,,,,https://diplomeo.com/etablissement-ufr_tes_ufr_territoires_environnements_societes_universite_vincennes_saint_denis-5959
Université Paris Ouest Nanterre La Défense - Systèmes Industriels et Techniques de Communication,Non trouvé,Unité de formation et de recherche,Nanterre,Non trouvé,Non trouvé,,,,https://diplomeo.com/etablissement-universite_paris_ouest_nanterre_la_defense_systemes_industriels_et_techniques_de_communication-5960
"UFR sciences vie, terre et environnement, Université de Bourgogne",Non trouvé,Unité de formation et de recherche,Dijon,Non trouvé,Non trouvé,,,,https://diplomeo.com/etablissement-ufr_sciences_vie_terre_et_environnement_universite_de_bourgogne-5962
"UFR STAPS, Université Paris-Sud 11",Non trouvé,Unité de formation et de recherche,Évry-Courcouronnes,Non trouvé,Non trouvé,,,,https://diplomeo.com/etablissement-ufr_staps_universite_paris_sud_11-5963
"UFR Sciences sociales, Université Rennes 2",Non trouvé,Unité de formation et de recherche,Rennes,Non trouvé,Non trouvé,,,,https://diplomeo.com/etablissement-ufr_sciences_sociales_universite_rennes_2-5964
UFR STAPS - Université Montpellier,Non trouvé,Unité de formation et de recherche,Montpellier,Non trouvé,Non trouvé,,,,https://diplomeo.com/etablissement-ufr_staps_universite_montpellier-5965
"STAPS - UFR sport et éducation physique, Université de Bretagne Occidentale",Non trouvé,Unité de formation et de recherche,Quimper,Non trouvé,Non trouvé,,,,https://diplomeo.com/etablissement-staps_ufr_sport_et_education_physique_universite_de_bretagne_occidentale-5966
"UFR sciences techniques et gestion de l'industrie, site de Montbeliard, Université de Franche-Comté",Non trouvé,Unité de formation et de recherche,Besançon,Non trouvé,Non trouvé,,,,https://diplomeo.com/etablissement-ufr_sciences_techniques_et_gestion_de_l_industrie_site_de_montbeliard_universite_de_franche_comte-5967
"UFR STAPS - UFR STAPS Faculté des sciences du sport, Université de Bourgogne",Non trouvé,Unité de formation et de recherche,Dijon,Non trouvé,Non trouvé,,,,https://diplomeo.com/etablissement-ufr_staps_ufr_staps_faculte_des_sciences_du_sport_universite_de_bourgogne-5968
"UFR Sciences sociales, Université Paris Diderot",Non trouvé,Unité de formation et de recherche,Paris,Non trouvé,Non trouvé,,,,https://diplomeo.com/etablissement-ufr_sciences_sociales_universite_paris_diderot-5970
UFR Sciences sociales (site de Saint-Brieuc) - Université Rennes 2,Non trouvé,Unité de formation et de recherche,Saint-Brieuc,Non trouvé,Non trouvé,,,,https://diplomeo.com/etablissement-ufr_sciences_sociales_site_de_saint_brieuc_universite_rennes_2-5971
"UFR sciences pharmaceutiques et biologiques, Nancy-Université - Université Henri Poincaré",Non trouvé,Unité de formation et de recherche,Nancy,Non trouvé,Non trouvé,,,,https://diplomeo.com/etablissement-ufr_sciences_pharmaceutiques_et_biologiques_nancy_universite_universite_henri_poincare-5972
"UFR Sciences Pharmaceutiques et Biologiques - Faculté de pharmacie, Université Paris Descartes",Non trouvé,Unité de formation et de recherche,Paris,Non trouvé,Non trouvé,,,,https://diplomeo.com/etablissement-ufr_sciences_pharmaceutiques_et_biologiques_faculte_de_pharmacie_universite_paris_descartes-5973
"UFR sciences médicales, Université Bordeaux II",Non trouvé,Unité de formation et de recherche,Bordeaux,Non trouvé,Non trouvé,,,,https://diplomeo.com/etablissement-ufr_sciences_medicales_universite_bordeaux_ii-5974
"UFR Sciences humaines, Université Rennes 2",Non trouvé,Unité de formation et de recherche,Rennes,Non trouvé,Non trouvé,,,,https://diplomeo.com/etablissement-ufr_sciences_humaines_universite_rennes_2-5975
"UFR Sciences médicales, Nancy-Université - Université Henri Poincaré",Non trouvé,Unité de formation et de recherche,Nancy,Non trouvé,Non trouvé,,,,https://diplomeo.com/etablissement-ufr_sciences_medicales_nancy_universite_universite_henri_poincare-5976
"UFR Sciences Humaines et Sociales, Université Paris Descartes",Non trouvé,Unité de formation et de recherche,Paris,Non trouvé,Non trouvé,,,,https://diplomeo.com/etablissement-ufr_sciences_humaines_et_sociales_universite_paris_descartes-5977
"UFR Arts, lettres, langues Metz, Université de Lorraine",Non trouvé,Unité de formation et de recherche,Metz,Non trouvé,Non trouvé,,,,https://diplomeo.com/etablissement-ufr_arts_lettres_langues_metz_universite_de_lorraine-5978
"SciFA - UFR Sciences fondamentales et appliquées, Université Paul Verlaine de Metz",Non trouvé,Unité de formation et de recherche,Metz,Non trouvé,Non trouvé,,,,https://diplomeo.com/etablissement-scifa_ufr_sciences_fondamentales_et_appliquees_universite_paul_verlaine_de_metz-5979
"UFR STAPS - UFR sciences et techniques des activités physiques et sportives, Université de Nantes",Non trouvé,Unité de formation et de recherche,Nantes,Non trouvé,Non trouvé,,,,https://diplomeo.com/etablissement-ufr_staps_ufr_sciences_et_techniques_des_activites_physiques_et_sportives_universite_de_nantes-5980
"UFR sciences et techniques, Université Pau et Pays de l'Adour",Non trouvé,Unité de formation et de recherche,Pau,Non trouvé,Non trouvé,,,,https://diplomeo.com/etablissement-ufr_sciences_et_techniques_universite_pau_et_pays_de_l_adour-5981
"UFR STAPS - UFR sciences et techniques des activités physiques et sportives STAPS, Université Toulouse III",Non trouvé,Unité de formation et de recherche,Toulouse,Non trouvé,Non trouvé,,,,https://diplomeo.com/etablissement-ufr_staps_ufr_sciences_et_techniques_des_activites_physiques_et_sportives_staps_universite_toulouse_iii-5982
"UFR STAPS - UFR sciences et techniques des activités physiques et sportives STAPS, Université de Nice - Sophia Antipolis",Non trouvé,Unité de formation et de recherche,Nice,Non trouvé,Non trouvé,,,,https://diplomeo.com/etablissement-ufr_staps_ufr_sciences_et_techniques_des_activites_physiques_et_sportives_staps_universite_de_nice_sophia_antipolis-5984
"UFR STAPS - UFR sciences et techniques des activités physiques et sportives STAPS, Université de Franche-Comté",Non trouvé,Unité de formation et de recherche,Besançon,Non trouvé,Non trouvé,,,,https://diplomeo.com/etablissement-ufr_staps_ufr_sciences_et_techniques_des_activites_physiques_et_sportives_staps_universite_de_franche_comte-5985
"UFR STAPS - UFR sciences et techniques des activités physiques et sportives, Université de Reims Champagne-Ardenne",Non trouvé,Unité de formation et de recherche,Reims,Non trouvé,Non trouvé,,,,https://diplomeo.com/etablissement-ufr_staps_ufr_sciences_et_techniques_des_activites_physiques_et_sportives_universite_de_reims_champagne_ardenne-5986
"UFR Sciences humaines cliniques, Université Paris Diderot",Non trouvé,Unité de formation et de recherche,Paris,Non trouvé,Non trouvé,,,,https://diplomeo.com/etablissement-ufr_sciences_humaines_cliniques_universite_paris_diderot-5987
"UFR sciences historiques et géographiques, musicologie, Nancy-Université - Nancy 2",Non trouvé,Unité de formation et de recherche,Nancy,Non trouvé,Non trouvé,,,,https://diplomeo.com/etablissement-ufr_sciences_historiques_et_geographiques_musicologie_nancy_universite_nancy_2-5988
"UFR Sciences et technologie, Université Paris-Est Créteil Val-de-Marne",Non trouvé,Unité de formation et de recherche,Créteil,Non trouvé,Non trouvé,,,,https://diplomeo.com/etablissement-ufr_sciences_et_technologie_universite_paris_est_creteil_val_de_marne-5989
"UFR STAPS (Sciences et Techniques des Activités Physiques et Sportives), Université Paris Descartes",Non trouvé,Unité de formation et de recherche,Paris,Non trouvé,Non trouvé,,,,https://diplomeo.com/etablissement-ufr_staps_sciences_et_techniques_des_activites_physiques_et_sportives_universite_paris_descartes-5990
"UFR STAPS - UFR sciences et techniques des activités physiques et sportives STAPS, Université Paris-Est Marne-La-Vallée",Non trouvé,Unité de formation et de recherche,Melun,Non trouvé,Non trouvé,,,,https://diplomeo.com/etablissement-ufr_staps_ufr_sciences_et_techniques_des_activites_physiques_et_sportives_staps_universite_paris_est_marne_la_vallee-5991
"UFR STAPS - UFR sciences et techniques des activités physiques et sportives STAPS, Université du Sud Toulon - Var",Non trouvé,Unité de formation et de recherche,Toulon,Non trouvé,Non trouvé,,,,https://diplomeo.com/etablissement-ufr_staps_ufr_sciences_et_techniques_des_activites_physiques_et_sportives_staps_universite_du_sud_toulon_var-5992
"SCIMS - UFR sciences et modélisation, Université Bordeaux II",Non trouvé,Unité de formation et de recherche,Bordeaux,Non trouvé,Non trouvé,,,,https://diplomeo.com/etablissement-scims_ufr_sciences_et_modelisation_universite_bordeaux_ii-5993
"UFR STAPS - UFR sciences et techniques des activités physiques et sportives STAPS, Université de Caen Basse-Normandie",Non trouvé,Unité de formation et de recherche,Caen,Non trouvé,Non trouvé,,,,https://diplomeo.com/etablissement-ufr_staps_ufr_sciences_et_techniques_des_activites_physiques_et_sportives_staps_universite_de_caen_basse_normandie-5994
"UFR sciences des territoires et de la communication, Université Bordeaux III",Non trouvé,Unité de formation et de recherche,Bordeaux,Non trouvé,Non trouvé,,,,https://diplomeo.com/etablissement-ufr_sciences_des_territoires_et_de_la_communication_universite_bordeaux_iii-5995
"UFR sciences du langage, Nancy-Université - Nancy 2",Non trouvé,Unité de formation et de recherche,Nancy,Non trouvé,Non trouvé,,,,https://diplomeo.com/etablissement-ufr_sciences_du_langage_nancy_universite_nancy_2-5996
"UFR Sciences de l'information et de la communication - Institut Ingémédia, Université du Sud Toulon - Var",Non trouvé,Unité de formation et de recherche,Toulon,Non trouvé,Non trouvé,,,,https://diplomeo.com/etablissement-ufr_sciences_de_l_information_et_de_la_communication_institut_ingemedia_universite_du_sud_toulon_var-5997
"UFR Sciences de l'éducation, psychanalyse et FLE, Université Vincennes-Saint-Denis",Non trouvé,Unité de formation et de recherche,Saint-Denis,Non trouvé,Non trouvé,,,,https://diplomeo.com/etablissement-ufr_sciences_de_l_education_psychanalyse_et_fle_universite_vincennes_saint_denis-5999
"UFR SVE - UFR sciences de la vie et de l'environnement, Université Rennes 1",Non trouvé,Unité de formation et de recherche,Rennes,Non trouvé,Non trouvé,,,,https://diplomeo.com/etablissement-ufr_sve_ufr_sciences_de_la_vie_et_de_l_environnement_universite_rennes_1-6000
"UFR sciences et techniques antenne d'Auxerre, Université de Bourgogne",Non trouvé,Unité de formation et de recherche,Auxerre,Non trouvé,Non trouvé,,,,https://diplomeo.com/etablissement-ufr_sciences_et_techniques_antenne_d_auxerre_universite_de_bourgogne-6001
"UFR sciences et techniques de la côte basque, Université Pau et Pays de l'Adour",Non trouvé,Unité de formation et de recherche,Pau,Non trouvé,Non trouvé,,,,https://diplomeo.com/etablissement-ufr_sciences_et_techniques_de_la_cote_basque_universite_pau_et_pays_de_l_adour-6002
"UFR sciences et techniques des activites physiques et sportives, Université Clermont-Ferrand II",Non trouvé,Unité de formation et de recherche,Clermont-Ferrand,Non trouvé,Non trouvé,,,,https://diplomeo.com/etablissement-ufr_sciences_et_techniques_des_activites_physiques_et_sportives_universite_clermont_ferrand_ii-6003
Université Paris Ouest Nanterre La Défense - UFR Sciences et Techniques des Activités Physiques et Sportives,Non trouvé,Unité de formation et de recherche,Nanterre,Non trouvé,Non trouvé,,,,https://diplomeo.com/etablissement-universite_paris_ouest_nanterre_la_defense_ufr_sciences_et_techniques_des_activites_physiques_et_sportives-6004
"UFR SDL - UFR Sciences du langage, Université Vincennes-Saint-Denis",Non trouvé,Unité de formation et de recherche,Bobigny,Non trouvé,Non trouvé,,,,https://diplomeo.com/etablissement-ufr_sdl_ufr_sciences_du_langage_universite_vincennes_saint_denis-6005
"UFR Sciences du vivant, Université Paris Diderot",Non trouvé,Unité de formation et de recherche,Paris,Non trouvé,Non trouvé,,,,https://diplomeo.com/etablissement-ufr_sciences_du_vivant_universite_paris_diderot-6006
"UFR Sciences de l'éducation , sciences sociales, sciences et techniques des activités sportives, Université Paris-Est Créteil Val-de-Marne",Non trouvé,Unité de formation et de recherche,Créteil,Non trouvé,Non trouvé,,,,https://diplomeo.com/etablissement-ufr_sciences_de_l_education_sciences_sociales_sciences_et_techniques_des_activites_sportives_universite_paris_est_creteil_val_de_marne-6007
"UFR Sciences de la Terre, de l'environnement et des planètes, Université Paris Diderot",Non trouvé,Unité de formation et de recherche,Paris,Non trouvé,Non trouvé,,,,https://diplomeo.com/etablissement-ufr_sciences_de_la_terre_de_l_environnement_et_des_planetes_universite_paris_diderot-6008
"UFR Psychologie - Institut de psychologie, Université Paris Descartes",Non trouvé,Unité de formation et de recherche,Nanterre,Non trouvé,Non trouvé,,,,https://diplomeo.com/etablissement-ufr_psychologie_institut_de_psychologie_universite_paris_descartes-6009
Université Paris I Panthéon-Sorbonne - UFR 11 Science politique,Non trouvé,Unité de formation et de recherche,Paris,Non trouvé,Non trouvé,,,,https://diplomeo.com/etablissement-universite_paris_i_pantheon_sorbonne_ufr_11_science_politique-6010
"UFR pluridisciplinaire de Bayonne Anglet Biarritz, Université Pau et Pays de l'Adour",Non trouvé,Unité de formation et de recherche,Pau,Non trouvé,Non trouvé,,,,https://diplomeo.com/etablissement-ufr_pluridisciplinaire_de_bayonne_anglet_biarritz_universite_pau_et_pays_de_l_adour-6011
"UFR Physique, Université Paris Diderot",Non trouvé,Unité de formation et de recherche,Paris,Non trouvé,Non trouvé,,,,https://diplomeo.com/etablissement-ufr_physique_universite_paris_diderot-6013
Université Paris I Panthéon-Sorbonne - UFR 10 Philosophie,Non trouvé,Unité de formation et de recherche,Paris,Non trouvé,Non trouvé,,,,https://diplomeo.com/etablissement-universite_paris_i_pantheon_sorbonne_ufr_10_philosophie-6014
"UFR Philosophie et sociologie, Université Paris-Sorbonne Paris IV",Non trouvé,Unité de formation et de recherche,Paris,Non trouvé,Non trouvé,,,,https://diplomeo.com/etablissement-ufr_philosophie_et_sociologie_universite_paris_sorbonne_paris_iv-6015
"UFR Pharmacie - Faculté de pharmacie, Université Paris-Sud 11",Non trouvé,Unité de formation et de recherche,Nanterre,Non trouvé,Non trouvé,,,,https://diplomeo.com/etablissement-ufr_pharmacie_faculte_de_pharmacie_universite_paris_sud_11-6016
Université de Versailles Saint-Quentin-en-Yvelines - UFR des Sciences de la santé Simone Veil,Non trouvé,Unité de formation et de recherche,Versailles,Non trouvé,Non trouvé,,,,https://diplomeo.com/etablissement-universite_de_versailles_saint_quentin_en_yvelines_ufr_des_sciences_de_la_sante_simone_veil-6017
"UFR PPCS - UFR Psychologie, pratiques cliniques et sociales, Université Vincennes-Saint-Denis",Non trouvé,Unité de formation et de recherche,Bobigny,Non trouvé,Non trouvé,,,,https://diplomeo.com/etablissement-ufr_ppcs_ufr_psychologie_pratiques_cliniques_et_sociales_universite_vincennes_saint_denis-6019
"UFR Médecine, Université Paris-Sud 11",Non trouvé,Unité de formation et de recherche,Créteil,Non trouvé,Non trouvé,,,,https://diplomeo.com/etablissement-ufr_medecine_universite_paris_sud_11-6020
"UFR Musique et musicologie, Université Paris-Sorbonne Paris IV",Non trouvé,Unité de formation et de recherche,Paris,Non trouvé,Non trouvé,,,,https://diplomeo.com/etablissement-ufr_musique_et_musicologie_universite_paris_sorbonne_paris_iv-6022
"FMA - Faculté de marketing et d'agrosciences - Pôle marketing, Université de Haute Alsace Mulhouse",Non trouvé,Unité de formation et de recherche,Colmar,Non trouvé,Non trouvé,,,,https://diplomeo.com/etablissement-fma_faculte_de_marketing_et_d_agrosciences_pole_marketing_universite_de_haute_alsace_mulhouse-6024
"UFR Faculté de chirurgie dentaire - Odontologie, Université Paris Descartes",Non trouvé,Unité de formation et de recherche,Nanterre,Non trouvé,Non trouvé,,,,https://diplomeo.com/etablissement-ufr_faculte_de_chirurgie_dentaire_odontologie_universite_paris_descartes-6025
"UFR Mathématiques, Université Paris Diderot",Non trouvé,Unité de formation et de recherche,Paris,Non trouvé,Non trouvé,,,,https://diplomeo.com/etablissement-ufr_mathematiques_universite_paris_diderot-6026
"UFR Mathématiques, informatique, technologies, sciences de l'information et de la communication, Université Vincennes-Saint-Denis",Non trouvé,Unité de formation et de recherche,Bobigny,Non trouvé,Non trouvé,,,,https://diplomeo.com/etablissement-ufr_mathematiques_informatique_technologies_sciences_de_l_information_et_de_la_communication_universite_vincennes_saint_denis-6027
"MIM - UFR Mathématiques, informatique, mécanique, Université Paul Verlaine de Metz",Non trouvé,Unité de formation et de recherche,Metz,Non trouvé,Non trouvé,,,,https://diplomeo.com/etablissement-mim_ufr_mathematiques_informatique_mecanique_universite_paul_verlaine_de_metz-6028
"UFR Linguistique, Université Paris Diderot",Non trouvé,Unité de formation et de recherche,Paris,Non trouvé,Non trouvé,,,,https://diplomeo.com/etablissement-ufr_linguistique_universite_paris_diderot-6029
"UFR ALL - UFR Arts, lettres et langues Nancy, Université de Lorraine",Non trouvé,Unité de formation et de recherche,Nancy,Non trouvé,Non trouvé,,,,https://diplomeo.com/etablissement-ufr_all_ufr_arts_lettres_et_langues_nancy_universite_de_lorraine-6030
"UFR Lettres et sciences humaines, Université Paris-Est Créteil Val-de-Marne",Non trouvé,Unité de formation et de recherche,Créteil,Non trouvé,Non trouvé,,,,https://diplomeo.com/etablissement-ufr_lettres_et_sciences_humaines_universite_paris_est_creteil_val_de_marne-6031
"MI - UFR Mathématiques et informatique - Pôle lorrain de gestion, Nancy-Université - Nancy 2",Non trouvé,Unité de formation et de recherche,Nancy,Non trouvé,Non trouvé,,,,https://diplomeo.com/etablissement-mi_ufr_mathematiques_et_informatique_pole_lorrain_de_gestion_nancy_universite_nancy_2-6032
Université Paris I Panthéon-Sorbonne - UFR 27 Mathématiques et informatique,Non trouvé,Unité de formation et de recherche,Paris,Non trouvé,Non trouvé,,,,https://diplomeo.com/etablissement-universite_paris_i_pantheon_sorbonne_ufr_27_mathematiques_et_informatique-6033
"UFR Mathématiques et Informatique, Université Paris Descartes",Non trouvé,Unité de formation et de recherche,Paris,Non trouvé,Non trouvé,,,,https://diplomeo.com/etablissement-ufr_mathematiques_et_informatique_universite_paris_descartes-6034
"UFR Littérature française et comparée, Université Paris-Sorbonne Paris IV",Non trouvé,Unité de formation et de recherche,Paris,Non trouvé,Non trouvé,,,,https://diplomeo.com/etablissement-ufr_litterature_francaise_et_comparee_universite_paris_sorbonne_paris_iv-6035
"LL - UFR Lettres et langues, Université Paul Verlaine de Metz",Non trouvé,Unité de formation et de recherche,Metz,Non trouvé,Non trouvé,,,,https://diplomeo.com/etablissement-ll_ufr_lettres_et_langues_universite_paul_verlaine_de_metz-6038
"UFR Lettres, arts et cinéma, Université Paris Diderot",Non trouvé,Unité de formation et de recherche,Paris,Non trouvé,Non trouvé,,,,https://diplomeo.com/etablissement-ufr_lettres_arts_et_cinema_universite_paris_diderot-6039
"UFR Langues, Université Rennes 2",Non trouvé,Unité de formation et de recherche,Rennes,Non trouvé,Non trouvé,,,,https://diplomeo.com/etablissement-ufr_langues_universite_rennes_2-6040
"UFR LEA - UFR Langues étrangères appliquées, Université de la Sorbonne Nouvelle",Non trouvé,Unité de formation et de recherche,Paris,Non trouvé,Non trouvé,,,,https://diplomeo.com/etablissement-ufr_lea_ufr_langues_etrangeres_appliquees_universite_de_la_sorbonne_nouvelle-6041
"UFR langues et cultures étrangères, Nancy-Université - Nancy 2",Non trouvé,Unité de formation et de recherche,Nancy,Non trouvé,Non trouvé,,,,https://diplomeo.com/etablissement-ufr_langues_et_cultures_etrangeres_nancy_universite_nancy_2-6042
"UFR Langues étrangères, Université d'Artois",Non trouvé,Unité de formation et de recherche,Arras,Non trouvé,Non trouvé,,,,https://diplomeo.com/etablissement-ufr_langues_etrangeres_universite_d_artois-6043
"UFR langues et civilisations, Université Bordeaux III",Non trouvé,Unité de formation et de recherche,Bordeaux,Non trouvé,Non trouvé,,,,https://diplomeo.com/etablissement-ufr_langues_et_civilisations_universite_bordeaux_iii-6044
"UFR LEA - UFR Langues étrangères appliquées, Université Paris-Sorbonne Paris IV",Non trouvé,Unité de formation et de recherche,Paris,Non trouvé,Non trouvé,,,,https://diplomeo.com/etablissement-ufr_lea_ufr_langues_etrangeres_appliquees_universite_paris_sorbonne_paris_iv-6045
"UFR LLCE-LEA - UFR Langues, littératures et civilisations étrangères - langues étrangères appliquées ( LLCE-LEA), Université Vincennes-Saint-Denis",Non trouvé,Unité de formation et de recherche,Bobigny,Non trouvé,Non trouvé,,,,https://diplomeo.com/etablissement-ufr_llce_lea_ufr_langues_litteratures_et_civilisations_etrangeres_langues_etrangeres_appliquees_llce_lea_universite_vincennes_saint_denis-6046
"UFR Langues et civilisations de l'Asie orientale, Université Paris Diderot",Non trouvé,Unité de formation et de recherche,Paris,Non trouvé,Non trouvé,,,,https://diplomeo.com/etablissement-ufr_langues_et_civilisations_de_l_asie_orientale_universite_paris_diderot-6047
"UFR langues appliquées, commerce et communication, Université Clermont-Ferrand II",Non trouvé,Unité de formation et de recherche,Clermont-Ferrand,Non trouvé,Non trouvé,,,,https://diplomeo.com/etablissement-ufr_langues_appliquees_commerce_et_communication_universite_clermont_ferrand_ii-6048
"UFR Latin, Université Paris-Sorbonne Paris IV",Non trouvé,Unité de formation et de recherche,Paris,Non trouvé,Non trouvé,,,,https://diplomeo.com/etablissement-ufr_latin_universite_paris_sorbonne_paris_iv-6049
"UFR Institut des sciences humaines appliquées, Université Paris-Sorbonne Paris IV",Non trouvé,Unité de formation et de recherche,Paris,Non trouvé,Non trouvé,,,,https://diplomeo.com/etablissement-ufr_institut_des_sciences_humaines_appliquees_universite_paris_sorbonne_paris_iv-6050
Université Paris I Panthéon-Sorbonne - UFR 16 Institut sciences sociales du travail ISST,Non trouvé,Unité de formation et de recherche,Nanterre,Non trouvé,Non trouvé,,,,https://diplomeo.com/etablissement-universite_paris_i_pantheon_sorbonne_ufr_16_institut_sciences_sociales_du_travail_isst-6051
Université Paris I Panthéon-Sorbonne - UFR 15 Institut d'études du développement économique et social,Non trouvé,Unité de formation et de recherche,Créteil,Non trouvé,Non trouvé,,,,https://diplomeo.com/etablissement-universite_paris_i_pantheon_sorbonne_ufr_15_institut_d_etudes_du_developpement_economique_et_social-6052
"UFR Italien et roumain, Université Paris-Sorbonne Paris IV",Non trouvé,Unité de formation et de recherche,Paris,Non trouvé,Non trouvé,,,,https://diplomeo.com/etablissement-ufr_italien_et_roumain_universite_paris_sorbonne_paris_iv-6053
Université Paris I Panthéon-Sorbonne - UFR 14 Institut de démographie,Non trouvé,Unité de formation et de recherche,Paris,Non trouvé,Non trouvé,,,,https://diplomeo.com/etablissement-universite_paris_i_pantheon_sorbonne_ufr_14_institut_de_demographie-6054
"UFR Informatique, Université Paris Diderot",Non trouvé,Unité de formation et de recherche,Paris,Non trouvé,Non trouvé,,,,https://diplomeo.com/etablissement-ufr_informatique_universite_paris_diderot-6056
"UFR Ingénierie, Université Pierre et Marie Curie - UPMC",Non trouvé,Unité de formation et de recherche,Paris,Non trouvé,Non trouvé,,,,https://diplomeo.com/etablissement-ufr_ingenierie_universite_pierre_et_marie_curie_upmc-6058
Université Paris I Panthéon-Sorbonne - UFR 21 Institut de recherche et d'études supérieures de tourisme,Non trouvé,Unité de formation et de recherche,Paris,Non trouvé,Non trouvé,,,,https://diplomeo.com/etablissement-universite_paris_i_pantheon_sorbonne_ufr_21_institut_de_recherche_et_d_etudes_superieures_de_tourisme-6059
"UFR Langue française, Université Paris-Sorbonne Paris IV",Non trouvé,Unité de formation et de recherche,Paris,Non trouvé,Non trouvé,,,,https://diplomeo.com/etablissement-ufr_langue_francaise_universite_paris_sorbonne_paris_iv-6060
"IRCOM - UFR Institut de recherche sur les civilisations de l'occident moderne, Université Paris-Sorbonne Paris IV",Non trouvé,Unité de formation et de recherche,Paris,Non trouvé,Non trouvé,,,,https://diplomeo.com/etablissement-ircom_ufr_institut_de_recherche_sur_les_civilisations_de_l_occident_moderne_universite_paris_sorbonne_paris_iv-6061
"ILIS - UFR Ingénierie et Management de la santé - ILIS, Université de Lille 2",Non trouvé,Unité de formation et de recherche,Lille,Non trouvé,Non trouvé,,,,https://diplomeo.com/etablissement-ilis_ufr_ingenierie_et_management_de_la_sante_ilis_universite_de_lille_2-6062
"UFR Information-communication, Université Lille 3",Non trouvé,Unité de formation et de recherche,Lille,Non trouvé,Non trouvé,,,,https://diplomeo.com/etablissement-ufr_information_communication_universite_lille_3-6063
"UFR Textes et sociétés, Université Vincennes-Saint-Denis",Non trouvé,Unité de formation et de recherche,Saint-Denis,Non trouvé,Non trouvé,,,,https://diplomeo.com/etablissement-ufr_textes_et_societes_universite_vincennes_saint_denis-6064
Université Paris I Panthéon-Sorbonne - UFR 09 Histoire,Non trouvé,Unité de formation et de recherche,Paris,Non trouvé,Non trouvé,,,,https://diplomeo.com/etablissement-universite_paris_i_pantheon_sorbonne_ufr_09_histoire-6065
"UFR Grec, Université Paris-Sorbonne Paris IV",Non trouvé,Unité de formation et de recherche,Paris,Non trouvé,Non trouvé,,,,https://diplomeo.com/etablissement-ufr_grec_universite_paris_sorbonne_paris_iv-6066
"UFR Histoire, Université Paris-Sorbonne Paris IV",Non trouvé,Unité de formation et de recherche,Paris,Non trouvé,Non trouvé,,,,https://diplomeo.com/etablissement-ufr_histoire_universite_paris_sorbonne_paris_iv-6067
"UFR humanités, Université Bordeaux Montaigne",Non trouvé,Unité de formation et de recherche,Bordeaux,Non trouvé,Non trouvé,,,,https://diplomeo.com/etablissement-ufr_humanites_universite_bordeaux_montaigne-6068
"UFR Histoire de l'art et archéologie, Université Paris-Sorbonne Paris IV",Non trouvé,Unité de formation et de recherche,Paris,Non trouvé,Non trouvé,,,,https://diplomeo.com/etablissement-ufr_histoire_de_l_art_et_archeologie_universite_paris_sorbonne_paris_iv-6069
Université Paris I Panthéon-Sorbonne - UFR 03 Histoire de l'art et archéologie,Non trouvé,Unité de formation et de recherche,Paris,Non trouvé,Non trouvé,,,,https://diplomeo.com/etablissement-universite_paris_i_pantheon_sorbonne_ufr_03_histoire_de_l_art_et_archeologie-6070
Université Paris I Panthéon-Sorbonne - UFR 08 Géographie,Non trouvé,Unité de formation et de recherche,Paris,Non trouvé,Non trouvé,,,,https://diplomeo.com/etablissement-universite_paris_i_pantheon_sorbonne_ufr_08_geographie-6071
"UFR Géographie histoire et sciences de la société, Université Paris Diderot",Non trouvé,Unité de formation et de recherche,Paris,Non trouvé,Non trouvé,,,,https://diplomeo.com/etablissement-ufr_geographie_histoire_et_sciences_de_la_societe_universite_paris_diderot-6072
"UFR 06 Ecole de management de la Sorbonne, Université Panthéon-Sorbonne",Non trouvé,Unité de formation et de recherche,Paris,Non trouvé,Non trouvé,,,,https://diplomeo.com/etablissement-ufr_06_ecole_de_management_de_la_sorbonne_universite_pantheon_sorbonne-6073
"UFR Etudes slaves, Université Paris-Sorbonne Paris IV",Non trouvé,Unité de formation et de recherche,Paris,Non trouvé,Non trouvé,,,,https://diplomeo.com/etablissement-ufr_etudes_slaves_universite_paris_sorbonne_paris_iv-6075
Université Paris I Panthéon-Sorbonne - UFR 07 Etudes internationales et européennes,Non trouvé,Unité de formation et de recherche,Paris,Non trouvé,Non trouvé,,,,https://diplomeo.com/etablissement-universite_paris_i_pantheon_sorbonne_ufr_07_etudes_internationales_et_europeennes-6076
"UFR Etudes ibériques et latino-américaines, Université Paris-Sorbonne Paris IV",Non trouvé,Unité de formation et de recherche,Paris,Non trouvé,Non trouvé,,,,https://diplomeo.com/etablissement-ufr_etudes_iberiques_et_latino_americaines_universite_paris_sorbonne_paris_iv-6077
"UFR Etudes anglophones, Université Paris Diderot",Non trouvé,Unité de formation et de recherche,Paris,Non trouvé,Non trouvé,,,,https://diplomeo.com/etablissement-ufr_etudes_anglophones_universite_paris_diderot-6078
"UFR du monde anglophone, Université de la Sorbonne Nouvelle",Non trouvé,Unité de formation et de recherche,Paris,Non trouvé,Non trouvé,,,,https://diplomeo.com/etablissement-ufr_du_monde_anglophone_universite_de_la_sorbonne_nouvelle-6079
"Faculté de droit, Université Savoie Mont Blanc",Non trouvé,Unité de formation et de recherche,Chambéry,Non trouvé,Non trouvé,,,,https://diplomeo.com/etablissement-faculte_de_droit_universite_savoie_mont_blanc-6080
"UFR d'études théâtrales, Université de la Sorbonne Nouvelle",Non trouvé,Unité de formation et de recherche,Paris,Non trouvé,Non trouvé,,,,https://diplomeo.com/etablissement-ufr_d_etudes_theatrales_universite_de_la_sorbonne_nouvelle-6081
"UFR Géographie et aménagement, Université Paris-Sorbonne Paris IV",Non trouvé,Unité de formation et de recherche,Paris,Non trouvé,Non trouvé,,,,https://diplomeo.com/etablissement-ufr_geographie_et_amenagement_universite_paris_sorbonne_paris_iv-6082
Université Paris I Panthéon-Sorbonne - UFR 26 Etudes juridiques générales,Non trouvé,Unité de formation et de recherche,Paris,Non trouvé,Non trouvé,,,,https://diplomeo.com/etablissement-universite_paris_i_pantheon_sorbonne_ufr_26_etudes_juridiques_generales-6083
"UFR d'études ibériques et latino-américaines, Université de la Sorbonne Nouvelle",Non trouvé,Unité de formation et de recherche,Paris,Non trouvé,Non trouvé,,,,https://diplomeo.com/etablissement-ufr_d_etudes_iberiques_et_latino_americaines_universite_de_la_sorbonne_nouvelle-6084
"UFR d'études romanes, slaves et orientales, Université Lille 3",Non trouvé,Unité de formation et de recherche,Lille,Non trouvé,Non trouvé,,,,https://diplomeo.com/etablissement-ufr_d_etudes_romanes_slaves_et_orientales_universite_lille_3-6085
"UFR d'études italiennes et de roumain, Université de la Sorbonne Nouvelle",Non trouvé,Unité de formation et de recherche,Paris,Non trouvé,Non trouvé,,,,https://diplomeo.com/etablissement-ufr_d_etudes_italiennes_et_de_roumain_universite_de_la_sorbonne_nouvelle-6086
"UFR Etudes germaniques, Université Paris-Sorbonne Paris IV",Non trouvé,Unité de formation et de recherche,Paris,Non trouvé,Non trouvé,,,,https://diplomeo.com/etablissement-ufr_etudes_germaniques_universite_paris_sorbonne_paris_iv-6087
"EILA - UFR Etudes interculturelles de langues appliquées, Université Paris Diderot",Non trouvé,Unité de formation et de recherche,Paris,Non trouvé,Non trouvé,,,,https://diplomeo.com/etablissement-eila_ufr_etudes_interculturelles_de_langues_appliquees_universite_paris_diderot-6088
"UFR 02 Economie, Université Panthéon-Sorbonne",Non trouvé,Unité de formation et de recherche,Paris,Non trouvé,Non trouvé,,,,https://diplomeo.com/etablissement-ufr_02_economie_universite_pantheon_sorbonne-6089
"UFR d'études germaniques et scandinaves université Charles de Gaulle, Université Lille 3",Non trouvé,Unité de formation et de recherche,Lille,Non trouvé,Non trouvé,,,,https://diplomeo.com/etablissement-ufr_d_etudes_germaniques_et_scandinaves_universite_charles_de_gaulle_universite_lille_3-6091
"UFR d'études anglophones, Université Stendhal - Grenoble 3",Non trouvé,Unité de formation et de recherche,Grenoble,Non trouvé,Non trouvé,,,,https://diplomeo.com/etablissement-ufr_d_etudes_anglophones_universite_stendhal_grenoble_3-6092
"ERLAOS - UFR d'études romanes, latino-américaines, orientales et slaves, Université Aix-Marseille I",Non trouvé,Unité de formation et de recherche,Aix-en-Provence,Non trouvé,Non trouvé,,,,https://diplomeo.com/etablissement-erlaos_ufr_d_etudes_romanes_latino_americaines_orientales_et_slaves_universite_aix_marseille_i-6093
"UFR d'études européennes, Université de la Sorbonne Nouvelle",Non trouvé,Unité de formation et de recherche,Paris,Non trouvé,Non trouvé,,,,https://diplomeo.com/etablissement-ufr_d_etudes_europeennes_universite_de_la_sorbonne_nouvelle-6094
"UFR droit, Université Paris-Est Créteil Val-de-Marne",Non trouvé,Unité de formation et de recherche,Créteil,Non trouvé,Non trouvé,,,,https://diplomeo.com/etablissement-ufr_droit_universite_paris_est_creteil_val_de_marne-6095
"UFR Droit, Université Vincennes-Saint-Denis",Non trouvé,Unité de formation et de recherche,Bobigny,Non trouvé,Non trouvé,,,,https://diplomeo.com/etablissement-ufr_droit_universite_vincennes_saint_denis-6096
"UFR droit, sciences politiques et sociales (cycle master), Université Panthéon-Assas",Non trouvé,Unité de formation et de recherche,Paris,Non trouvé,Non trouvé,,,,https://diplomeo.com/etablissement-ufr_droit_sciences_politiques_et_sociales_cycle_master_universite_pantheon_assas-6097
"UFR droit, sciences économiques et gestion - Université de Lorraine",Non trouvé,Unité de formation et de recherche,Nancy,Non trouvé,Non trouvé,,,,https://diplomeo.com/etablissement-ufr_droit_sciences_economiques_et_gestion_universite_de_lorraine-6098
"UFR droit - Faculté de droit, Université Paris Descartes",Non trouvé,Unité de formation et de recherche,Nanterre,Non trouvé,Non trouvé,,,,https://diplomeo.com/etablissement-ufr_droit_faculte_de_droit_universite_paris_descartes-6099
"IEJ - UFR droit - Institut d'études judiciaires, Université Paris Descartes",Non trouvé,Unité de formation et de recherche,Malakoff,Non trouvé,Non trouvé,,,,https://diplomeo.com/etablissement-iej_ufr_droit_institut_d_etudes_judiciaires_universite_paris_descartes-6100
UFR droit et science politique - Université Bordeaux,Non trouvé,Unité de formation et de recherche,Bordeaux,Non trouvé,Non trouvé,,,,https://diplomeo.com/etablissement-ufr_droit_et_science_politique_universite_bordeaux-6102
"UFR droit, économie, gestion et AES, Université de Bretagne Occidentale",Non trouvé,Unité de formation et de recherche,Brest,Non trouvé,Non trouvé,,,,https://diplomeo.com/etablissement-ufr_droit_economie_gestion_et_aes_universite_de_bretagne_occidentale-6103
"UFR droit, économie, gestion (cycle licence) - Centre Melun, Université Panthéon-Assas",Non trouvé,Unité de formation et de recherche,Melun,Non trouvé,Non trouvé,,,,https://diplomeo.com/etablissement-ufr_droit_economie_gestion_cycle_licence_centre_melun_universite_pantheon_assas-6104
"UFR Droit - Pôle licence (Ecole de droit de La Sorbonne), Université Panthéon-Sorbonne",Non trouvé,Unité de formation et de recherche,Paris,Non trouvé,Non trouvé,,,,https://diplomeo.com/etablissement-ufr_droit_pole_licence_ecole_de_droit_de_la_sorbonne_universite_pantheon_sorbonne-6105
"UFR droit et sciences politiques (cycle licence) (Centre Vaugirard), Université Panthéon-Assas",Non trouvé,Unité de formation et de recherche,Paris,Non trouvé,Non trouvé,,,,https://diplomeo.com/etablissement-ufr_droit_et_sciences_politiques_cycle_licence_centre_vaugirard_universite_pantheon_assas-6106
"UFR d'oenologie, Université Bordeaux II",Non trouvé,Unité de formation et de recherche,Bordeaux,Non trouvé,Non trouvé,,,,https://diplomeo.com/etablissement-ufr_d_oenologie_universite_bordeaux_ii-6107
"UFR d'odontologie, Université de Reims Champagne-Ardenne",Non trouvé,Unité de formation et de recherche,Reims,Non trouvé,Non trouvé,,,,https://diplomeo.com/etablissement-ufr_d_odontologie_universite_de_reims_champagne_ardenne-6108
"UFR droit économie gestion - Faculté Jean Monnet, Université Paris-Sud 11",Non trouvé,Unité de formation et de recherche,Sceaux,Non trouvé,Non trouvé,,,,https://diplomeo.com/etablissement-ufr_droit_economie_gestion_faculte_jean_monnet_universite_paris_sud_11-6109
"UFR 05 Droit - Droit privé (Ecole de droit de La Sorbonne), Université Panthéon-Sorbonne",Non trouvé,Unité de formation et de recherche,Paris,Non trouvé,Non trouvé,,,,https://diplomeo.com/etablissement-ufr_05_droit_droit_prive_ecole_de_droit_de_la_sorbonne_universite_pantheon_sorbonne-6110
"UFR d'odontologie, Université de Nantes",Non trouvé,Unité de formation et de recherche,Nantes,Non trouvé,Non trouvé,,,,https://diplomeo.com/etablissement-ufr_d_odontologie_universite_de_nantes-6113
"UFR d'odontologie, Université Bordeaux II",Non trouvé,Unité de formation et de recherche,Bordeaux,Non trouvé,Non trouvé,,,,https://diplomeo.com/etablissement-ufr_d_odontologie_universite_bordeaux_ii-6114
"UFR droit, économie et administration, Université de Lorraine",Non trouvé,Unité de formation et de recherche,Metz,Non trouvé,Non trouvé,,,,https://diplomeo.com/etablissement-ufr_droit_economie_et_administration_universite_de_lorraine-6115
"UFR d'informatique, Université Toulouse I Capitole",Non trouvé,Unité de formation et de recherche,Toulouse,Non trouvé,Non trouvé,,,,https://diplomeo.com/etablissement-ufr_d_informatique_universite_toulouse_i_capitole-6116
"ODONTO UM1 - UFR d'odontologie, Université Montpellier I",Non trouvé,Unité de formation et de recherche,Montpellier,Non trouvé,Non trouvé,,,,https://diplomeo.com/etablissement-odonto_um1_ufr_d_odontologie_universite_montpellier_i-6117
"UFR d'Histoire, histoire de l'art et archéologie, Université de Nantes",Non trouvé,Unité de formation et de recherche,Nantes,Non trouvé,Non trouvé,,,,https://diplomeo.com/etablissement-ufr_d_histoire_histoire_de_l_art_et_archeologie_universite_de_nantes-6119
"UFR d'histoire et géographie, Université d'Artois",Non trouvé,Unité de formation et de recherche,Arras,Non trouvé,Non trouvé,,,,https://diplomeo.com/etablissement-ufr_d_histoire_et_geographie_universite_d_artois-6120
"UFR d'odontologie université d'Auvergne, Université Clermont-Ferrand I",Non trouvé,Unité de formation et de recherche,Clermont-Ferrand,Non trouvé,Non trouvé,,,,https://diplomeo.com/etablissement-ufr_d_odontologie_universite_d_auvergne_universite_clermont_ferrand_i-6121
"UFR d'odontologie, Université de Nice - Sophia Antipolis",Non trouvé,Unité de formation et de recherche,Nice,Non trouvé,Non trouvé,,,,https://diplomeo.com/etablissement-ufr_d_odontologie_universite_de_nice_sophia_antipolis-6122
"UFR d'odontologie, Université de Bretagne Occidentale",Non trouvé,Unité de formation et de recherche,Quimper,Non trouvé,Non trouvé,,,,https://diplomeo.com/etablissement-ufr_d_odontologie_universite_de_bretagne_occidentale-6123
"UFR d'histoire, Université de Caen Basse-Normandie",Non trouvé,Unité de formation et de recherche,Caen,Non trouvé,Non trouvé,,,,https://diplomeo.com/etablissement-ufr_d_histoire_universite_de_caen_basse_normandie-6124
"IEEA - UFR d'informatique électronique électrotechnique et automatique, Université Lille 1 - Sciences et Technologies",Non trouvé,Unité de formation et de recherche,Lille,Non trouvé,Non trouvé,,,,https://diplomeo.com/etablissement-ieea_ufr_d_informatique_electronique_electrotechnique_et_automatique_universite_lille_1_sciences_et_technologies-6125
"IDIST - UFR d'information-documentation, information scientifique et technique, Université Lille 3",Non trouvé,Unité de formation et de recherche,Lille,Non trouvé,Non trouvé,,,,https://diplomeo.com/etablissement-idist_ufr_d_information_documentation_information_scientifique_et_technique_universite_lille_3-6126
"SSPSD - UFR des sciences sociales pratiques sociales et développement, Université de Strasbourg",Non trouvé,Unité de formation et de recherche,Strasbourg,Non trouvé,Non trouvé,,,,https://diplomeo.com/etablissement-sspsd_ufr_des_sciences_sociales_pratiques_sociales_et_developpement_universite_de_strasbourg-6128
"UFR des sciences, Université Paris-Sud 11",Non trouvé,Unité de formation et de recherche,Évry-Courcouronnes,Non trouvé,Non trouvé,,,,https://diplomeo.com/etablissement-ufr_des_sciences_universite_paris_sud_11-6129
Université de Versailles Saint-Quentin-en-Yvelines - UFR des sciences,Non trouvé,Unité de formation et de recherche,Versailles,Non trouvé,Non trouvé,,,,https://diplomeo.com/etablissement-universite_de_versailles_saint_quentin_en_yvelines_ufr_des_sciences-6130
"UFR des sciences - Pôle scientifique Saint Leu, Université Picardie Jules Verne Amiens",Non trouvé,Unité de formation et de recherche,Amiens,Non trouvé,Non trouvé,,,,https://diplomeo.com/etablissement-ufr_des_sciences_pole_scientifique_saint_leu_universite_picardie_jules_verne_amiens-6131
"UFR droit, science politique et gestion, Université de La Rochelle",Non trouvé,Unité de formation et de recherche,La Rochelle,Non trouvé,Non trouvé,,,,https://diplomeo.com/etablissement-ufr_droit_science_politique_et_gestion_universite_de_la_rochelle-6132
"UFR des sciences pharmaceutiques, Université Bordeaux II",Non trouvé,Unité de formation et de recherche,Bordeaux,Non trouvé,Non trouvé,,,,https://diplomeo.com/etablissement-ufr_des_sciences_pharmaceutiques_universite_bordeaux_ii-6133
"UFR d'histoire, arts et archéologie, Université Toulouse II",Non trouvé,Unité de formation et de recherche,Toulouse,Non trouvé,Non trouvé,,,,https://diplomeo.com/etablissement-ufr_d_histoire_arts_et_archeologie_universite_toulouse_ii-6134
"UFR des sciences pharmaceutiques et biologiques, Université de Bourgogne",Non trouvé,Unité de formation et de recherche,Dijon,Non trouvé,Non trouvé,,,,https://diplomeo.com/etablissement-ufr_des_sciences_pharmaceutiques_et_biologiques_universite_de_bourgogne-6135
"SJE UPVD - UFR des sciences juridiques et économiques - site de Narbonne, Université de Perpignan Via Domitia",Non trouvé,Unité de formation et de recherche,Carcassonne,Non trouvé,Non trouvé,,,,https://diplomeo.com/etablissement-sje_upvd_ufr_des_sciences_juridiques_et_economiques_site_de_narbonne_universite_de_perpignan_via_domitia-6137
"UFR des sciences humaines et arts, Université de Poitiers",Non trouvé,Unité de formation et de recherche,Poitiers,Non trouvé,Non trouvé,,,,https://diplomeo.com/etablissement-ufr_des_sciences_humaines_et_arts_universite_de_poitiers-6138
"SEE UPVD - UFR des sciences exactes et expérimentales, Université de Perpignan Via Domitia",Non trouvé,Unité de formation et de recherche,Perpignan,Non trouvé,Non trouvé,,,,https://diplomeo.com/etablissement-see_upvd_ufr_des_sciences_exactes_et_experimentales_universite_de_perpignan_via_domitia-6139
"SJE UPVD - UFR des sciences juridiques et économiques, Université de Perpignan Via Domitia",Non trouvé,Unité de formation et de recherche,Perpignan,Non trouvé,Non trouvé,,,,https://diplomeo.com/etablissement-sje_upvd_ufr_des_sciences_juridiques_et_economiques_universite_de_perpignan_via_domitia-6140
"UFR des sciences historiques, Université de Strasbourg",Non trouvé,Unité de formation et de recherche,Strasbourg,Non trouvé,Non trouvé,,,,https://diplomeo.com/etablissement-ufr_des_sciences_historiques_universite_de_strasbourg-6141
"UFR des sciences et techniques, Université du Havre",Non trouvé,Unité de formation et de recherche,Rouen,Non trouvé,Non trouvé,,,,https://diplomeo.com/etablissement-ufr_des_sciences_et_techniques_universite_du_havre-6143
UFR Sciences historiques artistiques et politiques - Université de Lille 3,Non trouvé,Unité de formation et de recherche,Villeneuve-d'Ascq,Non trouvé,Non trouvé,,,,https://diplomeo.com/etablissement-ufr_sciences_historiques_artistiques_et_politiques_universite_de_lille_3-6144
"UFR des sciences et techniques, Université de Tours",Non trouvé,Unité de formation et de recherche,Tours,Non trouvé,Non trouvé,,,,https://diplomeo.com/etablissement-ufr_des_sciences_et_techniques_universite_de_tours-6146
"UFR des sciences et techniques, Université de Corse",Non trouvé,Unité de formation et de recherche,Corte,Non trouvé,Non trouvé,,,,https://diplomeo.com/etablissement-ufr_des_sciences_et_techniques_universite_de_corse-6147
"UFR des sciences et techniques (site Saint-Martin), Université de Cergy-Pontoise",Non trouvé,Unité de formation et de recherche,Cergy,Non trouvé,Non trouvé,,,,https://diplomeo.com/etablissement-ufr_des_sciences_et_techniques_site_saint_martin_universite_de_cergy_pontoise-6148
"UFR des sciences et techniques site du Madrillet, Université de Rouen",Non trouvé,Unité de formation et de recherche,Rouen,Non trouvé,Non trouvé,,,,https://diplomeo.com/etablissement-ufr_des_sciences_et_techniques_site_du_madrillet_universite_de_rouen-6149
"UFR des sciences et techniques, Université de Rouen",Non trouvé,Unité de formation et de recherche,Rouen,Non trouvé,Non trouvé,,,,https://diplomeo.com/etablissement-ufr_des_sciences_et_techniques_universite_de_rouen-6150
"UFR des sciences du langage, de l'Homme et de la société, Université de Franche-Comté",Non trouvé,Unité de formation et de recherche,Besançon,Non trouvé,Non trouvé,,,,https://diplomeo.com/etablissement-ufr_des_sciences_du_langage_de_l_homme_et_de_la_societe_universite_de_franche_comte-6151
"UFR STAPS - UFR des sciences du sport et de l'éducation physique (STAPS), Université Bordeaux II",Non trouvé,Unité de formation et de recherche,Bordeaux,Non trouvé,Non trouvé,,,,https://diplomeo.com/etablissement-ufr_staps_ufr_des_sciences_du_sport_et_de_l_education_physique_staps_universite_bordeaux_ii-6153
"UFR des sciences de l'Homme, Université Bordeaux",Non trouvé,Unité de formation et de recherche,Bordeaux,Non trouvé,Non trouvé,,,,https://diplomeo.com/etablissement-ufr_des_sciences_de_l_homme_universite_bordeaux-6154
"UFR STAPS - UFR des sciences du sport et de l'éducation physique, Université de Rouen",Non trouvé,Unité de formation et de recherche,Rouen,Non trouvé,Non trouvé,,,,https://diplomeo.com/etablissement-ufr_staps_ufr_des_sciences_du_sport_et_de_l_education_physique_universite_de_rouen-6155
"UFR des sciences de la vie, Université Bordeaux II",Non trouvé,Unité de formation et de recherche,Bordeaux,Non trouvé,Non trouvé,,,,https://diplomeo.com/etablissement-ufr_des_sciences_de_la_vie_universite_bordeaux_ii-6156
"UFR des sciences économiques, Université de Poitiers",Non trouvé,Unité de formation et de recherche,Poitiers,Non trouvé,Non trouvé,,,,https://diplomeo.com/etablissement-ufr_des_sciences_economiques_universite_de_poitiers-6157
"UFR des sciences économiques et de gestion, Université Paris 13",Non trouvé,Unité de formation et de recherche,Villetaneuse,Non trouvé,Non trouvé,,,,https://diplomeo.com/etablissement-ufr_des_sciences_economiques_et_de_gestion_universite_paris_13-6158
"UFR de sports, tourisme et hôtellerie internationale - département tourisme Perpignan, Université de Perpignan Via Domitia",Non trouvé,Unité de formation et de recherche,Perpignan,Non trouvé,Non trouvé,,,,https://diplomeo.com/etablissement-ufr_de_sports_tourisme_et_hotellerie_internationale_departement_tourisme_perpignan_universite_de_perpignan_via_domitia-6159
"UFR de sociologie, Université de Nantes",Non trouvé,Unité de formation et de recherche,Nantes,Non trouvé,Non trouvé,,,,https://diplomeo.com/etablissement-ufr_de_sociologie_universite_de_nantes-6160
Ecole d'économie - Université d'Auvergne,Non trouvé,Unité de formation et de recherche,Clermont-Ferrand,Non trouvé,Non trouvé,,,,https://diplomeo.com/etablissement-ecole_d_economie_universite_d_auvergne-6161
"UFR des lettres et arts, Université Stendhal - Grenoble 3",Non trouvé,Unité de formation et de recherche,Grenoble,Non trouvé,Non trouvé,,,,https://diplomeo.com/etablissement-ufr_des_lettres_et_arts_universite_stendhal_grenoble_3-6162
"UFR des lettres des sciences de l'Homme et des sociétés, Université Paris 13",Non trouvé,Unité de formation et de recherche,Villetaneuse,Non trouvé,Non trouvé,,,,https://diplomeo.com/etablissement-ufr_des_lettres_des_sciences_de_l_homme_et_des_societes_universite_paris_13-6163
UFR des sciences de la terre - Université Lille 1,Non trouvé,Unité de formation et de recherche,Lille,Non trouvé,Non trouvé,,,,https://diplomeo.com/etablissement-ufr_des_sciences_de_la_terre_universite_lille_1-6164
"UFR des langues vivantes, Université de Strasbourg",Non trouvé,Unité de formation et de recherche,Strasbourg,Non trouvé,Non trouvé,,,,https://diplomeo.com/etablissement-ufr_des_langues_vivantes_universite_de_strasbourg-6165
"UFR de sciences, Université du Mans",Non trouvé,Unité de formation et de recherche,Le Mans,Non trouvé,Non trouvé,,,,https://diplomeo.com/etablissement-ufr_de_sciences_universite_du_mans-6166
"UFR de sciences, Université de Nice - Sophia Antipolis",Non trouvé,Unité de formation et de recherche,Nice,Non trouvé,Non trouvé,,,,https://diplomeo.com/etablissement-ufr_de_sciences_universite_de_nice_sophia_antipolis-6167
"UFR des lettres et langues, Université de Poitiers",Non trouvé,Unité de formation et de recherche,Poitiers,Non trouvé,Non trouvé,,,,https://diplomeo.com/etablissement-ufr_des_lettres_et_langues_universite_de_poitiers-6168
"UFR des lettres et sciences humaines, Université de Perpignan Via Domitia",Non trouvé,Unité de formation et de recherche,Perpignan,Non trouvé,Non trouvé,,,,https://diplomeo.com/etablissement-ufr_des_lettres_et_sciences_humaines_universite_de_perpignan_via_domitia-6169
"LSHA - UFR des langues et sciences humaines appliquées, Université de Strasbourg",Non trouvé,Unité de formation et de recherche,Strasbourg,Non trouvé,Non trouvé,,,,https://diplomeo.com/etablissement-lsha_ufr_des_langues_et_sciences_humaines_appliquees_universite_de_strasbourg-6170
"UFR des lettres, langues, arts et sciences humaines, Université de La Rochelle",Non trouvé,Unité de formation et de recherche,La Rochelle,Non trouvé,Non trouvé,,,,https://diplomeo.com/etablissement-ufr_des_lettres_langues_arts_et_sciences_humaines_universite_de_la_rochelle-6171
"UFR d'espaces et cultures, Université de Nice - Sophia Antipolis",Non trouvé,Unité de formation et de recherche,Nice,Non trouvé,Non trouvé,,,,https://diplomeo.com/etablissement-ufr_d_espaces_et_cultures_universite_de_nice_sophia_antipolis-6172
"UFR de sciences, Université de Caen Basse-Normandie",Non trouvé,Unité de formation et de recherche,Caen,Non trouvé,Non trouvé,,,,https://diplomeo.com/etablissement-ufr_de_sciences_universite_de_caen_basse_normandie-6173
"UFR des lettres, Université de Strasbourg",Non trouvé,Unité de formation et de recherche,Strasbourg,Non trouvé,Non trouvé,,,,https://diplomeo.com/etablissement-ufr_des_lettres_universite_de_strasbourg-6174
"UFR de sciences, Université d'Angers",Non trouvé,Unité de formation et de recherche,Angers,Non trouvé,Non trouvé,,,,https://diplomeo.com/etablissement-ufr_de_sciences_universite_d_angers-6175
"UFR de sciences pharmaceutiques, Université de Nantes",Non trouvé,Unité de formation et de recherche,Nantes,Non trouvé,Non trouvé,,,,https://diplomeo.com/etablissement-ufr_de_sciences_pharmaceutiques_universite_de_nantes-6176
"PHARMA UM1 - UFR de sciences pharmaceutiques, Université Montpellier I",Non trouvé,Unité de formation et de recherche,Montpellier,Non trouvé,Non trouvé,,,,https://diplomeo.com/etablissement-pharma_um1_ufr_de_sciences_pharmaceutiques_universite_montpellier_i-6177
"UFR SSA - UFR de sciences sociales et administration, Université Paris Ouest Nanterre La Défense",Non trouvé,Unité de formation et de recherche,Nanterre,Non trouvé,Non trouvé,,,,https://diplomeo.com/etablissement-ufr_ssa_ufr_de_sciences_sociales_et_administration_universite_paris_ouest_nanterre_la_defense-6178
"UFR de sciences techniques et gestion de l'industrie site de Belfort, Université de Bourgogne Franche-Comté (COMUE), Université de Franche-Comté",Non trouvé,Unité de formation et de recherche,Belfort,Non trouvé,Non trouvé,,,,https://diplomeo.com/etablissement-ufr_de_sciences_techniques_et_gestion_de_l_industrie_site_de_belfort_universite_de_bourgogne_franche_comte_comue_universite_de_franche_comte-6179
"UFR SSH - UFR des sciences sociales, Université de Versailles Saint-Quentin-en-Yvelines",Non trouvé,Unité de formation et de recherche,Guyancourt,Non trouvé,Non trouvé,,,,https://diplomeo.com/etablissement-ufr_ssh_ufr_des_sciences_sociales_universite_de_versailles_saint_quentin_en_yvelines-6180
"UFR de sciences pharmaceutiques et d'ingénierie de la santé, Université d'Angers",Non trouvé,Unité de formation et de recherche,Angers,Non trouvé,Non trouvé,,,,https://diplomeo.com/etablissement-ufr_de_sciences_pharmaceutiques_et_d_ingenierie_de_la_sante_universite_d_angers-6181
"UFR de sciences médicales, Université d'Angers",Non trouvé,Unité de formation et de recherche,Angers,Non trouvé,Non trouvé,,,,https://diplomeo.com/etablissement-ufr_de_sciences_medicales_universite_d_angers-6182
"UFR de sciences de l'homme et de la société, Université d'Evry-Val-d'Essonne",Non trouvé,Unité de formation et de recherche,Évry,Non trouvé,Non trouvé,,,,https://diplomeo.com/etablissement-ufr_de_sciences_de_l_homme_et_de_la_societe_universite_d_evry_val_d_essonne-6183
"UFR de sciences pharmaceutiques, Université de Caen Basse-Normandie",Non trouvé,Unité de formation et de recherche,Caen,Non trouvé,Non trouvé,,,,https://diplomeo.com/etablissement-ufr_de_sciences_pharmaceutiques_universite_de_caen_basse_normandie-6184
"UFR de sciences pharmaceutiques, Université de Tours",Non trouvé,Unité de formation et de recherche,Tours,Non trouvé,Non trouvé,,,,https://diplomeo.com/etablissement-ufr_de_sciences_pharmaceutiques_universite_de_tours-6185
"UFR de sciences humaines, Université Pierre Mendès France - Grenoble 2",Non trouvé,Unité de formation et de recherche,Grenoble,Non trouvé,Non trouvé,,,,https://diplomeo.com/etablissement-ufr_de_sciences_humaines_universite_pierre_mendes_france_grenoble_2-6188
"UFR de sciences psychologiques, sciences de l'éducation, Université Paris Ouest Nanterre La Défense",Non trouvé,Unité de formation et de recherche,Nanterre,Non trouvé,Non trouvé,,,,https://diplomeo.com/etablissement-ufr_de_sciences_psychologiques_sciences_de_l_education_universite_paris_ouest_nanterre_la_defense-6189
"UFRip Droit, économie, gestion, Université d'Avignon et des Pays de Vaucluse",Non trouvé,Unité de formation et de recherche,Avignon,Non trouvé,Non trouvé,,,,https://diplomeo.com/etablissement-ufrip_droit_economie_gestion_universite_d_avignon_et_des_pays_de_vaucluse-6190
"UFR de sciences médicales et pharmaceutiques, Université de Franche-Comté",Non trouvé,Unité de formation et de recherche,Besançon,Non trouvé,Non trouvé,,,,https://diplomeo.com/etablissement-ufr_de_sciences_medicales_et_pharmaceutiques_universite_de_franche_comte-6192
"UFR de sciences juridiques économiques politiques et gestion, Université de Franche-Comté",Non trouvé,Unité de formation et de recherche,Besançon,Non trouvé,Non trouvé,,,,https://diplomeo.com/etablissement-ufr_de_sciences_juridiques_economiques_politiques_et_gestion_universite_de_franche_comte-6193
"UFR Sciences humaines, Université de Bourgogne",Non trouvé,Unité de formation et de recherche,Dijon,Non trouvé,Non trouvé,,,,https://diplomeo.com/etablissement-ufr_sciences_humaines_universite_de_bourgogne-6194
"UFR SHS - UFR de sciences humaines et sociales, Université Paris-Est Marne-La-Vallée",Non trouvé,Unité de formation et de recherche,Melun,Non trouvé,Non trouvé,,,,https://diplomeo.com/etablissement-ufr_shs_ufr_de_sciences_humaines_et_sociales_universite_paris_est_marne_la_vallee-6195
"UFR3 UM3 - UFR3 de sciences humaines et sciences de l'environnement, Université Montpellier III",Non trouvé,Unité de formation et de recherche,Montpellier,Non trouvé,Non trouvé,,,,https://diplomeo.com/etablissement-ufr3_um3_ufr3_de_sciences_humaines_et_sciences_de_l_environnement_universite_montpellier_iii-6196
"UFR de sciences géographiques et aménagement, Université Aix-Marseille I",Non trouvé,Unité de formation et de recherche,Aix-en-Provence,Non trouvé,Non trouvé,,,,https://diplomeo.com/etablissement-ufr_de_sciences_geographiques_et_amenagement_universite_aix_marseille_i-6197
"UFR SFA - UFR de sciences fondamentales et appliquées, Université de Savoie",Non trouvé,Unité de formation et de recherche,Chambéry,Non trouvé,Non trouvé,,,,https://diplomeo.com/etablissement-ufr_sfa_ufr_de_sciences_fondamentales_et_appliquees_universite_de_savoie-6203
"UFR de sciences exactes et sciences de la nature, Université d'Avignon",Non trouvé,Unité de formation et de recherche,Avignon,Non trouvé,Non trouvé,,,,https://diplomeo.com/etablissement-ufr_de_sciences_exactes_et_sciences_de_la_nature_universite_d_avignon-6204
"UFR UM2 - UFR de sciences et techniques du Languedoc, Université Montpellier II",Non trouvé,Unité de formation et de recherche,Montpellier,Non trouvé,Non trouvé,,,,https://diplomeo.com/etablissement-ufr_um2_ufr_de_sciences_et_techniques_du_languedoc_universite_montpellier_ii-6205
"UFR de sciences exactes et naturelles, Université de Reims Champagne-Ardenne",Non trouvé,Unité de formation et de recherche,Reims,Non trouvé,Non trouvé,,,,https://diplomeo.com/etablissement-ufr_de_sciences_exactes_et_naturelles_universite_de_reims_champagne_ardenne-6206
"UFR de sciences et techniques, Université de Bretagne Occidentale",Non trouvé,Unité de formation et de recherche,Quimper,Non trouvé,Non trouvé,,,,https://diplomeo.com/etablissement-ufr_de_sciences_et_techniques_universite_de_bretagne_occidentale-6207
"UFR de sciences et techniques, Université du Sud Toulon - Var",Non trouvé,Unité de formation et de recherche,Toulon,Non trouvé,Non trouvé,,,,https://diplomeo.com/etablissement-ufr_de_sciences_et_techniques_universite_du_sud_toulon_var-6208
"UFR ST - UFR de sciences et techniques, Université de Franche-Comté",Non trouvé,Unité de formation et de recherche,Besançon,Non trouvé,Non trouvé,,,,https://diplomeo.com/etablissement-ufr_st_ufr_de_sciences_et_techniques_universite_de_franche_comte-6209
"UFR de sciences et techniques, Université de Bourgogne",Non trouvé,Unité de formation et de recherche,Dijon,Non trouvé,Non trouvé,,,,https://diplomeo.com/etablissement-ufr_de_sciences_et_techniques_universite_de_bourgogne-6210
"UFR de sciences et techniques, Université de Nantes",Non trouvé,Unité de formation et de recherche,Nantes,Non trouvé,Non trouvé,,,,https://diplomeo.com/etablissement-ufr_de_sciences_et_techniques_universite_de_nantes-6211
"SLA - UFR de sciences et langages appliqués, Université d'Avignon",Non trouvé,Unité de formation et de recherche,Avignon,Non trouvé,Non trouvé,,,,https://diplomeo.com/etablissement-sla_ufr_de_sciences_et_langages_appliques_universite_d_avignon-6212
"UFR de sciences, espaces, sociétés, Université Toulouse - Jean Jaurès",Non trouvé,Unité de formation et de recherche,Toulouse,Non trouvé,Non trouvé,,,,https://diplomeo.com/etablissement-ufr_de_sciences_espaces_societes_universite_toulouse_jean_jaures-6213
"UFR de sciences de l'Homme et de la société, Université Grenoble Alpes (COMUE)",Non trouvé,Unité de formation et de recherche,Grenoble,Non trouvé,Non trouvé,,,,https://diplomeo.com/etablissement-ufr_de_sciences_de_l_homme_et_de_la_societe_universite_grenoble_alpes_comue-6214
"UFR de Sciences de la Terre et de l'Environnement, Université Aix-Marseille I",Non trouvé,Unité de formation et de recherche,Marseille,Non trouvé,Non trouvé,,,,https://diplomeo.com/etablissement-ufr_de_sciences_de_la_terre_et_de_l_environnement_universite_aix_marseille_i-6215
"UFR de sciences de la Terre et de la mer, Université Bordeaux I",Non trouvé,Unité de formation et de recherche,Bordeaux,Non trouvé,Non trouvé,,,,https://diplomeo.com/etablissement-ufr_de_sciences_de_la_terre_et_de_la_mer_universite_bordeaux_i-6216
"UFR de sciences de la matière, Université Paris-Est Marne-La-Vallée",Non trouvé,Unité de formation et de recherche,Melun,Non trouvé,Non trouvé,,,,https://diplomeo.com/etablissement-ufr_de_sciences_de_la_matiere_universite_paris_est_marne_la_vallee-6217
"UFR de sciences de la communication, Université Paris 13",Non trouvé,Unité de formation et de recherche,Bobigny,Non trouvé,Non trouvé,,,,https://diplomeo.com/etablissement-ufr_de_sciences_de_la_communication_universite_paris_13-6218
"UFR de sciences de Cherbourg, Université de Caen Basse-Normandie",Non trouvé,Unité de formation et de recherche,Saint-Lô,Non trouvé,Non trouvé,,,,https://diplomeo.com/etablissement-ufr_de_sciences_de_cherbourg_universite_de_caen_basse_normandie-6219
"UFR de sciences de l'éducation, Université Lille 3",Non trouvé,Unité de formation et de recherche,Lille,Non trouvé,Non trouvé,,,,https://diplomeo.com/etablissement-ufr_de_sciences_de_l_education_universite_lille_3-6220
Faculté d'économie - Université de Montpellier,Non trouvé,Unité de formation et de recherche,Montpellier,Non trouvé,Non trouvé,,,,https://diplomeo.com/etablissement-faculte_d_economie_universite_de_montpellier-6221
"UFR de sciences de la vie et de la Terre, Université Toulouse III",Non trouvé,Unité de formation et de recherche,Toulouse,Non trouvé,Non trouvé,,,,https://diplomeo.com/etablissement-ufr_de_sciences_de_la_vie_et_de_la_terre_universite_toulouse_iii-6222
"UFR5 UM3 - UFR5 de sciences du sujet et de la société, Université Montpellier III",Non trouvé,Unité de formation et de recherche,Montpellier,Non trouvé,Non trouvé,,,,https://diplomeo.com/etablissement-ufr5_um3_ufr5_de_sciences_du_sujet_et_de_la_societe_universite_montpellier_iii-6223
"UFR de sciences de la matière, Université Aix-Marseille I",Non trouvé,Unité de formation et de recherche,Marseille,Non trouvé,Non trouvé,,,,https://diplomeo.com/etablissement-ufr_de_sciences_de_la_matiere_universite_aix_marseille_i-6224
"UFR4 UPVM3 - Faculté des sciences sociales, des organisations et des institutions, Université Paul Valéry Montpellier 3",Non trouvé,Unité de formation et de recherche,Montpellier,Non trouvé,Non trouvé,,,,https://diplomeo.com/etablissement-ufr4_upvm3_faculte_des_sciences_sociales_des_organisations_et_des_institutions_universite_paul_valery_montpellier_3-6226
"UFR de sciences économiques et de gestion, Université de Caen Basse-Normandie",Non trouvé,Unité de formation et de recherche,Caen,Non trouvé,Non trouvé,,,,https://diplomeo.com/etablissement-ufr_de_sciences_economiques_et_de_gestion_universite_de_caen_basse_normandie-6227
"UFR des Humanités et Sciences Sociales, Université de Caen Normandie",Non trouvé,Unité de formation et de recherche,Caen,Non trouvé,Non trouvé,,,,https://diplomeo.com/etablissement-ufr_des_humanites_et_sciences_sociales_universite_de_caen_normandie-6228
"UFR de sciences du langage, Université Stendhal - Grenoble 3",Non trouvé,Unité de formation et de recherche,Grenoble,Non trouvé,Non trouvé,,,,https://diplomeo.com/etablissement-ufr_de_sciences_du_langage_universite_stendhal_grenoble_3-6229
"UFR de sciences de la vie, Université Pierre et Marie Curie - UPMC",Non trouvé,Unité de formation et de recherche,Paris,Non trouvé,Non trouvé,,,,https://diplomeo.com/etablissement-ufr_de_sciences_de_la_vie_universite_pierre_et_marie_curie_upmc-6230
"UFR de sciences économiques et de gestion, Université de Bourgogne",Non trouvé,Unité de formation et de recherche,Dijon,Non trouvé,Non trouvé,,,,https://diplomeo.com/etablissement-ufr_de_sciences_economiques_et_de_gestion_universite_de_bourgogne-6231
UFR de sciences économiques et gestion - Université de Toulon,Non trouvé,Unité de formation et de recherche,Toulon,Non trouvé,Non trouvé,,,,https://diplomeo.com/etablissement-ufr_de_sciences_economiques_et_gestion_universite_de_toulon-6232
"UFR de sciences économiques et gestion, Université de Reims Champagne-Ardenne",Non trouvé,Unité de formation et de recherche,Reims,Non trouvé,Non trouvé,,,,https://diplomeo.com/etablissement-ufr_de_sciences_economiques_et_gestion_universite_de_reims_champagne_ardenne-6233
"UFR SEGMI - UFR de sciences économiques, gestion, mathématiques, informatique, Université Paris Ouest Nanterre La Défense",Non trouvé,Unité de formation et de recherche,Nanterre,Non trouvé,Non trouvé,,,,https://diplomeo.com/etablissement-ufr_segmi_ufr_de_sciences_economiques_gestion_mathematiques_informatique_universite_paris_ouest_nanterre_la_defense-6234
"UFR SEG - UFR de sciences économiques et de gestion, Université Paris-Est Marne-La-Vallée",Non trouvé,Unité de formation et de recherche,Champs-sur-Marne,Non trouvé,Non trouvé,,,,https://diplomeo.com/etablissement-ufr_seg_ufr_de_sciences_economiques_et_de_gestion_universite_paris_est_marne_la_vallee-6235
"UFR de sciences biologiques, Université Bordeaux I",Non trouvé,Unité de formation et de recherche,Bordeaux,Non trouvé,Non trouvé,,,,https://diplomeo.com/etablissement-ufr_de_sciences_biologiques_universite_bordeaux_i-6236
"Faculté des arts, Université de Strasbourg",Non trouvé,Unité de formation et de recherche,Strasbourg,Non trouvé,Non trouvé,,,,https://diplomeo.com/etablissement-faculte_des_arts_universite_de_strasbourg-6237
"UFR de santé médecine biologie humaine - Léonard de Vinci, Université Paris 13",Non trouvé,Unité de formation et de recherche,Bobigny,Non trouvé,Non trouvé,,,,https://diplomeo.com/etablissement-ufr_de_sante_medecine_biologie_humaine_leonard_de_vinci_universite_paris_13-6238
"UFR de psychologie, sciences de l'éducation, Université Aix-Marseille",Non trouvé,Unité de formation et de recherche,Aix-en-Provence,Non trouvé,Non trouvé,,,,https://diplomeo.com/etablissement-ufr_de_psychologie_sciences_de_l_education_universite_aix_marseille-6239
"UFR de physique, Université Lille 1 - Sciences et Technologies",Non trouvé,Unité de formation et de recherche,Lille,Non trouvé,Non trouvé,,,,https://diplomeo.com/etablissement-ufr_de_physique_universite_lille_1_sciences_et_technologies-6240
"UFR de psychologie, Université Toulouse II",Non trouvé,Unité de formation et de recherche,Toulouse,Non trouvé,Non trouvé,,,,https://diplomeo.com/etablissement-ufr_de_psychologie_universite_toulouse_ii-6241
"UFR de psychologie, Université Lille 3",Non trouvé,Unité de formation et de recherche,Lille,Non trouvé,Non trouvé,,,,https://diplomeo.com/etablissement-ufr_de_psychologie_universite_lille_3-6242
"PLISE - UFR de philosophie, linguistique et sciences de l'éducation, Université de Strasbourg",Non trouvé,Unité de formation et de recherche,Strasbourg,Non trouvé,Non trouvé,,,,https://diplomeo.com/etablissement-plise_ufr_de_philosophie_linguistique_et_sciences_de_l_education_universite_de_strasbourg-6244
"UFR de pharmacie, Université Joseph Fourier - Grenoble 1",Non trouvé,Unité de formation et de recherche,Grenoble,Non trouvé,Non trouvé,,,,https://diplomeo.com/etablissement-ufr_de_pharmacie_universite_joseph_fourier_grenoble_1-6245
"UFR de pharmacie, Université de Reims Champagne-Ardenne",Non trouvé,Unité de formation et de recherche,Reims,Non trouvé,Non trouvé,,,,https://diplomeo.com/etablissement-ufr_de_pharmacie_universite_de_reims_champagne_ardenne-6246
"UFR de pharmacie, Université Clermont-Ferrand I",Non trouvé,Unité de formation et de recherche,Clermont-Ferrand,Non trouvé,Non trouvé,,,,https://diplomeo.com/etablissement-ufr_de_pharmacie_universite_clermont_ferrand_i-6247
"UFR de médecine, Université Paris-Est Créteil Val-de-Marne",Non trouvé,Unité de formation et de recherche,Créteil,Non trouvé,Non trouvé,,,,https://diplomeo.com/etablissement-ufr_de_medecine_universite_paris_est_creteil_val_de_marne-6248
"UFR de médecine, Université Joseph Fourier - Grenoble 1",Non trouvé,Unité de formation et de recherche,Grenoble,Non trouvé,Non trouvé,,,,https://diplomeo.com/etablissement-ufr_de_medecine_universite_joseph_fourier_grenoble_1-6249
"UFR de psychologie, Université de Caen Basse-Normandie",Non trouvé,Unité de formation et de recherche,Caen,Non trouvé,Non trouvé,,,,https://diplomeo.com/etablissement-ufr_de_psychologie_universite_de_caen_basse_normandie-6250
"UFR de psychologie, sciences sociales, sciences de l'éducation, Université Clermont-Ferrand II",Non trouvé,Unité de formation et de recherche,Clermont-Ferrand,Non trouvé,Non trouvé,,,,https://diplomeo.com/etablissement-ufr_de_psychologie_sciences_sociales_sciences_de_l_education_universite_clermont_ferrand_ii-6251
"UFR de médecine, Université de Tours",Non trouvé,Unité de formation et de recherche,Tours,Non trouvé,Non trouvé,,,,https://diplomeo.com/etablissement-ufr_de_medecine_universite_de_tours-6252
"UFR de physique chimie automatique, Université Toulouse III",Non trouvé,Unité de formation et de recherche,Toulouse,Non trouvé,Non trouvé,,,,https://diplomeo.com/etablissement-ufr_de_physique_chimie_automatique_universite_toulouse_iii-6253
"UFR de philosophie université Charles de Gaulle, Université Lille 3",Non trouvé,Unité de formation et de recherche,Lille,Non trouvé,Non trouvé,,,,https://diplomeo.com/etablissement-ufr_de_philosophie_universite_charles_de_gaulle_universite_lille_3-6254
"UFR de physique et ingénierie, Université de Strasbourg",Non trouvé,Unité de formation et de recherche,Strasbourg,Non trouvé,Non trouvé,,,,https://diplomeo.com/etablissement-ufr_de_physique_et_ingenierie_universite_de_strasbourg-6255
"UFR de physique, Université Bordeaux I",Non trouvé,Unité de formation et de recherche,Bordeaux,Non trouvé,Non trouvé,,,,https://diplomeo.com/etablissement-ufr_de_physique_universite_bordeaux_i-6256
"UFR de philosophie, Université Rennes 1",Non trouvé,Unité de formation et de recherche,Rennes,Non trouvé,Non trouvé,,,,https://diplomeo.com/etablissement-ufr_de_philosophie_universite_rennes_1-6257
"UFR de médecine, Université de Reims Champagne-Ardenne",Non trouvé,Unité de formation et de recherche,Reims,Non trouvé,Non trouvé,,,,https://diplomeo.com/etablissement-ufr_de_medecine_universite_de_reims_champagne_ardenne-6258
"UFR de médecine, Université de Nice - Sophia Antipolis",Non trouvé,Unité de formation et de recherche,Nice,Non trouvé,Non trouvé,,,,https://diplomeo.com/etablissement-ufr_de_medecine_universite_de_nice_sophia_antipolis-6259
"UFR de médecine, Université de Caen Basse-Normandie",Non trouvé,Unité de formation et de recherche,Caen,Non trouvé,Non trouvé,,,,https://diplomeo.com/etablissement-ufr_de_medecine_universite_de_caen_basse_normandie-6260
"UFR de médecine et techniques médicales, Université de Nantes",Non trouvé,Unité de formation et de recherche,Nantes,Non trouvé,Non trouvé,,,,https://diplomeo.com/etablissement-ufr_de_medecine_et_techniques_medicales_universite_de_nantes-6261
"UFR de médecine (site Villemin), Université Paris Diderot",Non trouvé,Unité de formation et de recherche,Paris,Non trouvé,Non trouvé,,,,https://diplomeo.com/etablissement-ufr_de_medecine_site_villemin_universite_paris_diderot-6262
"UFR de médecine (site Xavier Bichat), Université Paris Diderot",Non trouvé,Unité de formation et de recherche,Paris,Non trouvé,Non trouvé,,,,https://diplomeo.com/etablissement-ufr_de_medecine_site_xavier_bichat_universite_paris_diderot-6263
"UFR de mathématiques, Université Paris-Est Marne-La-Vallée",Non trouvé,Unité de formation et de recherche,Melun,Non trouvé,Non trouvé,,,,https://diplomeo.com/etablissement-ufr_de_mathematiques_universite_paris_est_marne_la_vallee-6265
"UFR de mathématiques, Université Lille 1 - Sciences et Technologies",Non trouvé,Unité de formation et de recherche,Lille,Non trouvé,Non trouvé,,,,https://diplomeo.com/etablissement-ufr_de_mathematiques_universite_lille_1_sciences_et_technologies-6266
"UFR de médecine, Université Clermont-Ferrand I",Non trouvé,Unité de formation et de recherche,Clermont-Ferrand,Non trouvé,Non trouvé,,,,https://diplomeo.com/etablissement-ufr_de_medecine_universite_clermont_ferrand_i-6267
"UFR de médecine et pharmacie, Université de Rouen",Non trouvé,Unité de formation et de recherche,Rouen,Non trouvé,Non trouvé,,,,https://diplomeo.com/etablissement-ufr_de_medecine_et_pharmacie_universite_de_rouen-6268
"MED MTP UM1 - UFR de médecine Montpellier 1, Université Montpellier I",Non trouvé,Unité de formation et de recherche,Montpellier,Non trouvé,Non trouvé,,,,https://diplomeo.com/etablissement-med_mtp_um1_ufr_de_medecine_montpellier_1_universite_montpellier_i-6269
"UFR de médecine, Université de Bourgogne",Non trouvé,Unité de formation et de recherche,Dijon,Non trouvé,Non trouvé,,,,https://diplomeo.com/etablissement-ufr_de_medecine_universite_de_bourgogne-6270
"UFR de médecine et pharmacie, Université de Poitiers",Non trouvé,Unité de formation et de recherche,Poitiers,Non trouvé,Non trouvé,,,,https://diplomeo.com/etablissement-ufr_de_medecine_et_pharmacie_universite_de_poitiers-6272
"UFR de médecine et des sciences de la santé, Université de Bretagne Occidentale",Non trouvé,Unité de formation et de recherche,Quimper,Non trouvé,Non trouvé,,,,https://diplomeo.com/etablissement-ufr_de_medecine_et_des_sciences_de_la_sante_universite_de_bretagne_occidentale-6273
"MED NIM UM1 - UFR de médecine - antenne de Nîmes, Université Montpellier I",Non trouvé,Unité de formation et de recherche,Nîmes,Non trouvé,Non trouvé,,,,https://diplomeo.com/etablissement-med_nim_um1_ufr_de_medecine_antenne_de_nimes_universite_montpellier_i-6274
"UFR Mathématiques, informatique, management, économie, Université de Lille 3",Non trouvé,Unité de formation et de recherche,Villeneuve-d'Ascq,Non trouvé,Non trouvé,,,,https://diplomeo.com/etablissement-ufr_mathematiques_informatique_management_economie_universite_de_lille_3-6275
"UFR de mathématiques et informatique, Université Bordeaux I",Non trouvé,Unité de formation et de recherche,Bordeaux,Non trouvé,Non trouvé,,,,https://diplomeo.com/etablissement-ufr_de_mathematiques_et_informatique_universite_bordeaux_i-6278
"UFR de l'Orient et du monde arabe, Université de la Sorbonne Nouvelle",Non trouvé,Unité de formation et de recherche,Paris,Non trouvé,Non trouvé,,,,https://diplomeo.com/etablissement-ufr_de_l_orient_et_du_monde_arabe_universite_de_la_sorbonne_nouvelle-6279
"UFR de littérature générale et comparée, Université de la Sorbonne Nouvelle",Non trouvé,Unité de formation et de recherche,Paris,Non trouvé,Non trouvé,,,,https://diplomeo.com/etablissement-ufr_de_litterature_generale_et_comparee_universite_de_la_sorbonne_nouvelle-6281
"Université Paris Ouest Nanterre La Défense - UFR Philosophie, Information-Communication, Langage, Littérature, Arts du spectacle",Non trouvé,Unité de formation et de recherche,Nanterre,Non trouvé,Non trouvé,,,,https://diplomeo.com/etablissement-universite_paris_ouest_nanterre_la_defense_ufr_philosophie_information_communication_langage_litterature_arts_du_spectacle-6282
"UFR de lettres, langues, sciences humaines et sport, Université Pau et Pays de l'Adour",Non trouvé,Unité de formation et de recherche,Pau,Non trouvé,Non trouvé,,,,https://diplomeo.com/etablissement-ufr_de_lettres_langues_sciences_humaines_et_sport_universite_pau_et_pays_de_l_adour-6285
"UFR de littérature et linguistique françaises et latines, Université de la Sorbonne Nouvelle",Non trouvé,Unité de formation et de recherche,Paris,Non trouvé,Non trouvé,,,,https://diplomeo.com/etablissement-ufr_de_litterature_et_linguistique_francaises_et_latines_universite_de_la_sorbonne_nouvelle-6286
"UFR de lettres, philosophie et musique, Université Toulouse II",Non trouvé,Unité de formation et de recherche,Toulouse,Non trouvé,Non trouvé,,,,https://diplomeo.com/etablissement-ufr_de_lettres_philosophie_et_musique_universite_toulouse_ii-6288
"UFR de linguistique et phonétique générales et appliquées, Université de la Sorbonne Nouvelle",Non trouvé,Unité de formation et de recherche,Paris,Non trouvé,Non trouvé,,,,https://diplomeo.com/etablissement-ufr_de_linguistique_et_phonetique_generales_et_appliquees_universite_de_la_sorbonne_nouvelle-6289
"UFR de lettres modernes, Université Lille 3",Non trouvé,Unité de formation et de recherche,Lille,Non trouvé,Non trouvé,,,,https://diplomeo.com/etablissement-ufr_de_lettres_modernes_universite_lille_3-6291
"IUP Tourisme, Université de Nice - Sophia Antipolis",Non trouvé,Unité de formation et de recherche,Nice,Non trouvé,Non trouvé,,,,https://diplomeo.com/etablissement-iup_tourisme_universite_de_nice_sophia_antipolis-6736
"2001 - IUP Sport et management, Université Bordeaux II",Non trouvé,Unité de formation et de recherche,Pau,Non trouvé,Non trouvé,,,,https://diplomeo.com/etablissement-2001_iup_sport_et_management_universite_bordeaux_ii-6737
"IUP PVIA - IUP productions végétales et industries agroalimentaires, Université Picardie Jules Verne Amiens",Non trouvé,Unité de formation et de recherche,Amiens,Non trouvé,Non trouvé,,,,https://diplomeo.com/etablissement-iup_pvia_iup_productions_vegetales_et_industries_agroalimentaires_universite_picardie_jules_verne_amiens-6738
"IUPML - IUP métiers du livre, Université Pierre Mendès France - Grenoble 2",Non trouvé,Unité de formation et de recherche,Grenoble,Non trouvé,Non trouvé,,,,https://diplomeo.com/etablissement-iupml_iup_metiers_du_livre_universite_pierre_mendes_france_grenoble_2-6739
"IUP Management et gestion des entreprises, Université de Nice - Sophia Antipolis",Non trouvé,Unité de formation et de recherche,Nice,Non trouvé,Non trouvé,,,,https://diplomeo.com/etablissement-iup_management_et_gestion_des_entreprises_universite_de_nice_sophia_antipolis-6744
"IUP Miage, Université de Nice - Sophia Antipolis",Non trouvé,Unité de formation et de recherche,Nice,Non trouvé,Non trouvé,,,,https://diplomeo.com/etablissement-iup_miage_universite_de_nice_sophia_antipolis-6745
"Ecole universitaire de management, Université d'Auvergne",Non trouvé,Unité de formation et de recherche,Clermont-Ferrand,Non trouvé,Non trouvé,,,,https://diplomeo.com/etablissement-ecole_universitaire_de_management_universite_d_auvergne-6746
"IUP MIAGE - IUP méthodes informatiques appliquées à la gestion des entreprises, Université Picardie Jules Verne Amiens",Non trouvé,Unité de formation et de recherche,Amiens,Non trouvé,Non trouvé,,,,https://diplomeo.com/etablissement-iup_miage_iup_methodes_informatiques_appliquees_a_la_gestion_des_entreprises_universite_picardie_jules_verne_amiens-6754
"ULCO - Centre universitaire des Darses, Université du Littoral - Côte d'Opale",Non trouvé,Unité de formation et de recherche,Dunkerque,Non trouvé,Non trouvé,,,,https://diplomeo.com/etablissement-ulco_centre_universitaire_des_darses_universite_du_littoral_cote_d_opale-6781
"ULCO - Centre universitaire Descartes, Université du Littoral - Côte d'Opale",Non trouvé,Unité de formation et de recherche,Arras,Non trouvé,Non trouvé,,,,https://diplomeo.com/etablissement-ulco_centre_universitaire_descartes_universite_du_littoral_cote_d_opale-6783
"Centre universitaire de Sarreguemines - Antenne de droit, Université de Lorraine",Non trouvé,Unité de formation et de recherche,Sarreguemines,Non trouvé,Non trouvé,,,,https://diplomeo.com/etablissement-centre_universitaire_de_sarreguemines_antenne_de_droit_universite_de_lorraine-6784
"UFR Economie et gestion - antenne d'Arles, Université d'Aix-Marseille",Non trouvé,Unité de formation et de recherche,Arles,Non trouvé,Non trouvé,,,,https://diplomeo.com/etablissement-ufr_economie_et_gestion_antenne_d_arles_universite_d_aix_marseille-6785
"Centre universitaire d'Agen - site du Pin, Université Bordeaux III",Non trouvé,Unité de formation et de recherche,Agen,Non trouvé,Non trouvé,,,,https://diplomeo.com/etablissement-centre_universitaire_d_agen_site_du_pin_universite_bordeaux_iii-6786
"UFR de droit, des sciences économiques et de gestion - site de Laval, Université du Maine",Non trouvé,Unité de formation et de recherche,Changé,Non trouvé,Non trouvé,,,,https://diplomeo.com/etablissement-ufr_de_droit_des_sciences_economiques_et_de_gestion_site_de_laval_universite_du_maine-6788
"DEJA - Département d'études juridiques d'Agen, Université de Bordeaux",Non trouvé,Unité de formation et de recherche,Agen,Non trouvé,Non trouvé,,,,https://diplomeo.com/etablissement-deja_departement_d_etudes_juridiques_d_agen_universite_de_bordeaux-6789
"Centre universitaire de la Charente site Segonzac annexe UFR de Droit Poitiers, Université de Poitiers",Non trouvé,Unité de formation et de recherche,Angoulême,Non trouvé,Non trouvé,,,,https://diplomeo.com/etablissement-centre_universitaire_de_la_charente_site_segonzac_annexe_ufr_de_droit_poitiers_universite_de_poitiers-6790
"Centre universitaire de Montperrin, Université Paul Cézanne - Aix-Marseille III",Non trouvé,Unité de formation et de recherche,Aix-en-Provence,Non trouvé,Non trouvé,,,,https://diplomeo.com/etablissement-centre_universitaire_de_montperrin_universite_paul_cezanne_aix_marseille_iii-6791
"CUEEP - Boulogne-sur-Mer, Université du Littoral Côte d'Opale",Non trouvé,Unité de formation et de recherche,Arras,Non trouvé,Non trouvé,,,,https://diplomeo.com/etablissement-cueep_boulogne_sur_mer_universite_du_littoral_cote_d_opale-6792
CUCDB - Centre universitaire catholique de Bourgogne,Non trouvé,Unité de formation et de recherche,Dijon,Non trouvé,Non trouvé,,,,https://diplomeo.com/etablissement-cucdb_centre_universitaire_catholique_de_bourgogne-6793
"CUEEP - ULCO - Centre universitaire économie éducation permanente, Université du Littoral - Côte d'Opale",Non trouvé,Unité de formation et de recherche,Arras,Non trouvé,Non trouvé,,,,https://diplomeo.com/etablissement-cueep_ulco_centre_universitaire_economie_education_permanente_universite_du_littoral_cote_d_opale-6794
"CUEEP - ULCO - Centre universitaire économie éducation permanente, Université du Littoral - Côte d'Opale",Non trouvé,Unité de formation et de recherche,Lille,Non trouvé,Non trouvé,,,,https://diplomeo.com/etablissement-cueep_ulco_centre_universitaire_economie_education_permanente_universite_du_littoral_cote_d_opale-6795
"UFR Droit et science politique - antenne d'Arles, Université d'Aix-Marseille",Non trouvé,Unité de formation et de recherche,Aix-en-Provence,Non trouvé,Non trouvé,,,,https://diplomeo.com/etablissement-ufr_droit_et_science_politique_antenne_d_arles_universite_d_aix_marseille-6797
"Centre Saint-Charles, Université Aix-Marseille I",Non trouvé,Unité de formation et de recherche,Marseille,Non trouvé,Non trouvé,,,,https://diplomeo.com/etablissement-centre_saint_charles_universite_aix_marseille_i-6799
"Centre Stendhal de Valence, Université Stendhal - Grenoble 3",Non trouvé,Unité de formation et de recherche,Valence,Non trouvé,Non trouvé,,,,https://diplomeo.com/etablissement-centre_stendhal_de_valence_universite_stendhal_grenoble_3-6800
"ULCO - Centre universitaire Capécure, Université du Littoral - Côte d'Opale",Non trouvé,Unité de formation et de recherche,Boulogne-sur-Mer,Non trouvé,Non trouvé,,,,https://diplomeo.com/etablissement-ulco_centre_universitaire_capecure_universite_du_littoral_cote_d_opale-6802
"Centre universitaire Condorcet, Université de Bourgogne",Non trouvé,Unité de formation et de recherche,Le Creusot,Non trouvé,Non trouvé,,,,https://diplomeo.com/etablissement-centre_universitaire_condorcet_universite_de_bourgogne-6803
"CPPCA - Centre pluridisciplinaire des préparations aux concours administratifs, Université Paul Verlaine de Metz",Non trouvé,Unité de formation et de recherche,Metz,Non trouvé,Non trouvé,,,,https://diplomeo.com/etablissement-cppca_centre_pluridisciplinaire_des_preparations_aux_concours_administratifs_universite_paul_verlaine_de_metz-6841
"Faculté de droit et des sciences économiques - site de Brive, Université de Limoges",Non trouvé,Unité de formation et de recherche,Brive-la-Gaillarde,Non trouvé,Non trouvé,,,,https://diplomeo.com/etablissement-faculte_de_droit_et_des_sciences_economiques_site_de_brive_universite_de_limoges-6849
"CILEC - Centre international de langue et civilisation, Université Jean Monnet de Saint-Etienne",Non trouvé,Unité de formation et de recherche,Saint-Étienne,Non trouvé,Non trouvé,,,,https://diplomeo.com/etablissement-cilec_centre_international_de_langue_et_civilisation_universite_jean_monnet_de_saint_etienne-6857
"CEU - Centre européen universitaire, Nancy-Université - Nancy 2",Non trouvé,Unité de formation et de recherche,Nancy,Non trouvé,Non trouvé,,,,https://diplomeo.com/etablissement-ceu_centre_europeen_universitaire_nancy_universite_nancy_2-6879
"CEERE - Centre européen d'enseignement et de recherche en éthique, Université de Strasbourg",Non trouvé,Unité de formation et de recherche,Strasbourg,Non trouvé,Non trouvé,,,,https://diplomeo.com/etablissement-ceere_centre_europeen_d_enseignement_et_de_recherche_en_ethique_universite_de_strasbourg-6880
"CEUBA - Centre d'études universitaires de Bourg et de l'Ain, Université Jean Moulin - Lyon 3",Non trouvé,Unité de formation et de recherche,Bourg-en-Bresse,Non trouvé,Non trouvé,,,,https://diplomeo.com/etablissement-ceuba_centre_d_etudes_universitaires_de_bourg_et_de_l_ain_universite_jean_moulin_lyon_3-6881
"Centre d'études supérieures de Châteauroux, Université d'Orléans",Non trouvé,Unité de formation et de recherche,Châteauroux,Non trouvé,Non trouvé,,,,https://diplomeo.com/etablissement-centre_d_etudes_superieures_de_chateauroux_universite_d_orleans-6886
"CESS - Centre d'études scientifiques supérieures d'Epinal - antenne de la faculté des sciences de Vandoeuvre, Nancy-Université - Université Henri Poincaré",Non trouvé,Unité de formation et de recherche,Nancy,Non trouvé,Non trouvé,,,,https://diplomeo.com/etablissement-cess_centre_d_etudes_scientifiques_superieures_d_epinal_antenne_de_la_faculte_des_sciences_de_vandoeuvre_nancy_universite_universite_henri_poincare-6888
"CESS - Centre d'études scientifiques supérieures de Bar le Duc, Nancy-Université - Université Henri Poincaré",Non trouvé,Unité de formation et de recherche,Nancy,Non trouvé,Non trouvé,,,,https://diplomeo.com/etablissement-cess_centre_d_etudes_scientifiques_superieures_de_bar_le_duc_nancy_universite_universite_henri_poincare-6892
"CEJE - Centre d'études juridiques d'Epinal, Université de Lorraine",Non trouvé,Unité de formation et de recherche,Épinal,Non trouvé,Non trouvé,,,,https://diplomeo.com/etablissement-ceje_centre_d_etudes_juridiques_d_epinal_universite_de_lorraine-6893
"CERCOL - Centre d'études et recherches sur l'urbanisme construction et logement, Université Panthéon-Assas",Non trouvé,Unité de formation et de recherche,Paris,Non trouvé,Non trouvé,,,,https://diplomeo.com/etablissement-cercol_centre_d_etudes_et_recherches_sur_l_urbanisme_construction_et_logement_universite_pantheon_assas-6894
"CEIPI - Centre d'études internationales de la propriété intellectuelle, Université de Strasbourg",Non trouvé,Unité de formation et de recherche,Strasbourg,Non trouvé,Non trouvé,,,,https://diplomeo.com/etablissement-ceipi_centre_d_etudes_internationales_de_la_propriete_intellectuelle_universite_de_strasbourg-6895
"UFRAPS - Centre Drôme-Ardèche Site Rabelais, Université Joseph Fourier - Grenoble 1",Non trouvé,Unité de formation et de recherche,Valence,Non trouvé,Non trouvé,,,,https://diplomeo.com/etablissement-ufraps_centre_drome_ardeche_site_rabelais_universite_joseph_fourier_grenoble_1-6902
Centre des relations avec les entreprises et de la formation permanente,Non trouvé,Unité de formation et de recherche,Nanterre,Non trouvé,Non trouvé,,,,https://diplomeo.com/etablissement-centre_des_relations_avec_les_entreprises_et_de_la_formation_permanente-6903
"CDA - Centre Drôme-Ardèche Site Briffaut, Université Joseph Fourier - Grenoble 1",Non trouvé,Unité de formation et de recherche,Valence,Non trouvé,Non trouvé,,,,https://diplomeo.com/etablissement-cda_centre_drome_ardeche_site_briffaut_universite_joseph_fourier_grenoble_1-6904
"CERMOSEM - Centre de recherches montagnes sèches et méditerranéennes, Université Joseph Fourier - Grenoble 1",Non trouvé,Unité de formation et de recherche,Privas,Non trouvé,Non trouvé,,,,https://diplomeo.com/etablissement-cermosem_centre_de_recherches_montagnes_seches_et_mediterraneennes_universite_joseph_fourier_grenoble_1-6913
"CPAG - Centre de préparation à l'administration générale, Université de Bordeaux",Non trouvé,Unité de formation et de recherche,Pessac,Non trouvé,Non trouvé,,,,https://diplomeo.com/etablissement-cpag_centre_de_preparation_a_l_administration_generale_universite_de_bordeaux-6915
CPAG - Centre de préparation à l'administration générale Aix-Marseille,Non trouvé,Unité de formation et de recherche,Aix-en-Provence,Non trouvé,Non trouvé,,,,https://diplomeo.com/etablissement-cpag_centre_de_preparation_a_l_administration_generale_aix_marseille-6916
"Centre de préparation aux concours administratifs - Faculté de droit, Université Pau et Pays de l'Adour",Non trouvé,Unité de formation et de recherche,Pau,Non trouvé,Non trouvé,,,,https://diplomeo.com/etablissement-centre_de_preparation_aux_concours_administratifs_faculte_de_droit_universite_pau_et_pays_de_l_adour-6921
"CERI - Centre d'enseignement et de recherche en informatique, Université d'Avignon",Non trouvé,Unité de formation et de recherche,Avignon,Non trouvé,Non trouvé,,,,https://diplomeo.com/etablissement-ceri_centre_d_enseignement_et_de_recherche_en_informatique_universite_d_avignon-6928
"Centre de gestion universitaire Saint-Louis, Université du Littoral Côte d'Opale",Non trouvé,Unité de formation et de recherche,Boulogne-sur-Mer,Non trouvé,Non trouvé,,,,https://diplomeo.com/etablissement-centre_de_gestion_universitaire_saint_louis_universite_du_littoral_cote_d_opale-6933
"Centre de gestion universitaire de la Mi-Voix, Université du Littoral - Côte d'Opale",Non trouvé,Unité de formation et de recherche,Arras,Non trouvé,Non trouvé,,,,https://diplomeo.com/etablissement-centre_de_gestion_universitaire_de_la_mi_voix_universite_du_littoral_cote_d_opale-6934
"ULCO - Centre de gestion universitaire de la Citadelle, Université du Littoral - Côte d'Opale",Non trouvé,Unité de formation et de recherche,Lille,Non trouvé,Non trouvé,,,,https://diplomeo.com/etablissement-ulco_centre_de_gestion_universitaire_de_la_citadelle_universite_du_littoral_cote_d_opale-6940
"Centre de formation permanente, Université Panthéon-Assas",Non trouvé,Unité de formation et de recherche,Paris,Non trouvé,Non trouvé,,,,https://diplomeo.com/etablissement-centre_de_formation_permanente_universite_pantheon_assas-6962
"Centre de formation des musiciens intervenants, Université Aix-Marseille I",Non trouvé,Unité de formation et de recherche,Aix-en-Provence,Non trouvé,Non trouvé,,,,https://diplomeo.com/etablissement-centre_de_formation_des_musiciens_intervenants_universite_aix_marseille_i-6985
"Centre de formation de musiciens intervenants, Université Paris-Sud 11",Non trouvé,Unité de formation et de recherche,Évry-Courcouronnes,Non trouvé,Non trouvé,,,,https://diplomeo.com/etablissement-centre_de_formation_de_musiciens_intervenants_universite_paris_sud_11-6998
"CFMI - Centre de formation de musiciens intervenants à l'école, Université Lille 3",Non trouvé,Unité de formation et de recherche,Lille,Non trouvé,Non trouvé,,,,https://diplomeo.com/etablissement-cfmi_centre_de_formation_de_musiciens_intervenants_a_l_ecole_universite_lille_3-6999
"CFMI - Centre de formation de musiciens intervenants, Université de Strasbourg",Non trouvé,Unité de formation et de recherche,Strasbourg,Non trouvé,Non trouvé,,,,https://diplomeo.com/etablissement-cfmi_centre_de_formation_de_musiciens_intervenants_universite_de_strasbourg-7001
"CFMI - Centre de formation de musiciens intervenant à l'école, Université Rennes 2",Non trouvé,Unité de formation et de recherche,Rennes,Non trouvé,Non trouvé,,,,https://diplomeo.com/etablissement-cfmi_centre_de_formation_de_musiciens_intervenant_a_l_ecole_universite_rennes_2-7002
"INALCO CFI - Centre de communication et formation interculturelles, Institut national des langues et civilisations orientales",Non trouvé,Unité de formation et de recherche,Paris,Non trouvé,Non trouvé,,,,https://diplomeo.com/etablissement-inalco_cfi_centre_de_communication_et_formation_interculturelles_institut_national_des_langues_et_civilisations_orientales-7039
"CEPPES - Centre d'éducation permanente et de promotion économique et sociale, Université de Valenciennes",Non trouvé,Unité de formation et de recherche,Lille,Non trouvé,Non trouvé,,,,https://diplomeo.com/etablissement-ceppes_centre_d_education_permanente_et_de_promotion_economique_et_sociale_universite_de_valenciennes-7048
CELSA - Paris Sorbonne,Non trouvé,Unité de formation et de recherche,Nanterre,Non trouvé,Non trouvé,,,,https://diplomeo.com/etablissement-celsa_paris_sorbonne-7049
"Antenne universitaire UFR langues, littératures et civilisations étrangères Toulouse II, Université Toulouse II",Non trouvé,Unité de formation et de recherche,Foix,Non trouvé,Non trouvé,,,,https://diplomeo.com/etablissement-antenne_universitaire_ufr_langues_litteratures_et_civilisations_etrangeres_toulouse_ii_universite_toulouse_ii-7165
"Antenne universitaire UFR sciences, espaces et sociétés, Université Toulouse II",Non trouvé,Unité de formation et de recherche,Foix,Non trouvé,Non trouvé,,,,https://diplomeo.com/etablissement-antenne_universitaire_ufr_sciences_espaces_et_societes_universite_toulouse_ii-7166
"Antenne universitaire UFR Histoire, arts et archéologie Toulouse II, Université Toulouse II",Non trouvé,Unité de formation et de recherche,Cahors,Non trouvé,Non trouvé,,,,https://diplomeo.com/etablissement-antenne_universitaire_ufr_histoire_arts_et_archeologie_toulouse_ii_universite_toulouse_ii-7168
"Antenne universitaire UFR histoire, arts et archéologie, Université Toulouse Montauban",Non trouvé,Unité de formation et de recherche,Montauban,Non trouvé,Non trouvé,,,,https://diplomeo.com/etablissement-antenne_universitaire_ufr_histoire_arts_et_archeologie_universite_toulouse_montauban-7169
"Antenne UFR lettres, langues et sciences humaines, Université Pau et Pays de l'Adour",Non trouvé,Unité de formation et de recherche,Tarbes,Non trouvé,Non trouvé,,,,https://diplomeo.com/etablissement-antenne_ufr_lettres_langues_et_sciences_humaines_universite_pau_et_pays_de_l_adour-7174
"ASUC - Antenne scientifique universitaire de Chartres, Université d'Orléans",Non trouvé,Unité de formation et de recherche,Orléans,Non trouvé,Non trouvé,,,,https://diplomeo.com/etablissement-asuc_antenne_scientifique_universitaire_de_chartres_universite_d_orleans-7175
"Antenne scientifique universitaire de Bourges, Université d'Orléans",Non trouvé,Unité de formation et de recherche,Orléans,Non trouvé,Non trouvé,,,,https://diplomeo.com/etablissement-antenne_scientifique_universitaire_de_bourges_universite_d_orleans-7176
"Antenne du département de lettres, langues et art (CUFR Jean-François Champollion)",Non trouvé,Unité de formation et de recherche,Rodez,Non trouvé,Non trouvé,,,,https://diplomeo.com/etablissement-antenne_du_departement_de_lettres_langues_et_art_cufr_jean_francois_champollion-7183
"Antenne du département de droit, économie, gestion (INU Jean-François Champollion), Institut National Universitaire Jean-François Champollion",Non trouvé,Unité de formation et de recherche,Rodez,Non trouvé,Non trouvé,,,,https://diplomeo.com/etablissement-antenne_du_departement_de_droit_economie_gestion_inu_jean_francois_champollion_institut_national_universitaire_jean_francois_champollion-7185
"Antenne de Beauvais, Université Picardie Jules Verne Amiens",Non trouvé,Unité de formation et de recherche,Compiègne,Non trouvé,Non trouvé,,,,https://diplomeo.com/etablissement-antenne_de_beauvais_universite_picardie_jules_verne_amiens-7190
"Antenne de l'UFR sciences et techniques, Université Pau et Pays de l'Adour",Non trouvé,Unité de formation et de recherche,Tarbes,Non trouvé,Non trouvé,,,,https://diplomeo.com/etablissement-antenne_de_l_ufr_sciences_et_techniques_universite_pau_et_pays_de_l_adour-7191
"Antenne de l'UFR sciences et techniques de Mont Saint-Aignan, Université de Rouen",Non trouvé,Unité de formation et de recherche,Évreux,Non trouvé,Non trouvé,,,,https://diplomeo.com/etablissement-antenne_de_l_ufr_sciences_et_techniques_de_mont_saint_aignan_universite_de_rouen-7192
"UFR de droit de l'université de Rouen - Antenne Campus d'Evreux, Université de Rouen",Non trouvé,Unité de formation et de recherche,Évreux,Non trouvé,Non trouvé,,,,https://diplomeo.com/etablissement-ufr_de_droit_de_l_universite_de_rouen_antenne_campus_d_evreux_universite_de_rouen-7193
"ISEM UM - Institut des sciences de l'entreprise et du management - antenne d'Orfeuillette, Université de Montpellier",Non trouvé,Unité de formation et de recherche,Albaret-Sainte-Marie,Non trouvé,Non trouvé,,,,https://diplomeo.com/etablissement-isem_um_institut_des_sciences_de_l_entreprise_et_du_management_antenne_d_orfeuillette_universite_de_montpellier-7198
"Antenne de la faculté des sciences et techniques de Limoges (Section STAPS), Université de Limoges",Non trouvé,Unité de formation et de recherche,Tulle,Non trouvé,Non trouvé,,,,https://diplomeo.com/etablissement-antenne_de_la_faculte_des_sciences_et_techniques_de_limoges_section_staps_universite_de_limoges-7199
"ISTV - Antenne de l'Institut des sciences et techniques de Valenciennes - Maubeuge, Université de Valenciennes",Non trouvé,Unité de formation et de recherche,Lille,Non trouvé,Non trouvé,,,,https://diplomeo.com/etablissement-istv_antenne_de_l_institut_des_sciences_et_techniques_de_valenciennes_maubeuge_universite_de_valenciennes-7200
"Antenne de la faculté des sciences du sport, Université Picardie Jules Verne Amiens",Non trouvé,Unité de formation et de recherche,Laon,Non trouvé,Non trouvé,,,,https://diplomeo.com/etablissement-antenne_de_la_faculte_des_sciences_du_sport_universite_picardie_jules_verne_amiens-7202
"UFR Droit et science politique - antenne de Marseille, Université d'Aix-Marseille",Non trouvé,Unité de formation et de recherche,Marseille,Non trouvé,Non trouvé,,,,https://diplomeo.com/etablissement-ufr_droit_et_science_politique_antenne_de_marseille_universite_d_aix_marseille-7203
"FEG - Faculté Economie et gestion - site Canebière, Université d'Aix-Marseille",Non trouvé,Unité de formation et de recherche,Marseille,Non trouvé,Non trouvé,,,,https://diplomeo.com/etablissement-feg_faculte_economie_et_gestion_site_canebiere_universite_d_aix_marseille-7204
"Antenne de Gap de la faculté des sciences du sport de Luminy, Université Aix-Marseille II",Non trouvé,Unité de formation et de recherche,Gap,Non trouvé,Non trouvé,,,,https://diplomeo.com/etablissement-antenne_de_gap_de_la_faculte_des_sciences_du_sport_de_luminy_universite_aix_marseille_ii-7207
"Pôle universitaire - antenne de Gap, Université d'Aix-Marseille",Non trouvé,Unité de formation et de recherche,Gap,Non trouvé,Non trouvé,,,,https://diplomeo.com/etablissement-pole_universitaire_antenne_de_gap_universite_d_aix_marseille-7208
"UPVM3 - Antenne de Béziers, Université Paul Valéry Montpellier 3",Non trouvé,Unité de formation et de recherche,Montpellier,Non trouvé,Non trouvé,,,,https://diplomeo.com/etablissement-upvm3_antenne_de_beziers_universite_paul_valery_montpellier_3-7210
Université Paris Ouest Nanterre La Défense,Non trouvé,Unité de formation et de recherche,Nanterre,Non trouvé,Non trouvé,,,,https://diplomeo.com/etablissement-universite_paris_ouest_nanterre_la_defense-7586
Université Paris Dauphine - PSL,Non trouvé,Unité de formation et de recherche,Paris,Non trouvé,Non trouvé,,,,https://diplomeo.com/etablissement-universite_paris_dauphine_psl-7697
Faculté de Médecine Paris Descartes,Non trouvé,Unité de formation et de recherche,Paris,Non trouvé,Non trouvé,,,,https://diplomeo.com/etablissement-faculte_de_medecine_paris_descartes-7793
Université Paris V - Paris-Descartes,Non trouvé,Unité de formation et de recherche,Paris,Non trouvé,Non trouvé,,,,https://diplomeo.com/etablissement-universite_paris_v_paris_descartes-7810
Université Paris Panthéon-Sorbonne,Non trouvé,Unité de formation et de recherche,Paris,Non trouvé,Non trouvé,,,,https://diplomeo.com/etablissement-universite_paris_pantheon_sorbonne-7819
Centre Audiovisuel d'Études Juridiques,Non trouvé,Unité de formation et de recherche,Paris,Non trouvé,Non trouvé,,,,https://diplomeo.com/etablissement-centre_audiovisuel_d_etudes_juridiques-7821
Université d'Aix-Marseille,Non trouvé,Unité de formation et de recherche,Marseille,Non trouvé,Non trouvé,,,,https://diplomeo.com/etablissement-universite_d_aix_marseille-7828
Université d'Avignon et des pays du Vaucluse,Non trouvé,Unité de formation et de recherche,Avignon,Non trouvé,Non trouvé,,,,https://diplomeo.com/etablissement-universite_d_avignon_et_des_pays_du_vaucluse-7829
Université de Picardie Jules Verne,Non trouvé,Unité de formation et de recherche,Compiègne,Non trouvé,Non trouvé,,,,https://diplomeo.com/etablissement-universite_de_picardie_jules_verne-7830
Université de technologie de Compiègne,Non trouvé,Unité de formation et de recherche,Compiègne,Non trouvé,Non trouvé,,,,https://diplomeo.com/etablissement-universite_de_technologie_de_compiegne-7831
Université de Franche-Comté,Non trouvé,Unité de formation et de recherche,Besançon,Non trouvé,Non trouvé,,,,https://diplomeo.com/etablissement-universite_de_franche_comte-7832
Université de technologie de Belfort-Montbéliard,Non trouvé,Unité de formation et de recherche,Besançon,Non trouvé,Non trouvé,,,,https://diplomeo.com/etablissement-universite_de_technologie_de_belfort_montbeliard-7833
Université  Bordeaux 1,Non trouvé,Unité de formation et de recherche,Bordeaux,Non trouvé,Non trouvé,,,,https://diplomeo.com/etablissement-universite_bordeaux_1-7834
"Université ""Victor Segalen""  Bordeaux 2",Non trouvé,Unité de formation et de recherche,Bordeaux,Non trouvé,Non trouvé,,,,https://diplomeo.com/etablissement-universite_victor_segalen_bordeaux_2-7835
Université Michel de Montaigne  Bordeaux 3,Non trouvé,Unité de formation et de recherche,Bordeaux,Non trouvé,Non trouvé,,,,https://diplomeo.com/etablissement-universite_michel_de_montaigne_bordeaux_3-7836
Université Montesquieu  Bordeaux 4,Non trouvé,Unité de formation et de recherche,Bordeaux,Non trouvé,Non trouvé,,,,https://diplomeo.com/etablissement-universite_montesquieu_bordeaux_4-7837
Université de Pau et des Pays de l'Adour,Non trouvé,Unité de formation et de recherche,Pau,Non trouvé,Non trouvé,,,,https://diplomeo.com/etablissement-universite_de_pau_et_des_pays_de_l_adour-7838
Université de Versailles-Saint-Quentin-en-Yvelines,Non trouvé,Unité de formation et de recherche,Versailles,Non trouvé,Non trouvé,,,,https://diplomeo.com/etablissement-universite_de_versailles_saint_quentin_en_yvelines-7839
"IDEA Lyon - Institut de droit et d'économie des affaires, Université Jean Moulin - Lyon 3",Non trouvé,Unité de formation et de recherche,Lyon,Non trouvé,Non trouvé,,,,https://diplomeo.com/etablissement-idea_lyon_institut_de_droit_et_d_economie_des_affaires_universite_jean_moulin_lyon_3-8905
"Faculté libre de droit Paris (FLD) - Université catholique de Lille, campus de Paris",Non trouvé,Unité de formation et de recherche,Issy-les-Moulineaux,Non trouvé,Non trouvé,,,,https://diplomeo.com/etablissement-faculte_libre_de_droit_paris_fld_universite_catholique_de_lille_campus_de_paris-9114
